{
  "type": "FeatureCollection",
  "features": [
    {
      "type": "Feature",
      "geometry": {
        "type": "MultiPolygon",
        "coordinates": [
          [
            [
              [
                72.574,
                18.669999999999998
              ],
              [
                72.575,
                18.669999999999998
              ],
              [
                72.575,
                18.668999999999997
              ],
              [
                72.574,
                18.668999999999997
              ],
              [
                72.574,
                18.669999999999998
              ]
            ]
          ],
          [
            [
              [
                72.567,
                18.712999999999997
              ],
              [
                72.569,
                18.712999999999997
              ],
              [
                72.569,
                18.712
              ],
              [
                72.571,
                18.712
              ],
              [
                72.571,
                18.709999999999997
              ],
              [
                72.572,
                18.709999999999997
              ],
              [
                72.572,
                18.709
              ],
              [
                72.573,
                18.709
              ],
              [
                72.573,
                18.708
              ],
              [
                72.575,
                18.708
              ],
              [
                72.575,
                18.706999999999997
              ],
              [
                72.576,
                18.706999999999997
              ],
              [
                72.576,
                18.705
              ],
              [
                72.577,
                18.705
              ],
              [
                72.577,
                18.703999999999997
              ],
              [
                72.579,
                18.703999999999997
              ],
              [
                72.579,
                18.703
              ],
              [
                72.581,
                18.703
              ],
              [
                72.581,
                18.701999999999998
              ],
              [
                72.583,
                18.701999999999998
              ],
              [
                72.583,
                18.700999999999997
              ],
              [
                72.584,
                18.700999999999997
              ],
              [
                72.584,
                18.7
              ],
              [
                72.586,
                18.7
              ],
              [
                72.586,
                18.698999999999998
              ],
              [
                72.587,
                18.698999999999998
              ],
              [
                72.587,
                18.697999999999997
              ],
              [
                72.588,
                18.697999999999997
              ],
              [
                72.588,
                18.697
              ],
              [
                72.589,
                18.697
              ],
              [
                72.589,
                18.695999999999998
              ],
              [
                72.591,
                18.695999999999998
              ],
              [
                72.591,
                18.695
              ],
              [
                72.592,
                18.695
              ],
              [
                72.592,
                18.689999999999998
              ],
              [
                72.59,
                18.689999999999998
              ],
              [
                72.59,
                18.691
              ],
              [
                72.588,
                18.691
              ],
              [
                72.588,
                18.692
              ],
              [
                72.585,
                18.692
              ],
              [
                72.585,
                18.692999999999998
              ],
              [
                72.582,
                18.692999999999998
              ],
              [
                72.582,
                18.694
              ],
              [
                72.581,
                18.694
              ],
              [
                72.581,
                18.695
              ],
              [
                72.58,
                18.695
              ],
              [
                72.58,
                18.695999999999998
              ],
              [
                72.579,
                18.695999999999998
              ],
              [
                72.579,
                18.697
              ],
              [
                72.576,
                18.697
              ],
              [
                72.576,
                18.697999999999997
              ],
              [
                72.575,
                18.697999999999997
              ],
              [
                72.575,
                18.698999999999998
              ],
              [
                72.574,
                18.698999999999998
              ],
              [
                72.574,
                18.7
              ],
              [
                72.573,
                18.7
              ],
              [
                72.573,
                18.700999999999997
              ],
              [
                72.572,
                18.700999999999997
              ],
              [
                72.572,
                18.701999999999998
              ],
              [
                72.571,
                18.701999999999998
              ],
              [
                72.571,
                18.703
              ],
              [
                72.57,
                18.703
              ],
              [
                72.57,
                18.703999999999997
              ],
              [
                72.569,
                18.703999999999997
              ],
              [
                72.569,
                18.705
              ],
              [
                72.568,
                18.705
              ],
              [
                72.568,
                18.706999999999997
              ],
              [
                72.567,
                18.706999999999997
              ],
              [
                72.567,
                18.709
              ],
              [
                72.565,
                18.709
              ],
              [
                72.565,
                18.712
              ],
              [
                72.564,
                18.712
              ],
              [
                72.564,
                18.712999999999997
              ],
              [
                72.562,
                18.712999999999997
              ],
              [
                72.562,
                18.715
              ],
              [
                72.564,
                18.715
              ],
              [
                72.564,
                18.714
              ],
              [
                72.567,
                18.714
              ],
              [
                72.567,
                18.712999999999997
              ]
            ]
          ],
          [
            [
              [
                72.503,
                18.726
              ],
              [
                72.506,
                18.726
              ],
              [
                72.506,
                18.724999999999998
              ],
              [
                72.517,
                18.724999999999998
              ],
              [
                72.517,
                18.724
              ],
              [
                72.521,
                18.724
              ],
              [
                72.521,
                18.724999999999998
              ],
              [
                72.522,
                18.724999999999998
              ],
              [
                72.522,
                18.724
              ],
              [
                72.527,
                18.724
              ],
              [
                72.527,
                18.723
              ],
              [
                72.529,
                18.723
              ],
              [
                72.529,
                18.721999999999998
              ],
              [
                72.531,
                18.721999999999998
              ],
              [
                72.531,
                18.72
              ],
              [
                72.532,
                18.72
              ],
              [
                72.532,
                18.718
              ],
              [
                72.531,
                18.718
              ],
              [
                72.531,
                18.717
              ],
              [
                72.527,
                18.717
              ],
              [
                72.527,
                18.715999999999998
              ],
              [
                72.524,
                18.715999999999998
              ],
              [
                72.524,
                18.717
              ],
              [
                72.52,
                18.717
              ],
              [
                72.52,
                18.718
              ],
              [
                72.514,
                18.718
              ],
              [
                72.514,
                18.717
              ],
              [
                72.512,
                18.717
              ],
              [
                72.512,
                18.715999999999998
              ],
              [
                72.511,
                18.715999999999998
              ],
              [
                72.511,
                18.709
              ],
              [
                72.51,
                18.709
              ],
              [
                72.51,
                18.705
              ],
              [
                72.509,
                18.705
              ],
              [
                72.509,
                18.709999999999997
              ],
              [
                72.508,
                18.709999999999997
              ],
              [
                72.508,
                18.714
              ],
              [
                72.507,
                18.714
              ],
              [
                72.507,
                18.717
              ],
              [
                72.506,
                18.717
              ],
              [
                72.506,
                18.718
              ],
              [
                72.505,
                18.718
              ],
              [
                72.505,
                18.72
              ],
              [
                72.504,
                18.72
              ],
              [
                72.504,
                18.721
              ],
              [
                72.503,
                18.721
              ],
              [
                72.503,
                18.721999999999998
              ],
              [
                72.502,
                18.721999999999998
              ],
              [
                72.502,
                18.723
              ],
              [
                72.5,
                18.723
              ],
              [
                72.5,
                18.729
              ],
              [
                72.502,
                18.729
              ],
              [
                72.502,
                18.727
              ],
              [
                72.503,
                18.727
              ],
              [
                72.503,
                18.726
              ]
            ]
          ],
          [
            [
              [
                72.5,
                18.738999999999997
              ],
              [
                72.502,
                18.738999999999997
              ],
              [
                72.502,
                18.737
              ],
              [
                72.5,
                18.737
              ],
              [
                72.5,
                18.738999999999997
              ]
            ]
          ],
          [
            [
              [
                72.587,
                18.744
              ],
              [
                72.588,
                18.744
              ],
              [
                72.588,
                18.741999999999997
              ],
              [
                72.589,
                18.741999999999997
              ],
              [
                72.589,
                18.741
              ],
              [
                72.588,
                18.741
              ],
              [
                72.588,
                18.74
              ],
              [
                72.586,
                18.74
              ],
              [
                72.586,
                18.741
              ],
              [
                72.585,
                18.741
              ],
              [
                72.585,
                18.743
              ],
              [
                72.584,
                18.743
              ],
              [
                72.584,
                18.746
              ],
              [
                72.585,
                18.746
              ],
              [
                72.585,
                18.747
              ],
              [
                72.586,
                18.747
              ],
              [
                72.586,
                18.746
              ],
              [
                72.587,
                18.746
              ],
              [
                72.587,
                18.744
              ]
            ]
          ],
          [
            [
              [
                72.588,
                18.769
              ],
              [
                72.587,
                18.769
              ],
              [
                72.587,
                18.767
              ],
              [
                72.586,
                18.767
              ],
              [
                72.586,
                18.766
              ],
              [
                72.584,
                18.766
              ],
              [
                72.584,
                18.764999999999997
              ],
              [
                72.583,
                18.764999999999997
              ],
              [
                72.583,
                18.759999999999998
              ],
              [
                72.582,
                18.759999999999998
              ],
              [
                72.582,
                18.758
              ],
              [
                72.581,
                18.758
              ],
              [
                72.581,
                18.756999999999998
              ],
              [
                72.58,
                18.756999999999998
              ],
              [
                72.58,
                18.753
              ],
              [
                72.579,
                18.753
              ],
              [
                72.579,
                18.747
              ],
              [
                72.58,
                18.747
              ],
              [
                72.58,
                18.746
              ],
              [
                72.578,
                18.746
              ],
              [
                72.578,
                18.744999999999997
              ],
              [
                72.576,
                18.744999999999997
              ],
              [
                72.576,
                18.744
              ],
              [
                72.575,
                18.744
              ],
              [
                72.575,
                18.743
              ],
              [
                72.574,
                18.743
              ],
              [
                72.574,
                18.744999999999997
              ],
              [
                72.573,
                18.744999999999997
              ],
              [
                72.573,
                18.746
              ],
              [
                72.574,
                18.746
              ],
              [
                72.574,
                18.749
              ],
              [
                72.575,
                18.749
              ],
              [
                72.575,
                18.75
              ],
              [
                72.576,
                18.75
              ],
              [
                72.576,
                18.759
              ],
              [
                72.577,
                18.759
              ],
              [
                72.577,
                18.761
              ],
              [
                72.578,
                18.761
              ],
              [
                72.578,
                18.761999999999997
              ],
              [
                72.579,
                18.761999999999997
              ],
              [
                72.579,
                18.762999999999998
              ],
              [
                72.58,
                18.762999999999998
              ],
              [
                72.58,
                18.764
              ],
              [
                72.581,
                18.764
              ],
              [
                72.581,
                18.766
              ],
              [
                72.582,
                18.766
              ],
              [
                72.582,
                18.767
              ],
              [
                72.584,
                18.767
              ],
              [
                72.584,
                18.770999999999997
              ],
              [
                72.585,
                18.770999999999997
              ],
              [
                72.585,
                18.772
              ],
              [
                72.587,
                18.772
              ],
              [
                72.587,
                18.770999999999997
              ],
              [
                72.588,
                18.770999999999997
              ],
              [
                72.588,
                18.769
              ]
            ]
          ],
          [
            [
              [
                72.607,
                18.773
              ],
              [
                72.605,
                18.773
              ],
              [
                72.605,
                18.773999999999997
              ],
              [
                72.604,
                18.773999999999997
              ],
              [
                72.604,
                18.775
              ],
              [
                72.605,
                18.775
              ],
              [
                72.605,
                18.776
              ],
              [
                72.606,
                18.776
              ],
              [
                72.606,
                18.775
              ],
              [
                72.607,
                18.775
              ],
              [
                72.607,
                18.773
              ]
            ]
          ],
          [
            [
              [
                72.539,
                18.825
              ],
              [
                72.539,
                18.822
              ],
              [
                72.537,
                18.822
              ],
              [
                72.537,
                18.820999999999998
              ],
              [
                72.536,
                18.820999999999998
              ],
              [
                72.536,
                18.82
              ],
              [
                72.535,
                18.82
              ],
              [
                72.535,
                18.817999999999998
              ],
              [
                72.534,
                18.817999999999998
              ],
              [
                72.534,
                18.817
              ],
              [
                72.531,
                18.817
              ],
              [
                72.531,
                18.817999999999998
              ],
              [
                72.53,
                18.817999999999998
              ],
              [
                72.53,
                18.819
              ],
              [
                72.531,
                18.819
              ],
              [
                72.531,
                18.82
              ],
              [
                72.532,
                18.82
              ],
              [
                72.532,
                18.822999999999997
              ],
              [
                72.534,
                18.822999999999997
              ],
              [
                72.534,
                18.823999999999998
              ],
              [
                72.536,
                18.823999999999998
              ],
              [
                72.536,
                18.825
              ],
              [
                72.537,
                18.825
              ],
              [
                72.537,
                18.825999999999997
              ],
              [
                72.538,
                18.825999999999997
              ],
              [
                72.538,
                18.826999999999998
              ],
              [
                72.541,
                18.826999999999998
              ],
              [
                72.541,
                18.825999999999997
              ],
              [
                72.54,
                18.825999999999997
              ],
              [
                72.54,
                18.825
              ],
              [
                72.539,
                18.825
              ]
            ]
          ],
          [
            [
              [
                72.645,
                18.874
              ],
              [
                72.645,
                18.877
              ],
              [
                72.644,
                18.877
              ],
              [
                72.644,
                18.881
              ],
              [
                72.646,
                18.881
              ],
              [
                72.646,
                18.878999999999998
              ],
              [
                72.647,
                18.878999999999998
              ],
              [
                72.647,
                18.874
              ],
              [
                72.645,
                18.874
              ]
            ]
          ],
          [
            [
              [
                72.644,
                18.881
              ],
              [
                72.642,
                18.881
              ],
              [
                72.642,
                18.883
              ],
              [
                72.643,
                18.883
              ],
              [
                72.643,
                18.881999999999998
              ],
              [
                72.644,
                18.881999999999998
              ],
              [
                72.644,
                18.881
              ]
            ]
          ],
          [
            [
              [
                72.691,
                18.749
              ],
              [
                72.692,
                18.749
              ],
              [
                72.692,
                18.744999999999997
              ],
              [
                72.691,
                18.744999999999997
              ],
              [
                72.691,
                18.744
              ],
              [
                72.689,
                18.744
              ],
              [
                72.689,
                18.743
              ],
              [
                72.685,
                18.743
              ],
              [
                72.685,
                18.737
              ],
              [
                72.686,
                18.737
              ],
              [
                72.686,
                18.735
              ],
              [
                72.687,
                18.735
              ],
              [
                72.687,
                18.733999999999998
              ],
              [
                72.686,
                18.733999999999998
              ],
              [
                72.686,
                18.732999999999997
              ],
              [
                72.685,
                18.732999999999997
              ],
              [
                72.685,
                18.733999999999998
              ],
              [
                72.684,
                18.733999999999998
              ],
              [
                72.684,
                18.735
              ],
              [
                72.683,
                18.735
              ],
              [
                72.683,
                18.735999999999997
              ],
              [
                72.682,
                18.735999999999997
              ],
              [
                72.682,
                18.737
              ],
              [
                72.681,
                18.737
              ],
              [
                72.681,
                18.738999999999997
              ],
              [
                72.68,
                18.738999999999997
              ],
              [
                72.68,
                18.741
              ],
              [
                72.679,
                18.741
              ],
              [
                72.679,
                18.741999999999997
              ],
              [
                72.68,
                18.741999999999997
              ],
              [
                72.68,
                18.743
              ],
              [
                72.682,
                18.743
              ],
              [
                72.682,
                18.744
              ],
              [
                72.683,
                18.744
              ],
              [
                72.683,
                18.750999999999998
              ],
              [
                72.69,
                18.750999999999998
              ],
              [
                72.69,
                18.75
              ],
              [
                72.691,
                18.75
              ],
              [
                72.691,
                18.749
              ]
            ]
          ],
          [
            [
              [
                72.719,
                18.75
              ],
              [
                72.717,
                18.75
              ],
              [
                72.717,
                18.749
              ],
              [
                72.712,
                18.749
              ],
              [
                72.712,
                18.752
              ],
              [
                72.713,
                18.752
              ],
              [
                72.713,
                18.753999999999998
              ],
              [
                72.717,
                18.753999999999998
              ],
              [
                72.717,
                18.755
              ],
              [
                72.718,
                18.755
              ],
              [
                72.718,
                18.753999999999998
              ],
              [
                72.719,
                18.753999999999998
              ],
              [
                72.719,
                18.75
              ]
            ]
          ],
          [
            [
              [
                72.681,
                18.755
              ],
              [
                72.681,
                18.753
              ],
              [
                72.68,
                18.753
              ],
              [
                72.68,
                18.752
              ],
              [
                72.677,
                18.752
              ],
              [
                72.677,
                18.753
              ],
              [
                72.676,
                18.753
              ],
              [
                72.676,
                18.753999999999998
              ],
              [
                72.675,
                18.753999999999998
              ],
              [
                72.675,
                18.759
              ],
              [
                72.679,
                18.759
              ],
              [
                72.679,
                18.756
              ],
              [
                72.68,
                18.756
              ],
              [
                72.68,
                18.755
              ],
              [
                72.681,
                18.755
              ]
            ]
          ],
          [
            [
              [
                72.719,
                18.781
              ],
              [
                72.719,
                18.779999999999998
              ],
              [
                72.721,
                18.779999999999998
              ],
              [
                72.721,
                18.779
              ],
              [
                72.723,
                18.779
              ],
              [
                72.723,
                18.778
              ],
              [
                72.725,
                18.778
              ],
              [
                72.725,
                18.776999999999997
              ],
              [
                72.726,
                18.776999999999997
              ],
              [
                72.726,
                18.776
              ],
              [
                72.727,
                18.776
              ],
              [
                72.727,
                18.775
              ],
              [
                72.729,
                18.775
              ],
              [
                72.729,
                18.773999999999997
              ],
              [
                72.73,
                18.773999999999997
              ],
              [
                72.73,
                18.773
              ],
              [
                72.731,
                18.773
              ],
              [
                72.731,
                18.772
              ],
              [
                72.733,
                18.772
              ],
              [
                72.733,
                18.770999999999997
              ],
              [
                72.735,
                18.770999999999997
              ],
              [
                72.735,
                18.77
              ],
              [
                72.736,
                18.77
              ],
              [
                72.736,
                18.769
              ],
              [
                72.737,
                18.769
              ],
              [
                72.737,
                18.767999999999997
              ],
              [
                72.738,
                18.767999999999997
              ],
              [
                72.738,
                18.767
              ],
              [
                72.74,
                18.767
              ],
              [
                72.74,
                18.766
              ],
              [
                72.742,
                18.766
              ],
              [
                72.742,
                18.764999999999997
              ],
              [
                72.743,
                18.764999999999997
              ],
              [
                72.743,
                18.764
              ],
              [
                72.745,
                18.764
              ],
              [
                72.745,
                18.762999999999998
              ],
              [
                72.746,
                18.762999999999998
              ],
              [
                72.746,
                18.761999999999997
              ],
              [
                72.747,
                18.761999999999997
              ],
              [
                72.747,
                18.759999999999998
              ],
              [
                72.746,
                18.759999999999998
              ],
              [
                72.746,
                18.759
              ],
              [
                72.741,
                18.759
              ],
              [
                72.741,
                18.759999999999998
              ],
              [
                72.738,
                18.759999999999998
              ],
              [
                72.738,
                18.759
              ],
              [
                72.737,
                18.759
              ],
              [
                72.737,
                18.755
              ],
              [
                72.736,
                18.755
              ],
              [
                72.736,
                18.753
              ],
              [
                72.737,
                18.753
              ],
              [
                72.737,
                18.750999999999998
              ],
              [
                72.738,
                18.750999999999998
              ],
              [
                72.738,
                18.75
              ],
              [
                72.744,
                18.75
              ],
              [
                72.744,
                18.750999999999998
              ],
              [
                72.747,
                18.750999999999998
              ],
              [
                72.747,
                18.75
              ],
              [
                72.748,
                18.75
              ],
              [
                72.748,
                18.749
              ],
              [
                72.749,
                18.749
              ],
              [
                72.749,
                18.747
              ],
              [
                72.75,
                18.747
              ],
              [
                72.75,
                18.74
              ],
              [
                72.749,
                18.74
              ],
              [
                72.749,
                18.738999999999997
              ],
              [
                72.748,
                18.738999999999997
              ],
              [
                72.748,
                18.738
              ],
              [
                72.747,
                18.738
              ],
              [
                72.747,
                18.737
              ],
              [
                72.741,
                18.737
              ],
              [
                72.741,
                18.738
              ],
              [
                72.738,
                18.738
              ],
              [
                72.738,
                18.741
              ],
              [
                72.739,
                18.741
              ],
              [
                72.739,
                18.741999999999997
              ],
              [
                72.738,
                18.741999999999997
              ],
              [
                72.738,
                18.744999999999997
              ],
              [
                72.737,
                18.744999999999997
              ],
              [
                72.737,
                18.747
              ],
              [
                72.736,
                18.747
              ],
              [
                72.736,
                18.747999999999998
              ],
              [
                72.733,
                18.747999999999998
              ],
              [
                72.733,
                18.747
              ],
              [
                72.732,
                18.747
              ],
              [
                72.732,
                18.746
              ],
              [
                72.731,
                18.746
              ],
              [
                72.731,
                18.744
              ],
              [
                72.73,
                18.744
              ],
              [
                72.73,
                18.743
              ],
              [
                72.729,
                18.743
              ],
              [
                72.729,
                18.741999999999997
              ],
              [
                72.728,
                18.741999999999997
              ],
              [
                72.728,
                18.741
              ],
              [
                72.727,
                18.741
              ],
              [
                72.727,
                18.74
              ],
              [
                72.726,
                18.74
              ],
              [
                72.726,
                18.741999999999997
              ],
              [
                72.725,
                18.741999999999997
              ],
              [
                72.725,
                18.743
              ],
              [
                72.724,
                18.743
              ],
              [
                72.724,
                18.744999999999997
              ],
              [
                72.723,
                18.744999999999997
              ],
              [
                72.723,
                18.752
              ],
              [
                72.724,
                18.752
              ],
              [
                72.724,
                18.753999999999998
              ],
              [
                72.725,
                18.753999999999998
              ],
              [
                72.725,
                18.759
              ],
              [
                72.724,
                18.759
              ],
              [
                72.724,
                18.761999999999997
              ],
              [
                72.723,
                18.761999999999997
              ],
              [
                72.723,
                18.767
              ],
              [
                72.722,
                18.767
              ],
              [
                72.722,
                18.77
              ],
              [
                72.721,
                18.77
              ],
              [
                72.721,
                18.770999999999997
              ],
              [
                72.72,
                18.770999999999997
              ],
              [
                72.72,
                18.773
              ],
              [
                72.719,
                18.773
              ],
              [
                72.719,
                18.775
              ],
              [
                72.718,
                18.775
              ],
              [
                72.718,
                18.776
              ],
              [
                72.717,
                18.776
              ],
              [
                72.717,
                18.776999999999997
              ],
              [
                72.716,
                18.776999999999997
              ],
              [
                72.716,
                18.779
              ],
              [
                72.715,
                18.779
              ],
              [
                72.715,
                18.779999999999998
              ],
              [
                72.714,
                18.779999999999998
              ],
              [
                72.714,
                18.781
              ],
              [
                72.713,
                18.781
              ],
              [
                72.713,
                18.782999999999998
              ],
              [
                72.715,
                18.782999999999998
              ],
              [
                72.715,
                18.782
              ],
              [
                72.717,
                18.782
              ],
              [
                72.717,
                18.781
              ],
              [
                72.719,
                18.781
              ]
            ]
          ],
          [
            [
              [
                72.666,
                18.772
              ],
              [
                72.667,
                18.772
              ],
              [
                72.667,
                18.77
              ],
              [
                72.665,
                18.77
              ],
              [
                72.665,
                18.770999999999997
              ],
              [
                72.664,
                18.770999999999997
              ],
              [
                72.664,
                18.773
              ],
              [
                72.663,
                18.773
              ],
              [
                72.663,
                18.773999999999997
              ],
              [
                72.662,
                18.773999999999997
              ],
              [
                72.662,
                18.778
              ],
              [
                72.663,
                18.778
              ],
              [
                72.663,
                18.775
              ],
              [
                72.666,
                18.775
              ],
              [
                72.666,
                18.772
              ]
            ]
          ],
          [
            [
              [
                72.744,
                18.79
              ],
              [
                72.742,
                18.79
              ],
              [
                72.742,
                18.791999999999998
              ],
              [
                72.741,
                18.791999999999998
              ],
              [
                72.741,
                18.793999999999997
              ],
              [
                72.745,
                18.793999999999997
              ],
              [
                72.745,
                18.791999999999998
              ],
              [
                72.744,
                18.791999999999998
              ],
              [
                72.744,
                18.79
              ]
            ]
          ],
          [
            [
              [
                72.668,
                18.805
              ],
              [
                72.669,
                18.805
              ],
              [
                72.669,
                18.802999999999997
              ],
              [
                72.671,
                18.802999999999997
              ],
              [
                72.671,
                18.799999999999997
              ],
              [
                72.672,
                18.799999999999997
              ],
              [
                72.672,
                18.798
              ],
              [
                72.673,
                18.798
              ],
              [
                72.673,
                18.796999999999997
              ],
              [
                72.669,
                18.796999999999997
              ],
              [
                72.669,
                18.799999999999997
              ],
              [
                72.668,
                18.799999999999997
              ],
              [
                72.668,
                18.801
              ],
              [
                72.666,
                18.801
              ],
              [
                72.666,
                18.802
              ],
              [
                72.665,
                18.802
              ],
              [
                72.665,
                18.804
              ],
              [
                72.664,
                18.804
              ],
              [
                72.664,
                18.805999999999997
              ],
              [
                72.663,
                18.805999999999997
              ],
              [
                72.663,
                18.808999999999997
              ],
              [
                72.662,
                18.808999999999997
              ],
              [
                72.662,
                18.81
              ],
              [
                72.667,
                18.81
              ],
              [
                72.667,
                18.808
              ],
              [
                72.668,
                18.808
              ],
              [
                72.668,
                18.805
              ]
            ]
          ],
          [
            [
              [
                72.745,
                18.811999999999998
              ],
              [
                72.745,
                18.814999999999998
              ],
              [
                72.747,
                18.814999999999998
              ],
              [
                72.747,
                18.81
              ],
              [
                72.746,
                18.81
              ],
              [
                72.746,
                18.811999999999998
              ],
              [
                72.745,
                18.811999999999998
              ]
            ]
          ],
          [
            [
              [
                72.646,
                18.866
              ],
              [
                72.646,
                18.863999999999997
              ],
              [
                72.647,
                18.863999999999997
              ],
              [
                72.647,
                18.862
              ],
              [
                72.648,
                18.862
              ],
              [
                72.648,
                18.860999999999997
              ],
              [
                72.649,
                18.860999999999997
              ],
              [
                72.649,
                18.86
              ],
              [
                72.65,
                18.86
              ],
              [
                72.65,
                18.858999999999998
              ],
              [
                72.652,
                18.858999999999998
              ],
              [
                72.652,
                18.857999999999997
              ],
              [
                72.653,
                18.857999999999997
              ],
              [
                72.653,
                18.857
              ],
              [
                72.654,
                18.857
              ],
              [
                72.654,
                18.855999999999998
              ],
              [
                72.655,
                18.855999999999998
              ],
              [
                72.655,
                18.854999999999997
              ],
              [
                72.656,
                18.854999999999997
              ],
              [
                72.656,
                18.852999999999998
              ],
              [
                72.657,
                18.852999999999998
              ],
              [
                72.657,
                18.852
              ],
              [
                72.658,
                18.852
              ],
              [
                72.658,
                18.851
              ],
              [
                72.659,
                18.851
              ],
              [
                72.659,
                18.849
              ],
              [
                72.66,
                18.849
              ],
              [
                72.66,
                18.846999999999998
              ],
              [
                72.661,
                18.846999999999998
              ],
              [
                72.661,
                18.845
              ],
              [
                72.662,
                18.845
              ],
              [
                72.662,
                18.843
              ],
              [
                72.663,
                18.843
              ],
              [
                72.663,
                18.839
              ],
              [
                72.664,
                18.839
              ],
              [
                72.664,
                18.836
              ],
              [
                72.665,
                18.836
              ],
              [
                72.665,
                18.834
              ],
              [
                72.666,
                18.834
              ],
              [
                72.666,
                18.831999999999997
              ],
              [
                72.667,
                18.831999999999997
              ],
              [
                72.667,
                18.83
              ],
              [
                72.668,
                18.83
              ],
              [
                72.668,
                18.828
              ],
              [
                72.669,
                18.828
              ],
              [
                72.669,
                18.826999999999998
              ],
              [
                72.67,
                18.826999999999998
              ],
              [
                72.67,
                18.825
              ],
              [
                72.671,
                18.825
              ],
              [
                72.671,
                18.82
              ],
              [
                72.672,
                18.82
              ],
              [
                72.672,
                18.817
              ],
              [
                72.673,
                18.817
              ],
              [
                72.673,
                18.816
              ],
              [
                72.674,
                18.816
              ],
              [
                72.674,
                18.814999999999998
              ],
              [
                72.675,
                18.814999999999998
              ],
              [
                72.675,
                18.813
              ],
              [
                72.672,
                18.813
              ],
              [
                72.672,
                18.814
              ],
              [
                72.67,
                18.814
              ],
              [
                72.67,
                18.816
              ],
              [
                72.669,
                18.816
              ],
              [
                72.669,
                18.819
              ],
              [
                72.668,
                18.819
              ],
              [
                72.668,
                18.820999999999998
              ],
              [
                72.665,
                18.820999999999998
              ],
              [
                72.665,
                18.822
              ],
              [
                72.662,
                18.822
              ],
              [
                72.662,
                18.822999999999997
              ],
              [
                72.661,
                18.822999999999997
              ],
              [
                72.661,
                18.828
              ],
              [
                72.66,
                18.828
              ],
              [
                72.66,
                18.831999999999997
              ],
              [
                72.659,
                18.831999999999997
              ],
              [
                72.659,
                18.834
              ],
              [
                72.658,
                18.834
              ],
              [
                72.658,
                18.837
              ],
              [
                72.657,
                18.837
              ],
              [
                72.657,
                18.84
              ],
              [
                72.656,
                18.84
              ],
              [
                72.656,
                18.842
              ],
              [
                72.655,
                18.842
              ],
              [
                72.655,
                18.843
              ],
              [
                72.654,
                18.843
              ],
              [
                72.654,
                18.845
              ],
              [
                72.653,
                18.845
              ],
              [
                72.653,
                18.846999999999998
              ],
              [
                72.652,
                18.846999999999998
              ],
              [
                72.652,
                18.849
              ],
              [
                72.651,
                18.849
              ],
              [
                72.651,
                18.851
              ],
              [
                72.65,
                18.851
              ],
              [
                72.65,
                18.852
              ],
              [
                72.649,
                18.852
              ],
              [
                72.649,
                18.852999999999998
              ],
              [
                72.648,
                18.852999999999998
              ],
              [
                72.648,
                18.854
              ],
              [
                72.647,
                18.854
              ],
              [
                72.647,
                18.854999999999997
              ],
              [
                72.646,
                18.854999999999997
              ],
              [
                72.646,
                18.855999999999998
              ],
              [
                72.645,
                18.855999999999998
              ],
              [
                72.645,
                18.857999999999997
              ],
              [
                72.644,
                18.857999999999997
              ],
              [
                72.644,
                18.860999999999997
              ],
              [
                72.643,
                18.860999999999997
              ],
              [
                72.643,
                18.863
              ],
              [
                72.642,
                18.863
              ],
              [
                72.642,
                18.865
              ],
              [
                72.641,
                18.865
              ],
              [
                72.641,
                18.866999999999997
              ],
              [
                72.642,
                18.866999999999997
              ],
              [
                72.642,
                18.868
              ],
              [
                72.644,
                18.868
              ],
              [
                72.644,
                18.866999999999997
              ],
              [
                72.645,
                18.866999999999997
              ],
              [
                72.645,
                18.866
              ],
              [
                72.646,
                18.866
              ]
            ]
          ]
        ]
      },
      "properties": {
        "label": "Oil Spill Slick",
        "confidence": 81.33,
        "pixel_count": 1941,
        "detection_time": "2026-09-06T14:01:15.267739+05:30",
        "inference_time_seconds": 1.756,
        "image_source": "class_0_00001.jpg"
      }
    }
  ]
}