{
  "type": "FeatureCollection",
  "features": [
    {
      "type": "Feature",
      "geometry": {
        "type": "Polygon",
        "coordinates": [
          [
            [
              72.63558766519888,
              18.798471809090334
            ],
            [
              72.63404714869985,
              18.798825769718725
            ],
            [
              72.63143009928662,
              18.79973458320128
            ],
            [
              72.6256491873425,
              18.804195291762166
            ],
            [
              72.62172949265387,
              18.8107144647362
            ],
            [
              72.62083678075868,
              18.814635972529477
            ],
            [
              72.62091258200505,
              18.819242551179485
            ],
            [
              72.62450834075294,
              18.829213741213636
            ],
            [
              72.62497663897696,
              18.83012935303249
            ],
            [
              72.62961785504667,
              18.83500620359792
            ],
            [
              72.63341383231426,
              18.837586540879915
            ],
            [
              72.63904508854347,
              18.83938473020597
            ],
            [
              72.64739263091157,
              18.838193626888764
            ],
            [
              72.6497704033897,
              18.837261283740684
            ],
            [
              72.65929693206634,
              18.829608964481487
            ],
            [
              72.66182771742895,
              18.822124768642777
            ],
            [
              72.66151032198985,
              18.81994450359081
            ],
            [
              72.65970821323889,
              18.812911161816253
            ],
            [
              72.65768875382243,
              18.807422740418524
            ],
            [
              72.65455607049041,
              18.80424558902589
            ],
            [
              72.65095171622846,
              18.801411703493592
            ],
            [
              72.64392015733401,
              18.799116613746236
            ],
            [
              72.63900591961206,
              18.79863762775505
            ],
            [
              72.63558766519888,
              18.798471809090334
            ]
          ]
        ]
      },
      "properties": {
        "spill_id": "SPILL_MUMBAI_001",
        "probability_band": 50,
        "timestep_utc": "2026-08-31T22:00:00Z",
        "hours_before_detection": 6.0
      }
    },
    {
      "type": "Feature",
      "geometry": {
        "type": "Polygon",
        "coordinates": [
          [
            [
              72.63860647334438,
              18.795295190054535
            ],
            [
              72.63242349934426,
              18.796918455405475
            ],
            [
              72.62606298277602,
              18.798872650959215
            ],
            [
              72.62341046428807,
              18.801569949185247
            ],
            [
              72.6196427858436,
              18.80954717971128
            ],
            [
              72.61897201951179,
              18.817974538388082
            ],
            [
              72.61856089459893,
              18.825634572523683
            ],
            [
              72.6200995244556,
              18.828883264837824
            ],
            [
              72.62443992138488,
              18.835161846307983
            ],
            [
              72.62767357586405,
              18.837243641817455
            ],
            [
              72.63448420246444,
              18.841586474676625
            ],
            [
              72.63719145135914,
              18.84264365337079
            ],
            [
              72.63908341135742,
              18.842728382092833
            ],
            [
              72.6468152785427,
              18.842739064429065
            ],
            [
              72.6535834878465,
              18.84010672966657
            ],
            [
              72.65782279951758,
              18.836281373812454
            ],
            [
              72.65948379672717,
              18.834330090686628
            ],
            [
              72.66280211638801,
              18.82956593193373
            ],
            [
              72.6638300744842,
              18.827392629861887
            ],
            [
              72.66459529637375,
              18.819224506186767
            ],
            [
              72.66369937992572,
              18.81113816487429
            ],
            [
              72.65840300316682,
              18.80319450527498
            ],
            [
              72.65634239763894,
              18.8005965870839
            ],
            [
              72.65148314370101,
              18.79734553015847
            ],
            [
              72.64656135601678,
              18.79595400676417
            ],
            [
              72.63860647334438,
              18.795295190054535
            ]
          ]
        ]
      },
      "properties": {
        "spill_id": "SPILL_MUMBAI_001",
        "probability_band": 75,
        "timestep_utc": "2026-08-31T22:00:00Z",
        "hours_before_detection": 6.0
      }
    },
    {
      "type": "Feature",
      "geometry": {
        "type": "Polygon",
        "coordinates": [
          [
            [
              72.6235774690996,
              18.794072708328873
            ],
            [
              72.62096484536362,
              18.79547660260753
            ],
            [
              72.6178099165933,
              18.799789793062242
            ],
            [
              72.61531250335835,
              18.804714593182815
            ],
            [
              72.61540597383626,
              18.806759647876284
            ],
            [
              72.61801543895487,
              18.825657448748988
            ],
            [
              72.61985566066646,
              18.83532947578984
            ],
            [
              72.62178685089746,
              18.838991144078232
            ],
            [
              72.62619563720989,
              18.843866130057453
            ],
            [
              72.64335774542111,
              18.845089916365623
            ],
            [
              72.65462520722018,
              18.84380434599814
            ],
            [
              72.66504059286787,
              18.836590527286848
            ],
            [
              72.66609109289256,
              18.83523652198003
            ],
            [
              72.66896969232862,
              18.830473357839782
            ],
            [
              72.66915001107171,
              18.828347802879737
            ],
            [
              72.6666488793805,
              18.811186504557487
            ],
            [
              72.66233929780499,
              18.798651950264453
            ],
            [
              72.6553167217815,
              18.795166993096185
            ],
            [
              72.6235774690996,
              18.794072708328873
            ]
          ]
        ]
      },
      "properties": {
        "spill_id": "SPILL_MUMBAI_001",
        "probability_band": 95,
        "timestep_utc": "2026-08-31T22:00:00Z",
        "hours_before_detection": 6.0
      }
    },
    {
      "type": "Feature",
      "geometry": {
        "type": "Polygon",
        "coordinates": [
          [
            [
              72.71303040108332,
              18.842556229204575
            ],
            [
              72.70671593791027,
              18.842945809798856
            ],
            [
              72.70256873247617,
              18.844244217475374
            ],
            [
              72.69993415399745,
              18.84662724305094
            ],
            [
              72.69768902468945,
              18.84920852984701
            ],
            [
              72.69304674179627,
              18.855535354528325
            ],
            [
              72.69181821019053,
              18.86404517680942
            ],
            [
              72.69497251488922,
              18.874262035777893
            ],
            [
              72.69889887101046,
              18.878785969461898
            ],
            [
              72.70515439611242,
              18.882570160843663
            ],
            [
              72.70668411435307,
              18.88310698625871
            ],
            [
              72.70966835030026,
              18.883789454711337
            ],
            [
              72.71911381892436,
              18.881974364386153
            ],
            [
              72.72057429701172,
              18.881682051313586
            ],
            [
              72.72744259372647,
              18.876573933006128
            ],
            [
              72.73245613280142,
              18.865447839871138
            ],
            [
              72.73153104925264,
              18.859510559259203
            ],
            [
              72.72826583608338,
              18.853157139186493
            ],
            [
              72.72598383889199,
              18.84878480840248
            ],
            [
              72.72023049536374,
              18.844902645898884
            ],
            [
              72.71303040108332,
              18.842556229204575
            ]
          ]
        ]
      },
      "properties": {
        "spill_id": "SPILL_MUMBAI_001",
        "probability_band": 50,
        "timestep_utc": "2026-08-31T16:00:00Z",
        "hours_before_detection": 12.0
      }
    },
    {
      "type": "Feature",
      "geometry": {
        "type": "Polygon",
        "coordinates": [
          [
            [
              72.71497470938034,
              18.839616940762912
            ],
            [
              72.7020591859114,
              18.840670374986846
            ],
            [
              72.69712107660764,
              18.84300873890406
            ],
            [
              72.69428260893166,
              18.846228574188473
            ],
            [
              72.68956800398257,
              18.85261898665057
            ],
            [
              72.6890493653129,
              18.87032082991908
            ],
            [
              72.6903448340087,
              18.873160742286796
            ],
            [
              72.69625126786164,
              18.88070392833359
            ],
            [
              72.70621220754643,
              18.886577377892817
            ],
            [
              72.71092454140147,
              18.88775460728304
            ],
            [
              72.71723082549906,
              18.88745399381373
            ],
            [
              72.72465246452374,
              18.884650039307484
            ],
            [
              72.7309222233194,
              18.87837626026527
            ],
            [
              72.73413413983302,
              18.872686368913275
            ],
            [
              72.73534942429565,
              18.867952522294633
            ],
            [
              72.73630252023048,
              18.86391793867098
            ],
            [
              72.7353212042475,
              18.858801578988498
            ],
            [
              72.73441814704475,
              18.855307406187446
            ],
            [
              72.73115874527204,
              18.85013550878604
            ],
            [
              72.72886971275393,
              18.847231313927775
            ],
            [
              72.72418150845265,
              18.842503067542
            ],
            [
              72.723424098332,
              18.84183910654278
            ],
            [
              72.72260878169787,
              18.841510712361995
            ],
            [
              72.71497470938034,
              18.839616940762912
            ]
          ]
        ]
      },
      "properties": {
        "spill_id": "SPILL_MUMBAI_001",
        "probability_band": 75,
        "timestep_utc": "2026-08-31T16:00:00Z",
        "hours_before_detection": 12.0
      }
    },
    {
      "type": "Feature",
      "geometry": {
        "type": "Polygon",
        "coordinates": [
          [
            [
              72.72629856631643,
              18.839437012868824
            ],
            [
              72.69893290054833,
              18.839609547153145
            ],
            [
              72.69685199092986,
              18.839668392491465
            ],
            [
              72.69442852891618,
              18.83985867827408
            ],
            [
              72.69030670874064,
              18.842004596198336
            ],
            [
              72.68928793776409,
              18.84454706223867
            ],
            [
              72.68849833521647,
              18.85036709808895
            ],
            [
              72.68849407344389,
              18.851937802785237
            ],
            [
              72.68884250557653,
              18.879024153053955
            ],
            [
              72.69435554426182,
              18.885149660056847
            ],
            [
              72.69850796409244,
              18.886753477778626
            ],
            [
              72.7082561095719,
              18.88910315146756
            ],
            [
              72.72617878012571,
              18.88848777538876
            ],
            [
              72.72998041512244,
              18.887331199189347
            ],
            [
              72.73694951513815,
              18.879578791726665
            ],
            [
              72.73822483512629,
              18.875204178419587
            ],
            [
              72.73769175782121,
              18.8542354573603
            ],
            [
              72.73687697403305,
              18.852153841449322
            ],
            [
              72.73483692622875,
              18.847173363266478
            ],
            [
              72.73011233883636,
              18.84268070432754
            ],
            [
              72.72629856631643,
              18.839437012868824
            ]
          ]
        ]
      },
      "properties": {
        "spill_id": "SPILL_MUMBAI_001",
        "probability_band": 95,
        "timestep_utc": "2026-08-31T16:00:00Z",
        "hours_before_detection": 12.0
      }
    },
    {
      "type": "Feature",
      "geometry": {
        "type": "Polygon",
        "coordinates": [
          [
            [
              72.77948902795465,
              18.88641252893323
            ],
            [
              72.77348145966059,
              18.88744882161294
            ],
            [
              72.77117725630791,
              18.888471270749797
            ],
            [
              72.76558183226878,
              18.893070426275198
            ],
            [
              72.76157050900174,
              18.89983429746948
            ],
            [
              72.76007796766214,
              18.903444816456343
            ],
            [
              72.76020987202253,
              18.90959927082191
            ],
            [
              72.76331631568596,
              18.917945362575125
            ],
            [
              72.76386742080398,
              18.91888050550756
            ],
            [
              72.76819294560133,
              18.92364941885446
            ],
            [
              72.77269679417857,
              18.926377032035017
            ],
            [
              72.77797361762416,
              18.928027695975402
            ],
            [
              72.78389257865533,
              18.927954415356798
            ],
            [
              72.78878944493243,
              18.92579075386884
            ],
            [
              72.79706969711778,
              18.918301501099634
            ],
            [
              72.80004134252299,
              18.913794275525152
            ],
            [
              72.80081378223679,
              18.904060723744024
            ],
            [
              72.79738163233331,
              18.89587759004432
            ],
            [
              72.79431582721693,
              18.89273780221555
            ],
            [
              72.79008114614241,
              18.889774553519427
            ],
            [
              72.77948902795465,
              18.88641252893323
            ]
          ]
        ]
      },
      "properties": {
        "spill_id": "SPILL_MUMBAI_001",
        "probability_band": 50,
        "timestep_utc": "2026-08-31T10:00:00Z",
        "hours_before_detection": 18.0
      }
    },
    {
      "type": "Feature",
      "geometry": {
        "type": "Polygon",
        "coordinates": [
          [
            [
              72.77895841385606,
              18.884081836836735
            ],
            [
              72.77174360829314,
              18.88552279645398
            ],
            [
              72.76587837493813,
              18.887685022800326
            ],
            [
              72.76411652547486,
              18.890288794362114
            ],
            [
              72.7590725279818,
              18.898391653790004
            ],
            [
              72.75772512576731,
              18.9145067045357
            ],
            [
              72.75909020852637,
              18.917710083147128
            ],
            [
              72.76596644928271,
              18.925851823245246
            ],
            [
              72.7736959036395,
              18.930366906111114
            ],
            [
              72.77650138537882,
              18.93142367695238
            ],
            [
              72.77830811083057,
              18.93146440303662
            ],
            [
              72.78275789252342,
              18.93137329972163
            ],
            [
              72.79263388738813,
              18.928614028856828
            ],
            [
              72.79721176791992,
              18.924806973931084
            ],
            [
              72.80030884580371,
              18.92099518114054
            ],
            [
              72.80227119759763,
              18.918018755136853
            ],
            [
              72.80324302265616,
              18.91580725868133
            ],
            [
              72.80418358411404,
              18.90763294140802
            ],
            [
              72.80313360601006,
              18.89947620274546
            ],
            [
              72.80116037326071,
              18.89506875517867
            ],
            [
              72.79971056917445,
              18.893348645484895
            ],
            [
              72.79530660703641,
              18.888852444288066
            ],
            [
              72.79172021703477,
              18.885961765190483
            ],
            [
              72.79090915311144,
              18.88542204697828
            ],
            [
              72.7868908709171,
              18.88464503151058
            ],
            [
              72.78129329832501,
              18.884242138722232
            ],
            [
              72.77895841385606,
              18.884081836836735
            ]
          ]
        ]
      },
      "properties": {
        "spill_id": "SPILL_MUMBAI_001",
        "probability_band": 75,
        "timestep_utc": "2026-08-31T10:00:00Z",
        "hours_before_detection": 18.0
      }
    },
    {
      "type": "Feature",
      "geometry": {
        "type": "Polygon",
        "coordinates": [
          [
            [
              72.7640224303319,
              18.883053917478968
            ],
            [
              72.76138264178695,
              18.88448870411763
            ],
            [
              72.75765554972168,
              18.888711102682535
            ],
            [
              72.75555091206878,
              18.893794706440943
            ],
            [
              72.75558968067409,
              18.89583499530446
            ],
            [
              72.75729446628058,
              18.914565117901745
            ],
            [
              72.75832735999214,
              18.92406304041732
            ],
            [
              72.76104107846784,
              18.927917640606875
            ],
            [
              72.76543647419336,
              18.933009549987656
            ],
            [
              72.78152858894738,
              18.933523375231843
            ],
            [
              72.79329095571211,
              18.932221131981
            ],
            [
              72.79366078325984,
              18.932170589364244
            ],
            [
              72.80391230683001,
              18.924900569421954
            ],
            [
              72.80516211036765,
              18.923577759054197
            ],
            [
              72.80762121992035,
              18.919877669679366
            ],
            [
              72.80771357837646,
              18.916492490715065
            ],
            [
              72.80573781506946,
              18.897982945996088
            ],
            [
              72.80499114964552,
              18.895934087362882
            ],
            [
              72.80206013320782,
              18.89041131601305
            ],
            [
              72.80007783017612,
              18.887552096812495
            ],
            [
              72.795096571289,
              18.883609028204557
            ],
            [
              72.7640224303319,
              18.883053917478968
            ]
          ]
        ]
      },
      "properties": {
        "spill_id": "SPILL_MUMBAI_001",
        "probability_band": 95,
        "timestep_utc": "2026-08-31T10:00:00Z",
        "hours_before_detection": 18.0
      }
    },
    {
      "type": "Feature",
      "geometry": {
        "type": "Polygon",
        "coordinates": [
          [
            [
              72.83753556657865,
              18.927290427007012
            ],
            [
              72.83186358130519,
              18.927370774470315
            ],
            [
              72.82881702473271,
              18.92823553703218
            ],
            [
              72.82770337445315,
              18.92872157859406
            ],
            [
              72.82289784775885,
              18.93383346966443
            ],
            [
              72.81793417353822,
              18.940118748356298
            ],
            [
              72.81695425535943,
              18.94376764514595
            ],
            [
              72.81687222114837,
              18.945413300028584
            ],
            [
              72.81708093463051,
              18.949097750073193
            ],
            [
              72.81729418078031,
              18.952820205252554
            ],
            [
              72.8177175112475,
              18.955293244150727
            ],
            [
              72.81916896729395,
              18.957736299113243
            ],
            [
              72.82114243533545,
              18.96005936807476
            ],
            [
              72.82277043873741,
              18.9619221078968
            ],
            [
              72.83010031793354,
              18.967185472920274
            ],
            [
              72.84467450303505,
              18.966596606068745
            ],
            [
              72.85263478136005,
              18.960115877699053
            ],
            [
              72.85651772883827,
              18.9490443453816
            ],
            [
              72.85629314763992,
              18.94374969875199
            ],
            [
              72.8559113991903,
              18.942065135355712
            ],
            [
              72.85421421281157,
              18.936966144202703
            ],
            [
              72.85122309188645,
              18.933044814795856
            ],
            [
              72.84427834846029,
              18.92885945157073
            ],
            [
              72.83753556657865,
              18.927290427007012
            ]
          ]
        ]
      },
      "properties": {
        "spill_id": "SPILL_MUMBAI_001",
        "probability_band": 50,
        "timestep_utc": "2026-08-31T04:00:00Z",
        "hours_before_detection": 24.0
      }
    },
    {
      "type": "Feature",
      "geometry": {
        "type": "Polygon",
        "coordinates": [
          [
            [
              72.83893550453209,
              18.923577406287794
            ],
            [
              72.82637301988039,
              18.924893051798925
            ],
            [
              72.82065275959827,
              18.928550727850887
            ],
            [
              72.81586735312848,
              18.934342138968482
            ],
            [
              72.81415295742761,
              18.9384230177788
            ],
            [
              72.81369103157326,
              18.954699988660096
            ],
            [
              72.81375267870362,
              18.954984268790472
            ],
            [
              72.81433414618732,
              18.95721255978409
            ],
            [
              72.81455574471961,
              18.957683186358825
            ],
            [
              72.81937860932456,
              18.96488283742108
            ],
            [
              72.83109477469075,
              18.971185340608667
            ],
            [
              72.83585825959982,
              18.972328705152478
            ],
            [
              72.84917752457639,
              18.968928849253267
            ],
            [
              72.85597491041429,
              18.962696086556086
            ],
            [
              72.86055771070454,
              18.952445156751445
            ],
            [
              72.86014808633017,
              18.944126095472026
            ],
            [
              72.85915944102838,
              18.939362742054147
            ],
            [
              72.85399802699041,
              18.931351938639878
            ],
            [
              72.85076188345008,
              18.927058831716625
            ],
            [
              72.84891791617386,
              18.92616202494087
            ],
            [
              72.84807715537508,
              18.925833978880615
            ],
            [
              72.83893550453209,
              18.923577406287794
            ]
          ]
        ]
      },
      "properties": {
        "spill_id": "SPILL_MUMBAI_001",
        "probability_band": 75,
        "timestep_utc": "2026-08-31T04:00:00Z",
        "hours_before_detection": 24.0
      }
    },
    {
      "type": "Feature",
      "geometry": {
        "type": "Polygon",
        "coordinates": [
          [
            [
              72.83893550453209,
              18.923577406287794
            ],
            [
              72.82330229176253,
              18.92387885642921
            ],
            [
              72.81960879371019,
              18.924418902943177
            ],
            [
              72.81897423167118,
              18.924635423357724
            ],
            [
              72.81571562853469,
              18.92669179614717
            ],
            [
              72.81461119415128,
              18.92923627941496
            ],
            [
              72.81401691424739,
              18.931437003990435
            ],
            [
              72.81368184871329,
              18.937308036838907
            ],
            [
              72.81223602512222,
              18.963359082467264
            ],
            [
              72.81767318260556,
              18.969434137964566
            ],
            [
              72.82166949140472,
              18.970952677485464
            ],
            [
              72.83247375594134,
              18.973511092058665
            ],
            [
              72.84678164221413,
              18.973196972780517
            ],
            [
              72.85101193039316,
              18.972858887204783
            ],
            [
              72.85547957723124,
              18.969990393340357
            ],
            [
              72.85766061830081,
              18.96717322207284
            ],
            [
              72.85942712766722,
              18.964666386893263
            ],
            [
              72.86181246993324,
              18.9589951589176
            ],
            [
              72.86262226702571,
              18.949390672178065
            ],
            [
              72.86301722352714,
              18.938414735311344
            ],
            [
              72.86104823137204,
              18.93159658185314
            ],
            [
              72.85141452442659,
              18.92360297704648
            ],
            [
              72.83893550453209,
              18.923577406287794
            ]
          ]
        ]
      },
      "properties": {
        "spill_id": "SPILL_MUMBAI_001",
        "probability_band": 95,
        "timestep_utc": "2026-08-31T04:00:00Z",
        "hours_before_detection": 24.0
      }
    },
    {
      "type": "Feature",
      "geometry": {
        "type": "Polygon",
        "coordinates": [
          [
            [
              72.89309548530836,
              18.968591062371907
            ],
            [
              72.89158595882873,
              18.969014275355946
            ],
            [
              72.88888524845248,
              18.96995092101772
            ],
            [
              72.8829078540903,
              18.974530290894755
            ],
            [
              72.8788786260417,
              18.98125018171003
            ],
            [
              72.87772036437076,
              18.98512541053705
            ],
            [
              72.87766851899215,
              18.98976790514461
            ],
            [
              72.88084399710282,
              18.999642216429553
            ],
            [
              72.881257023495,
              19.000534840082956
            ],
            [
              72.88574911685112,
              19.005332760285047
            ],
            [
              72.88935337135545,
              19.00775526054898
            ],
            [
              72.89493721089313,
              19.009444777646944
            ],
            [
              72.90337310773516,
              19.008085274624833
            ],
            [
              72.90574650064701,
              19.007065704683804
            ],
            [
              72.91556427469135,
              18.99916809863745
            ],
            [
              72.91840635271726,
              18.9916384340017
            ],
            [
              72.91826222174893,
              18.989525248826457
            ],
            [
              72.91669551643552,
              18.982503259944494
            ],
            [
              72.91484137896659,
              18.977021073074255
            ],
            [
              72.91183258365655,
              18.973915219293477
            ],
            [
              72.9084453487565,
              18.97123853130557
            ],
            [
              72.90151978835777,
              18.969117443011175
            ],
            [
              72.89649322014284,
              18.96866451026944
            ],
            [
              72.89309548530836,
              18.968591062371907
            ]
          ]
        ]
      },
      "properties": {
        "spill_id": "SPILL_MUMBAI_001",
        "probability_band": 50,
        "timestep_utc": "2026-08-30T22:00:00Z",
        "hours_before_detection": 30.0
      }
    },
    {
      "type": "Feature",
      "geometry": {
        "type": "Polygon",
        "coordinates": [
          [
            [
              72.89622693301513,
              18.96531555548375
            ],
            [
              72.89006599241681,
              18.9671627636505
            ],
            [
              72.8835441757556,
              18.969209388743078
            ],
            [
              72.8808496747933,
              18.972017230387323
            ],
            [
              72.87671708832849,
              18.980054084800663
            ],
            [
              72.87569748798481,
              18.98848904108461
            ],
            [
              72.87499184938265,
              18.996169601825077
            ],
            [
              72.8764143495263,
              18.999393478358737
            ],
            [
              72.88062627373186,
              19.005648118399343
            ],
            [
              72.88377048686266,
              19.00765035748022
            ],
            [
              72.8902657133465,
              19.01173172508387
            ],
            [
              72.89293150701481,
              19.012721174703476
            ],
            [
              72.89482156890679,
              19.012765275266315
            ],
            [
              72.90256379624458,
              19.012589996522674
            ],
            [
              72.90943920672785,
              19.009815767457958
            ],
            [
              72.91382482065873,
              19.00587616861262
            ],
            [
              72.91557984407547,
              19.003905754668097
            ],
            [
              72.9190728503188,
              18.999043560861985
            ],
            [
              72.92018806403762,
              18.996849410692448
            ],
            [
              72.92127709867007,
              18.988659054162277
            ],
            [
              72.9207277440654,
              18.980614162304196
            ],
            [
              72.91699977252713,
              18.97471517395274
            ],
            [
              72.91575413265899,
              18.97279914433388
            ],
            [
              72.91391870149623,
              18.970325411402985
            ],
            [
              72.90902389888235,
              18.967067032799516
            ],
            [
              72.90415823625337,
              18.96578876057241
            ],
            [
              72.89622693301513,
              18.96531555548375
            ]
          ]
        ]
      },
      "properties": {
        "spill_id": "SPILL_MUMBAI_001",
        "probability_band": 75,
        "timestep_utc": "2026-08-30T22:00:00Z",
        "hours_before_detection": 30.0
      }
    },
    {
      "type": "Feature",
      "geometry": {
        "type": "Polygon",
        "coordinates": [
          [
            [
              72.88124739863507,
              18.964444396930407
            ],
            [
              72.87857806294205,
              18.965909966910907
            ],
            [
              72.87524563744628,
              18.97031537787599
            ],
            [
              72.87255764617821,
              18.975284273385075
            ],
            [
              72.87256853340588,
              18.977327908554077
            ],
            [
              72.87443276811126,
              18.996195107623638
            ],
            [
              72.87561420688826,
              19.00392306111674
            ],
            [
              72.87598786983766,
              19.005896038723304
            ],
            [
              72.87766535176627,
              19.009432045826507
            ],
            [
              72.88198996960388,
              19.014286872618726
            ],
            [
              72.89914288676461,
              19.015129127388835
            ],
            [
              72.91036965757631,
              19.013518577003495
            ],
            [
              72.92106788548138,
              19.006052249345345
            ],
            [
              72.92215387131918,
              19.00465795000881
            ],
            [
              72.9253107901476,
              18.99988657791752
            ],
            [
              72.92559475847898,
              18.99776769723251
            ],
            [
              72.92370594991348,
              18.98061456795929
            ],
            [
              72.919833994537,
              18.968124448361454
            ],
            [
              72.91297032233076,
              18.96482863347681
            ],
            [
              72.88124739863507,
              18.964444396930407
            ]
          ]
        ]
      },
      "properties": {
        "spill_id": "SPILL_MUMBAI_001",
        "probability_band": 95,
        "timestep_utc": "2026-08-30T22:00:00Z",
        "hours_before_detection": 30.0
      }
    },
    {
      "type": "Feature",
      "geometry": {
        "type": "Polygon",
        "coordinates": [
          [
            [
              72.97329453485737,
              19.01309911703936
            ],
            [
              72.96701279674711,
              19.013666935666258
            ],
            [
              72.96281229786601,
              19.015062890219706
            ],
            [
              72.96003881984309,
              19.017493853653374
            ],
            [
              72.95772164993551,
              19.020140764416322
            ],
            [
              72.95283879243344,
              19.026581486246986
            ],
            [
              72.95124498513258,
              19.035106039955313
            ],
            [
              72.95401785138405,
              19.045266396411378
            ],
            [
              72.95774564569794,
              19.049688576288634
            ],
            [
              72.96386846123384,
              19.05334316425834
            ],
            [
              72.96533270425607,
              19.053813308797523
            ],
            [
              72.96834904427968,
              19.054460129283612
            ],
            [
              72.97934370012133,
              19.05209765873417
            ],
            [
              72.98638057225337,
              19.046803382264518
            ],
            [
              72.99184517751668,
              19.0355597042396
            ],
            [
              72.99116593105167,
              19.029647670564096
            ],
            [
              72.98816102667077,
              19.023378826688127
            ],
            [
              72.986058862825,
              19.019060009134105
            ],
            [
              72.98041744371693,
              19.01528490846246
            ],
            [
              72.97329453485737,
              19.01309911703936
            ]
          ]
        ]
      },
      "properties": {
        "spill_id": "SPILL_MUMBAI_001",
        "probability_band": 50,
        "timestep_utc": "2026-08-30T16:00:00Z",
        "hours_before_detection": 36.0
      }
    },
    {
      "type": "Feature",
      "geometry": {
        "type": "Polygon",
        "coordinates": [
          [
            [
              72.97534779363968,
              19.010108730861642
            ],
            [
              72.96241607238952,
              19.01148115611203
            ],
            [
              72.95734748118554,
              19.013916911172466
            ],
            [
              72.95442690668739,
              19.01723725726018
            ],
            [
              72.94945279426143,
              19.023739165309195
            ],
            [
              72.94825430766029,
              19.04146789394529
            ],
            [
              72.94943695309173,
              19.04427594219014
            ],
            [
              72.95498691212367,
              19.051651079087186
            ],
            [
              72.96476726098751,
              19.05732724553707
            ],
            [
              72.96943152327994,
              19.058393643523946
            ],
            [
              72.97571428283503,
              19.057930279903385
            ],
            [
              72.98330656624677,
              19.054972906923304
            ],
            [
              72.9898132901762,
              19.048545148385926
            ],
            [
              72.99324009628496,
              19.042773256509395
            ],
            [
              72.99466970262674,
              19.038017628356446
            ],
            [
              72.99577594263786,
              19.033957135446055
            ],
            [
              72.99498275038613,
              19.028848032386975
            ],
            [
              72.99423799786481,
              19.02538616445424
            ],
            [
              72.99112272645436,
              19.020254123678615
            ],
            [
              72.98900635857093,
              19.01743464542377
            ],
            [
              72.98447465984253,
              19.01280719690864
            ],
            [
              72.98377233203135,
              19.012171248736557
            ],
            [
              72.98297043259161,
              19.011861944704876
            ],
            [
              72.97534779363968,
              19.010108730861642
            ]
          ]
        ]
      },
      "properties": {
        "spill_id": "SPILL_MUMBAI_001",
        "probability_band": 75,
        "timestep_utc": "2026-08-30T16:00:00Z",
        "hours_before_detection": 36.0
      }
    },
    {
      "type": "Feature",
      "geometry": {
        "type": "Polygon",
        "coordinates": [
          [
            [
              72.98674316212617,
              19.00969847145166
            ],
            [
              72.95933223066328,
              19.01049393398425
            ],
            [
              72.9572152198254,
              19.010597187507
            ],
            [
              72.95484187600562,
              19.01086516611396
            ],
            [
              72.9506337858138,
              19.01311016223226
            ],
            [
              72.94951380632519,
              19.015677361995007
            ],
            [
              72.94843311118542,
              19.021495517154378
            ],
            [
              72.94837576815343,
              19.02351453084211
            ],
            [
              72.94766595600832,
              19.0501564416726
            ],
            [
              72.95294136100532,
              19.05615742048815
            ],
            [
              72.95702170473352,
              19.057659393759
            ],
            [
              72.96672577608192,
              19.059809559478815
            ],
            [
              72.98466806855167,
              19.05877245634862
            ],
            [
              72.98845989358884,
              19.057488855485754
            ],
            [
              72.99580983079565,
              19.049611115341712
            ],
            [
              72.99722849676982,
              19.04518487067969
            ],
            [
              72.99755206005747,
              19.024238761831125
            ],
            [
              72.99682126645062,
              19.022175921140317
            ],
            [
              72.99493115818606,
              19.017222984746954
            ],
            [
              72.99038228695996,
              19.01282618565666
            ],
            [
              72.98674316212617,
              19.00969847145166
            ]
          ]
        ]
      },
      "properties": {
        "spill_id": "SPILL_MUMBAI_001",
        "probability_band": 95,
        "timestep_utc": "2026-08-30T16:00:00Z",
        "hours_before_detection": 36.0
      }
    },
    {
      "type": "Feature",
      "geometry": {
        "type": "Point",
        "coordinates": [
          72.97145681481769,
          19.03371408667595
        ]
      },
      "properties": {
        "spill_id": "SPILL_MUMBAI_001",
        "probability_band": "best_estimate",
        "timestep_utc": "2026-08-30T16:00:00Z",
        "hours_before_detection": 36.0
      }
    }
  ]
}