{
  "type": "FeatureCollection",
  "features": [
    {
      "type": "Feature",
      "geometry": {
        "type": "Polygon",
        "coordinates": [
          [
            [
              72.75170970177778,
              18.77838668776718
            ],
            [
              72.65185393306122,
              18.787052849198776
            ],
            [
              72.6445827994142,
              18.789745102446766
            ],
            [
              72.63971375758223,
              18.792144998903115
            ],
            [
              72.6421505128809,
              18.79918316131409
            ],
            [
              72.64837804799289,
              18.80970385507131
            ],
            [
              72.65433352877726,
              18.8166928561338
            ],
            [
              72.72866676191225,
              18.876085660613395
            ],
            [
              72.73510276019599,
              18.876718553977085
            ],
            [
              72.81146382051202,
              18.83783493315649
            ],
            [
              72.81292813046905,
              18.83643168714943
            ],
            [
              72.81184170529198,
              18.807396376546574
            ],
            [
              72.80592861909291,
              18.79631823180028
            ],
            [
              72.80492078817966,
              18.7953130022288
            ],
            [
              72.79287545879883,
              18.78646688242702
            ],
            [
              72.75170970177778,
              18.77838668776718
            ]
          ]
        ]
      },
      "properties": {
        "spill_id": "SPILL_UNSPECIFIED",
        "probability_band": 50,
        "timestep_utc": "2026-08-31T22:00:00Z",
        "hours_before_detection": 6.0
      }
    },
    {
      "type": "Feature",
      "geometry": {
        "type": "Polygon",
        "coordinates": [
          [
            [
              72.66053402464823,
              18.738231384416164
            ],
            [
              72.6490519190352,
              18.740607400993525
            ],
            [
              72.6463331820893,
              18.74156279813009
            ],
            [
              72.64242275816659,
              18.74314214249986
            ],
            [
              72.63160795446962,
              18.75291470963249
            ],
            [
              72.63076386617661,
              18.756971961791912
            ],
            [
              72.63971375758223,
              18.792144998903115
            ],
            [
              72.6421505128809,
              18.79918316131409
            ],
            [
              72.64837804799289,
              18.80970385507131
            ],
            [
              72.65433352877726,
              18.8166928561338
            ],
            [
              72.71972508981304,
              18.889371897919336
            ],
            [
              72.72230309631365,
              18.88980610714936
            ],
            [
              72.72691389057235,
              18.889192121215242
            ],
            [
              72.81140633581212,
              18.856844809977403
            ],
            [
              72.81971445068956,
              18.78742528470998
            ],
            [
              72.81350526789716,
              18.78077578374272
            ],
            [
              72.66053402464823,
              18.738231384416164
            ]
          ]
        ]
      },
      "properties": {
        "spill_id": "SPILL_UNSPECIFIED",
        "probability_band": 75,
        "timestep_utc": "2026-08-31T22:00:00Z",
        "hours_before_detection": 6.0
      }
    },
    {
      "type": "Feature",
      "geometry": {
        "type": "Polygon",
        "coordinates": [
          [
            [
              72.65813729317851,
              18.734705521324532
            ],
            [
              72.5736758181106,
              18.757198508856522
            ],
            [
              72.56708115278911,
              18.7710221102862
            ],
            [
              72.70514046580419,
              18.906066137830965
            ],
            [
              72.70946470649918,
              18.90705048746658
            ],
            [
              72.81140633581212,
              18.856844809977403
            ],
            [
              72.81971445068956,
              18.78742528470998
            ],
            [
              72.81350526789716,
              18.78077578374272
            ],
            [
              72.65813729317851,
              18.734705521324532
            ]
          ]
        ]
      },
      "properties": {
        "spill_id": "SPILL_UNSPECIFIED",
        "probability_band": 95,
        "timestep_utc": "2026-08-31T22:00:00Z",
        "hours_before_detection": 6.0
      }
    },
    {
      "type": "Feature",
      "geometry": {
        "type": "Polygon",
        "coordinates": [
          [
            [
              72.82340855789366,
              18.822364653567927
            ],
            [
              72.72583411916116,
              18.831418645575663
            ],
            [
              72.71631408894325,
              18.834421627630885
            ],
            [
              72.71249168469046,
              18.83738545060464
            ],
            [
              72.71427352431178,
              18.84411659323302
            ],
            [
              72.71606963803757,
              18.848845611362673
            ],
            [
              72.72508257100819,
              18.86095907341071
            ],
            [
              72.799939527724,
              18.919898155688074
            ],
            [
              72.80371567270812,
              18.919756938669504
            ],
            [
              72.8806417226994,
              18.880513858389353
            ],
            [
              72.8821940263074,
              18.879138243334392
            ],
            [
              72.88147599697355,
              18.85014849053829
            ],
            [
              72.87995606477195,
              18.846268501722662
            ],
            [
              72.8757176526998,
              18.83912685446405
            ],
            [
              72.87489888159529,
              18.83821507748996
            ],
            [
              72.8699637115485,
              18.83346544725831
            ],
            [
              72.86564638848344,
              18.83077934819596
            ],
            [
              72.82340855789366,
              18.822364653567927
            ]
          ]
        ]
      },
      "properties": {
        "spill_id": "SPILL_UNSPECIFIED",
        "probability_band": 50,
        "timestep_utc": "2026-08-31T16:00:00Z",
        "hours_before_detection": 12.0
      }
    },
    {
      "type": "Feature",
      "geometry": {
        "type": "Polygon",
        "coordinates": [
          [
            [
              72.73099402438655,
              18.78193719138585
            ],
            [
              72.72213607261756,
              18.784605975885707
            ],
            [
              72.71485924286858,
              18.787953068117933
            ],
            [
              72.70512207573833,
              18.798378320214276
            ],
            [
              72.7045034578612,
              18.802575195953082
            ],
            [
              72.71249168469046,
              18.83738545060464
            ],
            [
              72.71427352431178,
              18.84411659323302
            ],
            [
              72.71606963803757,
              18.848845611362673
            ],
            [
              72.72508257100819,
              18.86095907341071
            ],
            [
              72.7904003791272,
              18.933575022827608
            ],
            [
              72.79224062843143,
              18.933567389273414
            ],
            [
              72.7951473719267,
              18.93312001947914
            ],
            [
              72.88318374928795,
              18.900900652770478
            ],
            [
              72.88341441123634,
              18.898614856202062
            ],
            [
              72.88876387451963,
              18.82975067224158
            ],
            [
              72.8849660420749,
              18.824286184295744
            ],
            [
              72.73099402438655,
              18.78193719138585
            ]
          ]
        ]
      },
      "properties": {
        "spill_id": "SPILL_UNSPECIFIED",
        "probability_band": 75,
        "timestep_utc": "2026-08-31T16:00:00Z",
        "hours_before_detection": 12.0
      }
    },
    {
      "type": "Feature",
      "geometry": {
        "type": "Polygon",
        "coordinates": [
          [
            [
              72.73010816849205,
              18.77915163044255
            ],
            [
              72.65085754457364,
              18.80095264422165
            ],
            [
              72.64664487283882,
              18.802747919962247
            ],
            [
              72.64082122998856,
              18.814746350255863
            ],
            [
              72.64018233135991,
              18.81674486972228
            ],
            [
              72.64060794308412,
              18.81750718571801
            ],
            [
              72.7803964469147,
              18.951528992274067
            ],
            [
              72.78144398398014,
              18.95190859600105
            ],
            [
              72.88318374928795,
              18.900900652770478
            ],
            [
              72.88341441123634,
              18.898614856202062
            ],
            [
              72.88876387451963,
              18.82975067224158
            ],
            [
              72.8849660420749,
              18.824286184295744
            ],
            [
              72.73010816849205,
              18.77915163044255
            ]
          ]
        ]
      },
      "properties": {
        "spill_id": "SPILL_UNSPECIFIED",
        "probability_band": 95,
        "timestep_utc": "2026-08-31T16:00:00Z",
        "hours_before_detection": 12.0
      }
    },
    {
      "type": "Feature",
      "geometry": {
        "type": "Polygon",
        "coordinates": [
          [
            [
              72.8919947972025,
              18.86574256067441
            ],
            [
              72.79240826836845,
              18.875694287647512
            ],
            [
              72.7846753047093,
              18.87836419437332
            ],
            [
              72.78006014594132,
              18.880900172507683
            ],
            [
              72.78219333151425,
              18.88786750471199
            ],
            [
              72.78531862647282,
              18.893402102879865
            ],
            [
              72.78835914928644,
              18.898354677023974
            ],
            [
              72.79368241616582,
              18.90514730303311
            ],
            [
              72.86713550503994,
              18.9637513272011
            ],
            [
              72.87278089628578,
              18.96411380064353
            ],
            [
              72.94997749700138,
              18.92434866589885
            ],
            [
              72.95149411798151,
              18.922934195066958
            ],
            [
              72.95100765351069,
              18.89391489765548
            ],
            [
              72.94439852580558,
              18.881929252200273
            ],
            [
              72.94025653972255,
              18.87766374975984
            ],
            [
              72.93333253679262,
              18.873428102400506
            ],
            [
              72.8919947972025,
              18.86574256067441
            ]
          ]
        ]
      },
      "properties": {
        "spill_id": "SPILL_UNSPECIFIED",
        "probability_band": 50,
        "timestep_utc": "2026-08-31T10:00:00Z",
        "hours_before_detection": 18.0
      }
    },
    {
      "type": "Feature",
      "geometry": {
        "type": "Polygon",
        "coordinates": [
          [
            [
              72.80109578147932,
              18.826520686580515
            ],
            [
              72.79170108910127,
              18.828131108167558
            ],
            [
              72.78350371960872,
              18.831799273984785
            ],
            [
              72.77282157305332,
              18.841785454119933
            ],
            [
              72.77196781301325,
              18.845872197784786
            ],
            [
              72.78006014594132,
              18.880900172507683
            ],
            [
              72.78219333151425,
              18.88786750471199
            ],
            [
              72.78531862647282,
              18.893402102879865
            ],
            [
              72.78835914928644,
              18.898354677023974
            ],
            [
              72.79368241616582,
              18.90514730303311
            ],
            [
              72.85783733379454,
              18.977119369321134
            ],
            [
              72.86430795947575,
              18.976675449890866
            ],
            [
              72.95039212586161,
              18.943575582001586
            ],
            [
              72.95900335696116,
              18.87378317779946
            ],
            [
              72.95368607151863,
              18.867394133344366
            ],
            [
              72.80109578147932,
              18.826520686580515
            ]
          ]
        ]
      },
      "properties": {
        "spill_id": "SPILL_UNSPECIFIED",
        "probability_band": 75,
        "timestep_utc": "2026-08-31T10:00:00Z",
        "hours_before_detection": 18.0
      }
    },
    {
      "type": "Feature",
      "geometry": {
        "type": "Polygon",
        "coordinates": [
          [
            [
              72.79922681715625,
              18.82313723373501
            ],
            [
              72.714661283188,
              18.846709591525304
            ],
            [
              72.70786847282672,
              18.860631541588504
            ],
            [
              72.84337217900821,
              18.994104541180477
            ],
            [
              72.84734948927232,
              18.994951692811885
            ],
            [
              72.95039212586161,
              18.943575582001586
            ],
            [
              72.95900335696116,
              18.87378317779946
            ],
            [
              72.95368607151863,
              18.867394133344366
            ],
            [
              72.79922681715625,
              18.82313723373501
            ]
          ]
        ]
      },
      "properties": {
        "spill_id": "SPILL_UNSPECIFIED",
        "probability_band": 95,
        "timestep_utc": "2026-08-31T10:00:00Z",
        "hours_before_detection": 18.0
      }
    },
    {
      "type": "Feature",
      "geometry": {
        "type": "Polygon",
        "coordinates": [
          [
            [
              72.94919046153629,
              18.905486314696144
            ],
            [
              72.85087608911658,
              18.915521731069738
            ],
            [
              72.84192963306683,
              18.918819717810386
            ],
            [
              72.83868485793676,
              18.922009638834744
            ],
            [
              72.84053651841147,
              18.932997761049222
            ],
            [
              72.84975991392207,
              18.945138290589945
            ],
            [
              72.92477615365998,
              19.00358618539182
            ],
            [
              72.92661826361555,
              19.002742812485657
            ],
            [
              72.92757320074561,
              19.00226231003439
            ],
            [
              73.00624532104155,
              18.96250366655421
            ],
            [
              73.00643138365825,
              18.93230920256881
            ],
            [
              73.00628801481656,
              18.92902118732875
            ],
            [
              73.00016587752482,
              18.921346271838836
            ],
            [
              72.99947031257526,
              18.920474870832578
            ],
            [
              72.99772292473334,
              18.918608532607966
            ],
            [
              72.9919481298813,
              18.913603125923018
            ],
            [
              72.94919046153629,
              18.905486314696144
            ]
          ]
        ]
      },
      "properties": {
        "spill_id": "SPILL_UNSPECIFIED",
        "probability_band": 50,
        "timestep_utc": "2026-08-31T04:00:00Z",
        "hours_before_detection": 24.0
      }
    },
    {
      "type": "Feature",
      "geometry": {
        "type": "Polygon",
        "coordinates": [
          [
            [
              72.85661898558261,
              18.865857489747075
            ],
            [
              72.84765934727393,
              18.868615963136946
            ],
            [
              72.84421028657484,
              18.87060913516611
            ],
            [
              72.84154154702286,
              18.872404429492313
            ],
            [
              72.83619080344006,
              18.877664486005568
            ],
            [
              72.83266003741063,
              18.882136521938012
            ],
            [
              72.83121851358685,
              18.88446171278347
            ],
            [
              72.83094009324269,
              18.887727492945505
            ],
            [
              72.84053651841147,
              18.932997761049222
            ],
            [
              72.84975991392207,
              18.945138290589945
            ],
            [
              72.91401475944947,
              19.017106835503636
            ],
            [
              72.9163357714536,
              19.017214502173
            ],
            [
              72.91868028689106,
              19.017084478448275
            ],
            [
              72.91956414626534,
              19.016821655936006
            ],
            [
              73.007918714845,
              18.983476861767947
            ],
            [
              73.00833001311393,
              18.98122656626987
            ],
            [
              73.01374804714244,
              18.91466007857678
            ],
            [
              73.0135754319608,
              18.91166408760343
            ],
            [
              73.0105923231342,
              18.906653235305463
            ],
            [
              72.85661898558261,
              18.865857489747075
            ]
          ]
        ]
      },
      "properties": {
        "spill_id": "SPILL_UNSPECIFIED",
        "probability_band": 75,
        "timestep_utc": "2026-08-31T04:00:00Z",
        "hours_before_detection": 24.0
      }
    },
    {
      "type": "Feature",
      "geometry": {
        "type": "Polygon",
        "coordinates": [
          [
            [
              72.85664568246499,
              18.86333174326291
            ],
            [
              72.77609026855953,
              18.8858090082155
            ],
            [
              72.77342672566823,
              18.888111382784803
            ],
            [
              72.76678255406115,
              18.90001340738147
            ],
            [
              72.76551847635145,
              18.90248721624307
            ],
            [
              72.903908385441,
              19.03525237936522
            ],
            [
              72.90466270367752,
              19.03553816646135
            ],
            [
              73.007918714845,
              18.983476861767947
            ],
            [
              73.00833001311393,
              18.98122656626987
            ],
            [
              73.01374804714244,
              18.91466007857678
            ],
            [
              73.0135754319608,
              18.91166408760343
            ],
            [
              73.0105923231342,
              18.906653235305463
            ],
            [
              72.85664568246499,
              18.86333174326291
            ]
          ]
        ]
      },
      "properties": {
        "spill_id": "SPILL_UNSPECIFIED",
        "probability_band": 95,
        "timestep_utc": "2026-08-31T04:00:00Z",
        "hours_before_detection": 24.0
      }
    },
    {
      "type": "Feature",
      "geometry": {
        "type": "Polygon",
        "coordinates": [
          [
            [
              73.01005476633439,
              18.945775013198666
            ],
            [
              72.90981127054881,
              18.956760498555617
            ],
            [
              72.90242376652134,
              18.959636768197242
            ],
            [
              72.89745494994509,
              18.962138635903642
            ],
            [
              72.89961525726112,
              18.96913006577612
            ],
            [
              72.90542800345823,
              18.979504075518502
            ],
            [
              72.9111348041576,
              18.98638793200449
            ],
            [
              72.98312536545356,
              19.044050269045
            ],
            [
              72.98964637951573,
              19.044611369297225
            ],
            [
              73.06757229416131,
              19.003919073854703
            ],
            [
              73.06908821625149,
              19.00247795719405
            ],
            [
              73.06914622815512,
              18.97345126799385
            ],
            [
              73.06366625535622,
              18.962504246160137
            ],
            [
              73.0626865049132,
              18.961514778277877
            ],
            [
              73.050912577554,
              18.952881610948626
            ],
            [
              73.01005476633439,
              18.945775013198666
            ]
          ]
        ]
      },
      "properties": {
        "spill_id": "SPILL_UNSPECIFIED",
        "probability_band": 50,
        "timestep_utc": "2026-08-30T22:00:00Z",
        "hours_before_detection": 30.0
      }
    },
    {
      "type": "Feature",
      "geometry": {
        "type": "Polygon",
        "coordinates": [
          [
            [
              72.92049753092583,
              18.90778209618445
            ],
            [
              72.90884391702298,
              18.910374978313506
            ],
            [
              72.90608123102434,
              18.911386072867508
            ],
            [
              72.90210684444438,
              18.91305965483235
            ],
            [
              72.89090616292556,
              18.923079311049552
            ],
            [
              72.8899090746087,
              18.927159032190335
            ],
            [
              72.89745494994509,
              18.962138635903642
            ],
            [
              72.89961525726112,
              18.96913006577612
            ],
            [
              72.90542800345823,
              18.979504075518502
            ],
            [
              72.9111348041576,
              18.98638793200449
            ],
            [
              72.97365627397814,
              19.057556601495918
            ],
            [
              72.97622270932591,
              19.05791589868049
            ],
            [
              72.98096780622774,
              19.05728713866431
            ],
            [
              73.06666490082925,
              19.02286279172509
            ],
            [
              73.0778758403996,
              18.953325335910833
            ],
            [
              73.0717912990605,
              18.94672762166074
            ],
            [
              72.92049753092583,
              18.90778209618445
            ]
          ]
        ]
      },
      "properties": {
        "spill_id": "SPILL_UNSPECIFIED",
        "probability_band": 75,
        "timestep_utc": "2026-08-30T22:00:00Z",
        "hours_before_detection": 30.0
      }
    },
    {
      "type": "Feature",
      "geometry": {
        "type": "Polygon",
        "coordinates": [
          [
            [
              72.91817317085756,
              18.90426313307804
            ],
            [
              72.83277036095782,
              18.928720123269617
            ],
            [
              72.82562561908571,
              18.9427013062561
            ],
            [
              72.95840932845182,
              19.074584467170705
            ],
            [
              72.96268679254794,
              19.07547661524203
            ],
            [
              73.06666490082925,
              19.02286279172509
            ],
            [
              73.0778758403996,
              18.953325335910833
            ],
            [
              73.0717912990605,
              18.94672762166074
            ],
            [
              72.91817317085756,
              18.90426313307804
            ]
          ]
        ]
      },
      "properties": {
        "spill_id": "SPILL_UNSPECIFIED",
        "probability_band": 95,
        "timestep_utc": "2026-08-30T22:00:00Z",
        "hours_before_detection": 30.0
      }
    },
    {
      "type": "Feature",
      "geometry": {
        "type": "Polygon",
        "coordinates": [
          [
            [
              73.08457453094637,
              18.990352336863936
            ],
            [
              72.98659543094156,
              19.001685683763217
            ],
            [
              72.97695350350817,
              19.004916642932425
            ],
            [
              72.97298121088755,
              19.007959922923334
            ],
            [
              72.97451444525133,
              19.01465878811909
            ],
            [
              72.97612628964787,
              19.01934268383923
            ],
            [
              72.9846744230625,
              19.03125880723884
            ],
            [
              73.05717745227861,
              19.08845845701134
            ],
            [
              73.06097962385597,
              19.088225788874862
            ],
            [
              73.13950149759759,
              19.047171203555
            ],
            [
              73.14111135640232,
              19.04576004767875
            ],
            [
              73.14154358637214,
              19.016775147003862
            ],
            [
              73.14014456372438,
              19.01292481701975
            ],
            [
              73.13622039918019,
              19.005883730634025
            ],
            [
              73.13544304183948,
              19.004993918124548
            ],
            [
              73.13063917245778,
              19.00032799056574
            ],
            [
              73.12647012738807,
              18.997774559270685
            ],
            [
              73.08457453094637,
              18.990352336863936
            ]
          ]
        ]
      },
      "properties": {
        "spill_id": "SPILL_UNSPECIFIED",
        "probability_band": 50,
        "timestep_utc": "2026-08-30T16:00:00Z",
        "hours_before_detection": 36.0
      }
    },
    {
      "type": "Feature",
      "geometry": {
        "type": "Polygon",
        "coordinates": [
          [
            [
              72.99369668260186,
              18.95204950570094
            ],
            [
              72.98472645528538,
              18.9549249183985
            ],
            [
              72.97733039907068,
              18.958458146556037
            ],
            [
              72.96713367491081,
              18.969099186912576
            ],
            [
              72.96633236761642,
              18.973305537566386
            ],
            [
              72.97298121088755,
              19.007959922923334
            ],
            [
              72.97451444525133,
              19.01465878811909
            ],
            [
              72.97612628964787,
              19.01934268383923
            ],
            [
              72.9846744230625,
              19.03125880723884
            ],
            [
              73.04714668881272,
              19.102385344529612
            ],
            [
              73.04896720520071,
              19.10232742022944
            ],
            [
              73.05187486642886,
              19.101805009965805
            ],
            [
              73.14124754350543,
              19.06752191924916
            ],
            [
              73.14156223633127,
              19.06522726345706
            ],
            [
              73.14934555112302,
              18.99887916814192
            ],
            [
              73.14960439608917,
              18.996177271870877
            ],
            [
              73.1460841118311,
              18.99083624854723
            ],
            [
              72.99369668260186,
              18.95204950570094
            ]
          ]
        ]
      },
      "properties": {
        "spill_id": "SPILL_UNSPECIFIED",
        "probability_band": 75,
        "timestep_utc": "2026-08-30T16:00:00Z",
        "hours_before_detection": 36.0
      }
    },
    {
      "type": "Feature",
      "geometry": {
        "type": "Polygon",
        "coordinates": [
          [
            [
              72.99294101585625,
              18.949297759920594
            ],
            [
              72.91277039300769,
              18.972945139803166
            ],
            [
              72.9084794502979,
              18.974845826253397
            ],
            [
              72.90220454222667,
              18.98699516082671
            ],
            [
              72.90145134523304,
              18.988996959146917
            ],
            [
              72.90186123004467,
              18.98974693341192
            ],
            [
              73.03641675458044,
              19.12057798417584
            ],
            [
              73.03745950899197,
              19.120936375284924
            ],
            [
              73.14124754350543,
              19.06752191924916
            ],
            [
              73.14156223633127,
              19.06522726345706
            ],
            [
              73.14934555112302,
              18.99887916814192
            ],
            [
              73.14960439608917,
              18.996177271870877
            ],
            [
              73.1460841118311,
              18.99083624854723
            ],
            [
              72.99294101585625,
              18.949297759920594
            ]
          ]
        ]
      },
      "properties": {
        "spill_id": "SPILL_UNSPECIFIED",
        "probability_band": 95,
        "timestep_utc": "2026-08-30T16:00:00Z",
        "hours_before_detection": 36.0
      }
    },
    {
      "type": "Feature",
      "geometry": {
        "type": "Point",
        "coordinates": [
          73.04905286632854,
          19.026556830876473
        ]
      },
      "properties": {
        "spill_id": "SPILL_UNSPECIFIED",
        "probability_band": "best_estimate",
        "timestep_utc": "2026-08-30T16:00:00Z",
        "hours_before_detection": 36.0
      }
    }
  ]
}