{
  "type": "FeatureCollection",
  "features": [
    {
      "type": "Feature",
      "geometry": {
        "type": "Polygon",
        "coordinates": [
          [
            [
              72.21894455522235,
              18.81125639444541
            ],
            [
              72.21216212242035,
              18.81177646954367
            ],
            [
              72.20825686413318,
              18.814228000160202
            ],
            [
              72.2063883477719,
              18.81760305469975
            ],
            [
              72.20554167228998,
              18.82190171557198
            ],
            [
              72.20669276856385,
              18.825043625561154
            ],
            [
              72.2084484593444,
              18.82832369609516
            ],
            [
              72.21012036921151,
              18.83058589195548
            ],
            [
              72.21170549778549,
              18.832069557339203
            ],
            [
              72.21304636093498,
              18.832545287998325
            ],
            [
              72.22078285364724,
              18.834099665227985
            ],
            [
              72.22596590239345,
              18.833942336083204
            ],
            [
              72.22934132744622,
              18.831752594279376
            ],
            [
              72.23078087565455,
              18.830241552354952
            ],
            [
              72.23269939523463,
              18.826403668573793
            ],
            [
              72.23170595927428,
              18.81922740181276
            ],
            [
              72.22996634442599,
              18.815940107152393
            ],
            [
              72.22382662808916,
              18.811804848266288
            ],
            [
              72.21894455522235,
              18.81125639444541
            ]
          ]
        ]
      },
      "properties": {
        "spill_id": "TWIN_TEST_001",
        "probability_band": 50,
        "timestep_utc": "2026-08-31T22:00:00Z",
        "hours_before_detection": 6.0
      }
    },
    {
      "type": "Feature",
      "geometry": {
        "type": "Polygon",
        "coordinates": [
          [
            [
              72.21854301144424,
              18.80870544982791
            ],
            [
              72.21556447391126,
              18.80906741339785
            ],
            [
              72.21206519071994,
              18.809986200890382
            ],
            [
              72.20814786645462,
              18.81147347727873
            ],
            [
              72.20642827857789,
              18.81274030390355
            ],
            [
              72.20418124284878,
              18.815574173624118
            ],
            [
              72.20359056583011,
              18.816829600330962
            ],
            [
              72.20319275243637,
              18.821059843968914
            ],
            [
              72.20326878548846,
              18.823459851990215
            ],
            [
              72.20394787052439,
              18.82603742894294
            ],
            [
              72.20471422852316,
              18.827083401837186
            ],
            [
              72.20656804469775,
              18.829480243445627
            ],
            [
              72.20783534056687,
              18.830953143839082
            ],
            [
              72.21492829872393,
              18.836028787798345
            ],
            [
              72.22052185693478,
              18.83625459115363
            ],
            [
              72.22338793398157,
              18.83633253907644
            ],
            [
              72.22615529369877,
              18.836149978646485
            ],
            [
              72.2283468272948,
              18.835305511951642
            ],
            [
              72.23148266306514,
              18.83343312168932
            ],
            [
              72.2346741966401,
              18.82889765830009
            ],
            [
              72.23490754685203,
              18.826959293638375
            ],
            [
              72.234917175723,
              18.8217343116676
            ],
            [
              72.23489301701684,
              18.820345332999445
            ],
            [
              72.23422350931631,
              18.818130263877695
            ],
            [
              72.23368321021167,
              18.817239072961357
            ],
            [
              72.23115786564017,
              18.814641805965312
            ],
            [
              72.22901474342966,
              18.812538307869243
            ],
            [
              72.22795962468398,
              18.811638902104566
            ],
            [
              72.22576460095638,
              18.81013059909219
            ],
            [
              72.22468156223049,
              18.809822350775647
            ],
            [
              72.22276325925887,
              18.809384347726752
            ],
            [
              72.21854301144424,
              18.80870544982791
            ]
          ]
        ]
      },
      "properties": {
        "spill_id": "TWIN_TEST_001",
        "probability_band": 75,
        "timestep_utc": "2026-08-31T22:00:00Z",
        "hours_before_detection": 6.0
      }
    },
    {
      "type": "Feature",
      "geometry": {
        "type": "Polygon",
        "coordinates": [
          [
            [
              72.2193717877266,
              18.806788115329493
            ],
            [
              72.21532687313888,
              18.80679505321918
            ],
            [
              72.21408083567442,
              18.806920628275194
            ],
            [
              72.21256812842876,
              18.807548111493606
            ],
            [
              72.20569866090678,
              18.810504623339302
            ],
            [
              72.20091704200233,
              18.816311928654414
            ],
            [
              72.20073723987693,
              18.824984644067545
            ],
            [
              72.2034740613133,
              18.829622811180947
            ],
            [
              72.20618373030872,
              18.832332231812913
            ],
            [
              72.20861697692105,
              18.834727015577652
            ],
            [
              72.21258118059876,
              18.837545145366246
            ],
            [
              72.21399867657854,
              18.837958869763145
            ],
            [
              72.2182747608052,
              18.838759170174125
            ],
            [
              72.22664050194298,
              18.838273756400763
            ],
            [
              72.22766731599626,
              18.83780180161889
            ],
            [
              72.22962160594234,
              18.836372211462997
            ],
            [
              72.23576674598353,
              18.830830937541606
            ],
            [
              72.23696504964735,
              18.829661953187088
            ],
            [
              72.23798196822118,
              18.825596617033032
            ],
            [
              72.238083929364,
              18.82500074710129
            ],
            [
              72.23592579312616,
              18.818069771841607
            ],
            [
              72.23451098750455,
              18.815731576757724
            ],
            [
              72.22786324691428,
              18.808724516550296
            ],
            [
              72.22442633313246,
              18.807053721715786
            ],
            [
              72.2193717877266,
              18.806788115329493
            ]
          ]
        ]
      },
      "properties": {
        "spill_id": "TWIN_TEST_001",
        "probability_band": 95,
        "timestep_utc": "2026-08-31T22:00:00Z",
        "hours_before_detection": 6.0
      }
    },
    {
      "type": "Feature",
      "geometry": {
        "type": "Polygon",
        "coordinates": [
          [
            [
              72.29265371078799,
              18.857755841743483
            ],
            [
              72.28220002989484,
              18.859090987573957
            ],
            [
              72.279554158892,
              18.861093738234786
            ],
            [
              72.27657130837859,
              18.86668556737161
            ],
            [
              72.27660951625639,
              18.868101433347093
            ],
            [
              72.27804216128347,
              18.87229521834549
            ],
            [
              72.27911667849575,
              18.874547185436473
            ],
            [
              72.2803392770194,
              18.876967212390912
            ],
            [
              72.28170173251485,
              18.878630295088804
            ],
            [
              72.28369379883596,
              18.87942145958485
            ],
            [
              72.29214387218147,
              18.880946265063702
            ],
            [
              72.29472951423323,
              18.881291962122763
            ],
            [
              72.29994706298673,
              18.878525695268618
            ],
            [
              72.30158934992862,
              18.876791825766635
            ],
            [
              72.3030151159045,
              18.87341507319206
            ],
            [
              72.30257092793727,
              18.866038558603364
            ],
            [
              72.29812775676346,
              18.860162987918955
            ],
            [
              72.2946204464815,
              18.8585886324289
            ],
            [
              72.29265371078799,
              18.857755841743483
            ]
          ]
        ]
      },
      "properties": {
        "spill_id": "TWIN_TEST_001",
        "probability_band": 50,
        "timestep_utc": "2026-08-31T16:00:00Z",
        "hours_before_detection": 12.0
      }
    },
    {
      "type": "Feature",
      "geometry": {
        "type": "Polygon",
        "coordinates": [
          [
            [
              72.28833384112669,
              18.855526586176726
            ],
            [
              72.28424908582356,
              18.85602921791234
            ],
            [
              72.28166440849299,
              18.856976233911166
            ],
            [
              72.28044941050325,
              18.857531483072588
            ],
            [
              72.27747397460813,
              18.859754904845598
            ],
            [
              72.27583224650769,
              18.862915882751878
            ],
            [
              72.27444705293253,
              18.86616182870445
            ],
            [
              72.2740235555194,
              18.86818412445497
            ],
            [
              72.2741041978809,
              18.869960812482812
            ],
            [
              72.27434073703206,
              18.870925128036806
            ],
            [
              72.27509241461533,
              18.873836968345888
            ],
            [
              72.27835418841177,
              18.877788500917294
            ],
            [
              72.28345135944078,
              18.881872172792264
            ],
            [
              72.28771326359647,
              18.883073627355895
            ],
            [
              72.29024676078258,
              18.88350603527953
            ],
            [
              72.29375030165819,
              18.88369273386874
            ],
            [
              72.29831115062167,
              18.882211714060805
            ],
            [
              72.30304020936482,
              18.87820584321919
            ],
            [
              72.30402075926672,
              18.87719183284537
            ],
            [
              72.30545412746089,
              18.8732518545414
            ],
            [
              72.30575601723348,
              18.871682966845515
            ],
            [
              72.30564225148375,
              18.870472355415785
            ],
            [
              72.30513556306951,
              18.866874358511957
            ],
            [
              72.30425806211912,
              18.864314926248476
            ],
            [
              72.30406872956699,
              18.86379011877491
            ],
            [
              72.3030721362463,
              18.861952705635936
            ],
            [
              72.30104240450827,
              18.85981700857371
            ],
            [
              72.29776251135885,
              18.85749253877275
            ],
            [
              72.29406574423572,
              18.85590004005633
            ],
            [
              72.28833384112669,
              18.855526586176726
            ]
          ]
        ]
      },
      "properties": {
        "spill_id": "TWIN_TEST_001",
        "probability_band": 75,
        "timestep_utc": "2026-08-31T16:00:00Z",
        "hours_before_detection": 12.0
      }
    },
    {
      "type": "Feature",
      "geometry": {
        "type": "Polygon",
        "coordinates": [
          [
            [
              72.2891278363659,
              18.85392872376122
            ],
            [
              72.28412403344261,
              18.854753379174646
            ],
            [
              72.27665377811377,
              18.85772713990234
            ],
            [
              72.27596106296734,
              18.858845600025166
            ],
            [
              72.27292272749888,
              18.86703416569012
            ],
            [
              72.27239594020368,
              18.868633749923898
            ],
            [
              72.2719169872371,
              18.870184176344093
            ],
            [
              72.27417488146833,
              18.875658336069165
            ],
            [
              72.27651770260343,
              18.879092701374514
            ],
            [
              72.27888206385057,
              18.881450957321913
            ],
            [
              72.28603429774486,
              18.884654957040553
            ],
            [
              72.29107909494019,
              18.88529944093832
            ],
            [
              72.29374091219115,
              18.884606309243466
            ],
            [
              72.29860459822403,
              18.883304317484573
            ],
            [
              72.30221199479199,
              18.881316161506085
            ],
            [
              72.30274801611512,
              18.880848369492448
            ],
            [
              72.30625349835809,
              18.877716375812337
            ],
            [
              72.30712846215901,
              18.875356542782086
            ],
            [
              72.30790055306797,
              18.87207932895715
            ],
            [
              72.30800909867385,
              18.868570440043843
            ],
            [
              72.30620700330923,
              18.864560241479687
            ],
            [
              72.30508355479263,
              18.86236278356504
            ],
            [
              72.29988223372385,
              18.857586912539688
            ],
            [
              72.29766804926487,
              18.855849370520346
            ],
            [
              72.29533571769197,
              18.85443049390504
            ],
            [
              72.29443547976895,
              18.854191524737242
            ],
            [
              72.2891278363659,
              18.85392872376122
            ]
          ]
        ]
      },
      "properties": {
        "spill_id": "TWIN_TEST_001",
        "probability_band": 95,
        "timestep_utc": "2026-08-31T16:00:00Z",
        "hours_before_detection": 12.0
      }
    },
    {
      "type": "Feature",
      "geometry": {
        "type": "Polygon",
        "coordinates": [
          [
            [
              72.35783700703504,
              18.90466626006747
            ],
            [
              72.34795984266407,
              18.907776410663914
            ],
            [
              72.34762995854796,
              18.908205679621318
            ],
            [
              72.34555287655063,
              18.91125884198236
            ],
            [
              72.3446984034769,
              18.915587394275878
            ],
            [
              72.34537138133143,
              18.918416910440918
            ],
            [
              72.34622684978041,
              18.920546635381893
            ],
            [
              72.34864618294287,
              18.924104932757086
            ],
            [
              72.35205156599304,
              18.926159153356394
            ],
            [
              72.35964208600258,
              18.927593991677618
            ],
            [
              72.36449118709103,
              18.927292525385827
            ],
            [
              72.37017667112583,
              18.923544701587602
            ],
            [
              72.37187104558329,
              18.919798223016578
            ],
            [
              72.37041227165045,
              18.9122819882998
            ],
            [
              72.36859874285281,
              18.90918101848223
            ],
            [
              72.36537337686148,
              18.906806522261533
            ],
            [
              72.3632250271517,
              18.9052860622772
            ],
            [
              72.35783700703504,
              18.90466626006747
            ]
          ]
        ]
      },
      "properties": {
        "spill_id": "TWIN_TEST_001",
        "probability_band": 50,
        "timestep_utc": "2026-08-31T10:00:00Z",
        "hours_before_detection": 18.0
      }
    },
    {
      "type": "Feature",
      "geometry": {
        "type": "Polygon",
        "coordinates": [
          [
            [
              72.35744862326746,
              18.902110737101044
            ],
            [
              72.3533186587892,
              18.90232975997037
            ],
            [
              72.34588395109358,
              18.906444435666906
            ],
            [
              72.34376624929605,
              18.909352223372984
            ],
            [
              72.34343602405018,
              18.910689456919158
            ],
            [
              72.34238943532898,
              18.91636976651161
            ],
            [
              72.34241627539475,
              18.917177755363856
            ],
            [
              72.34306268197224,
              18.919752281513365
            ],
            [
              72.34368214878741,
              18.920757472481352
            ],
            [
              72.34682853614373,
              18.924616837088095
            ],
            [
              72.35317760660654,
              18.929451269446904
            ],
            [
              72.35924685320036,
              18.93061308786797
            ],
            [
              72.36453142572314,
              18.92947228816673
            ],
            [
              72.36793294331926,
              18.928331940496644
            ],
            [
              72.37053742014506,
              18.926056552527765
            ],
            [
              72.37328941317499,
              18.922142957591902
            ],
            [
              72.37397155232917,
              18.919920373491777
            ],
            [
              72.37403114640571,
              18.916608230388956
            ],
            [
              72.37385287716776,
              18.912745757922085
            ],
            [
              72.37287001383662,
              18.910579141432397
            ],
            [
              72.37083574305107,
              18.908123441480818
            ],
            [
              72.36804403957842,
              18.90553831915583
            ],
            [
              72.36366296516586,
              18.90317986769061
            ],
            [
              72.36245370761912,
              18.902939789398967
            ],
            [
              72.35744862326746,
              18.902110737101044
            ]
          ]
        ]
      },
      "properties": {
        "spill_id": "TWIN_TEST_001",
        "probability_band": 75,
        "timestep_utc": "2026-08-31T10:00:00Z",
        "hours_before_detection": 18.0
      }
    },
    {
      "type": "Feature",
      "geometry": {
        "type": "Polygon",
        "coordinates": [
          [
            [
              72.35919269107701,
              18.900403694982845
            ],
            [
              72.35545384865289,
              18.90053908344061
            ],
            [
              72.35425502125226,
              18.90069278131123
            ],
            [
              72.3522633161107,
              18.901214449202346
            ],
            [
              72.34571107037591,
              18.904350542918962
            ],
            [
              72.34088264156384,
              18.91023293637288
            ],
            [
              72.34042796378066,
              18.918880525276606
            ],
            [
              72.34249791042153,
              18.92333851341891
            ],
            [
              72.34538257853856,
              18.926451887537944
            ],
            [
              72.3474714209251,
              18.928365740212353
            ],
            [
              72.35155453808231,
              18.93118193589342
            ],
            [
              72.35274344242339,
              18.93152336686854
            ],
            [
              72.35737985188122,
              18.932369052149486
            ],
            [
              72.36488559809546,
              18.93156910601695
            ],
            [
              72.37186442490746,
              18.928736397722815
            ],
            [
              72.37570041248586,
              18.922913915683512
            ],
            [
              72.37681547456638,
              18.918963211111887
            ],
            [
              72.37506787985042,
              18.911376521697036
            ],
            [
              72.37377879531536,
              18.909074746985645
            ],
            [
              72.36693781577488,
              18.902062322155853
            ],
            [
              72.36333783437298,
              18.901040406249074
            ],
            [
              72.35919269107701,
              18.900403694982845
            ]
          ]
        ]
      },
      "properties": {
        "spill_id": "TWIN_TEST_001",
        "probability_band": 95,
        "timestep_utc": "2026-08-31T10:00:00Z",
        "hours_before_detection": 18.0
      }
    },
    {
      "type": "Feature",
      "geometry": {
        "type": "Polygon",
        "coordinates": [
          [
            [
              72.41492500620629,
              18.94715831517474
            ],
            [
              72.40952670575076,
              18.94779543328687
            ],
            [
              72.40753163916767,
              18.94863333065385
            ],
            [
              72.40472305595632,
              18.95080110246642
            ],
            [
              72.40235119869008,
              18.953535800416624
            ],
            [
              72.40194467773416,
              18.955725736309393
            ],
            [
              72.40165573474533,
              18.95740795005149
            ],
            [
              72.40167605160008,
              18.958778560418462
            ],
            [
              72.40194607589365,
              18.962272313762284
            ],
            [
              72.40239829055986,
              18.963466429441343
            ],
            [
              72.4052489748781,
              18.966967586438262
            ],
            [
              72.4079927609007,
              18.96876776387045
            ],
            [
              72.41719593867737,
              18.970418390523292
            ],
            [
              72.41991690197064,
              18.96933237429028
            ],
            [
              72.42398780399513,
              18.967169564329108
            ],
            [
              72.42532084934446,
              18.965747605394185
            ],
            [
              72.42689990553015,
              18.962747783321916
            ],
            [
              72.42778806776343,
              18.96032581138886
            ],
            [
              72.42634897588688,
              18.954163148977976
            ],
            [
              72.42538256529444,
              18.952935018851843
            ],
            [
              72.42168093161179,
              18.949007367768324
            ],
            [
              72.41930004246429,
              18.94779520818984
            ],
            [
              72.4184496284248,
              18.947560885936348
            ],
            [
              72.41492500620629,
              18.94715831517474
            ]
          ]
        ]
      },
      "properties": {
        "spill_id": "TWIN_TEST_001",
        "probability_band": 50,
        "timestep_utc": "2026-08-31T04:00:00Z",
        "hours_before_detection": 24.0
      }
    },
    {
      "type": "Feature",
      "geometry": {
        "type": "Polygon",
        "coordinates": [
          [
            [
              72.41445877542837,
              18.944389915054543
            ],
            [
              72.41191267013454,
              18.944465336683635
            ],
            [
              72.40550999976944,
              18.947008030578488
            ],
            [
              72.40227925063765,
              18.94920544159864
            ],
            [
              72.40178977225975,
              18.950250396720058
            ],
            [
              72.39993256279348,
              18.954232161505367
            ],
            [
              72.39941770638755,
              18.95573299321841
            ],
            [
              72.3990419564942,
              18.959461846901576
            ],
            [
              72.39987060341356,
              18.963411111756344
            ],
            [
              72.40181386124043,
              18.966372467587007
            ],
            [
              72.40260182678394,
              18.96717293035413
            ],
            [
              72.40647481701153,
              18.970861339853826
            ],
            [
              72.40760458594819,
              18.97165119517148
            ],
            [
              72.41388384463583,
              18.97260679578844
            ],
            [
              72.41829207491388,
              18.972970778128147
            ],
            [
              72.4201708154549,
              18.972081928864515
            ],
            [
              72.42430858027633,
              18.969217980435474
            ],
            [
              72.42719197134964,
              18.966729534007825
            ],
            [
              72.42969800388717,
              18.963909823301982
            ],
            [
              72.43025065618757,
              18.961285193378675
            ],
            [
              72.43010129402346,
              18.9594809937369
            ],
            [
              72.42844167307467,
              18.952827780500407
            ],
            [
              72.42652464457828,
              18.9503184929967
            ],
            [
              72.42315745447043,
              18.946861473889655
            ],
            [
              72.41796424234244,
              18.944868858373948
            ],
            [
              72.41445877542837,
              18.944389915054543
            ]
          ]
        ]
      },
      "properties": {
        "spill_id": "TWIN_TEST_001",
        "probability_band": 75,
        "timestep_utc": "2026-08-31T04:00:00Z",
        "hours_before_detection": 24.0
      }
    },
    {
      "type": "Feature",
      "geometry": {
        "type": "Polygon",
        "coordinates": [
          [
            [
              72.41367305761128,
              18.943133479039517
            ],
            [
              72.41140948306379,
              18.94367521035494
            ],
            [
              72.40929371389436,
              18.94420220606591
            ],
            [
              72.40421975640211,
              18.94611381008803
            ],
            [
              72.40066509757487,
              18.949114271416356
            ],
            [
              72.3987647014076,
              18.9514718038247
            ],
            [
              72.39728301005024,
              18.95537596810381
            ],
            [
              72.39707092889081,
              18.956390084751828
            ],
            [
              72.39755134382521,
              18.96193694143397
            ],
            [
              72.39783251735918,
              18.96318421216796
            ],
            [
              72.39855042550349,
              18.965116238219146
            ],
            [
              72.40064056934476,
              18.96847017575601
            ],
            [
              72.4029323084211,
              18.97079353850889
            ],
            [
              72.41163232748136,
              18.974373493624018
            ],
            [
              72.41568162586685,
              18.97468127781027
            ],
            [
              72.42133511092533,
              18.972954831849876
            ],
            [
              72.42280549218336,
              18.972470373255035
            ],
            [
              72.42761574286239,
              18.97014336234816
            ],
            [
              72.429402397701,
              18.968293083396063
            ],
            [
              72.43059877981668,
              18.966737906497777
            ],
            [
              72.43176167156967,
              18.96450133534909
            ],
            [
              72.43194149678537,
              18.961024111830618
            ],
            [
              72.43182207359456,
              18.957426131860796
            ],
            [
              72.43061806101987,
              18.952932590493266
            ],
            [
              72.42958414860055,
              18.951417137833488
            ],
            [
              72.42265752580647,
              18.945093880465574
            ],
            [
              72.41958705715113,
              18.943479377800465
            ],
            [
              72.41899216550935,
              18.943338983334097
            ],
            [
              72.41367305761128,
              18.943133479039517
            ]
          ]
        ]
      },
      "properties": {
        "spill_id": "TWIN_TEST_001",
        "probability_band": 95,
        "timestep_utc": "2026-08-31T04:00:00Z",
        "hours_before_detection": 24.0
      }
    },
    {
      "type": "Feature",
      "geometry": {
        "type": "Polygon",
        "coordinates": [
          [
            [
              72.47584640826129,
              18.99117617473052
            ],
            [
              72.46908697213605,
              18.99188246503681
            ],
            [
              72.46496274360102,
              18.994351059237804
            ],
            [
              72.4629585016791,
              18.99777036167636
            ],
            [
              72.46193280326699,
              19.00208401207386
            ],
            [
              72.46293091956613,
              19.00516935879327
            ],
            [
              72.46456261508436,
              19.008405760096515
            ],
            [
              72.46624927969724,
              19.010718660901105
            ],
            [
              72.46771561173516,
              19.01212658685375
            ],
            [
              72.46901307552886,
              19.012552165912716
            ],
            [
              72.47833118408735,
              19.014613832160475
            ],
            [
              72.48195699180798,
              19.013698678102383
            ],
            [
              72.48542607943583,
              19.011432560780793
            ],
            [
              72.48682530641716,
              19.00981325442737
            ],
            [
              72.48891387159438,
              19.005944943615724
            ],
            [
              72.48830747988909,
              18.998858419295512
            ],
            [
              72.48724390585353,
              18.99744741802236
            ],
            [
              72.48266500637824,
              18.993025026319224
            ],
            [
              72.48062181543729,
              18.991551900972965
            ],
            [
              72.47584640826129,
              18.99117617473052
            ]
          ]
        ]
      },
      "properties": {
        "spill_id": "TWIN_TEST_001",
        "probability_band": 50,
        "timestep_utc": "2026-08-30T22:00:00Z",
        "hours_before_detection": 30.0
      }
    },
    {
      "type": "Feature",
      "geometry": {
        "type": "Polygon",
        "coordinates": [
          [
            [
              72.47555549897578,
              18.988639201479526
            ],
            [
              72.4724400091119,
              18.988981114246375
            ],
            [
              72.46890879743113,
              18.989992373106855
            ],
            [
              72.46493240252049,
              18.991555120762126
            ],
            [
              72.46316993799388,
              18.992887303688438
            ],
            [
              72.45930722798138,
              19.000694858064424
            ],
            [
              72.45928817685372,
              19.002575412981052
            ],
            [
              72.46017011253062,
              19.006255357939118
            ],
            [
              72.4609090664163,
              19.007295002675214
            ],
            [
              72.46263037445004,
              19.009610916602192
            ],
            [
              72.46386735433623,
              19.01108474880531
            ],
            [
              72.47088746754837,
              19.016077694145697
            ],
            [
              72.47932734987883,
              19.016177147136386
            ],
            [
              72.48208116275461,
              19.015916857563106
            ],
            [
              72.48428942971408,
              19.015009741475655
            ],
            [
              72.48742191938486,
              19.01300916052357
            ],
            [
              72.49087120280454,
              19.008449605917857
            ],
            [
              72.49117791820463,
              19.00650260564912
            ],
            [
              72.49142407935774,
              18.99988508425367
            ],
            [
              72.49075501810444,
              18.997622871536503
            ],
            [
              72.49027913140677,
              18.99676769262727
            ],
            [
              72.48782002706709,
              18.994195085983545
            ],
            [
              72.48578917871336,
              18.99216931164621
            ],
            [
              72.48483915077907,
              18.991340979000203
            ],
            [
              72.4826028727298,
              18.989807290927217
            ],
            [
              72.47963041523919,
              18.989135044431926
            ],
            [
              72.47555549897578,
              18.988639201479526
            ]
          ]
        ]
      },
      "properties": {
        "spill_id": "TWIN_TEST_001",
        "probability_band": 75,
        "timestep_utc": "2026-08-30T22:00:00Z",
        "hours_before_detection": 30.0
      }
    },
    {
      "type": "Feature",
      "geometry": {
        "type": "Polygon",
        "coordinates": [
          [
            [
              72.47633964069594,
              18.986613478101063
            ],
            [
              72.4723015118188,
              18.986707034837636
            ],
            [
              72.47105557405634,
              18.98686239349747
            ],
            [
              72.46950352618555,
              18.987537349953662
            ],
            [
              72.46251734117891,
              18.990642678762377
            ],
            [
              72.45751122415358,
              18.9965651944141
            ],
            [
              72.45697602275872,
              19.005244812116985
            ],
            [
              72.45955622743928,
              19.009855229451325
            ],
            [
              72.46216585199704,
              19.01250751226772
            ],
            [
              72.46450680820993,
              19.014847755792086
            ],
            [
              72.46834235048237,
              19.017559325593048
            ],
            [
              72.46976799337429,
              19.01795949428859
            ],
            [
              72.47397620916864,
              19.018628472568132
            ],
            [
              72.48250594286125,
              19.018044139193524
            ],
            [
              72.48356548627946,
              19.017555981127675
            ],
            [
              72.48555767115315,
              19.016068498365158
            ],
            [
              72.49184394804908,
              19.010329902664402
            ],
            [
              72.4931070960448,
              19.009144053735724
            ],
            [
              72.49437080846009,
              19.005105658928027
            ],
            [
              72.49448240311862,
              19.004498862944942
            ],
            [
              72.49249294176363,
              18.99754890797158
            ],
            [
              72.49116146772363,
              18.995235677940062
            ],
            [
              72.48484436487294,
              18.988418549000688
            ],
            [
              72.48138612633433,
              18.98676186170467
            ],
            [
              72.47633964069594,
              18.986613478101063
            ]
          ]
        ]
      },
      "properties": {
        "spill_id": "TWIN_TEST_001",
        "probability_band": 95,
        "timestep_utc": "2026-08-30T22:00:00Z",
        "hours_before_detection": 30.0
      }
    },
    {
      "type": "Feature",
      "geometry": {
        "type": "Polygon",
        "coordinates": [
          [
            [
              72.5521387126837,
              19.038143479626335
            ],
            [
              72.54165004580224,
              19.039731754752488
            ],
            [
              72.53893516112639,
              19.04179982549178
            ],
            [
              72.53569248532536,
              19.047440489012637
            ],
            [
              72.53571133575093,
              19.04887862228562
            ],
            [
              72.53695348720389,
              19.053034150265933
            ],
            [
              72.53793075693636,
              19.05525888457695
            ],
            [
              72.53903898694789,
              19.057630556932743
            ],
            [
              72.54038407643834,
              19.059289169651258
            ],
            [
              72.54235061047838,
              19.060038609644973
            ],
            [
              72.55072545421933,
              19.061362183907963
            ],
            [
              72.55331707774131,
              19.06165145073598
            ],
            [
              72.55859120861294,
              19.05874342932771
            ],
            [
              72.56034058152427,
              19.05697786330202
            ],
            [
              72.56185865257011,
              19.053543361514013
            ],
            [
              72.56175972881121,
              19.046208423574505
            ],
            [
              72.5574999111443,
              19.040402436309755
            ],
            [
              72.55410729549044,
              19.038940727016044
            ],
            [
              72.5521387126837,
              19.038143479626335
            ]
          ]
        ]
      },
      "properties": {
        "spill_id": "TWIN_TEST_001",
        "probability_band": 50,
        "timestep_utc": "2026-08-30T16:00:00Z",
        "hours_before_detection": 36.0
      }
    },
    {
      "type": "Feature",
      "geometry": {
        "type": "Polygon",
        "coordinates": [
          [
            [
              72.54787801461292,
              19.03598895567031
            ],
            [
              72.54380761124906,
              19.036615720497444
            ],
            [
              72.54117827853625,
              19.03761105604485
            ],
            [
              72.53997237564322,
              19.0382164763983
            ],
            [
              72.53690705059667,
              19.040509004430458
            ],
            [
              72.53513491311007,
              19.043709716095982
            ],
            [
              72.53436373085462,
              19.045383125096343
            ],
            [
              72.53362423013908,
              19.046990864314147
            ],
            [
              72.53308099114618,
              19.049009159457928
            ],
            [
              72.5330942224786,
              19.05077470255202
            ],
            [
              72.5332635858699,
              19.051718805950152
            ],
            [
              72.53390354204227,
              19.05461613212896
            ],
            [
              72.53707302661304,
              19.058529045391957
            ],
            [
              72.541946381057,
              19.06245894096085
            ],
            [
              72.54615806252801,
              19.063559020339287
            ],
            [
              72.54872898041324,
              19.063961327428597
            ],
            [
              72.55217304214847,
              19.06403724884109
            ],
            [
              72.55681058756393,
              19.062457308970995
            ],
            [
              72.56173025847349,
              19.058355302752695
            ],
            [
              72.56276399973169,
              19.057331353781972
            ],
            [
              72.56436517437088,
              19.053357395829817
            ],
            [
              72.56470075809973,
              19.051773032330452
            ],
            [
              72.56465377673149,
              19.050571409931262
            ],
            [
              72.56425629396261,
              19.046959030426954
            ],
            [
              72.56335350870711,
              19.04392258513549
            ],
            [
              72.56241815460794,
              19.04210721487857
            ],
            [
              72.56042852839902,
              19.040000727847264
            ],
            [
              72.55728155461813,
              19.037768572280925
            ],
            [
              72.5536275303364,
              19.036244484952224
            ],
            [
              72.54787801461292,
              19.03598895567031
            ]
          ]
        ]
      },
      "properties": {
        "spill_id": "TWIN_TEST_001",
        "probability_band": 75,
        "timestep_utc": "2026-08-30T16:00:00Z",
        "hours_before_detection": 36.0
      }
    },
    {
      "type": "Feature",
      "geometry": {
        "type": "Polygon",
        "coordinates": [
          [
            [
              72.54879617543781,
              19.03440542824317
            ],
            [
              72.54375882476444,
              19.035351625833513
            ],
            [
              72.53611123934375,
              19.038479421646343
            ],
            [
              72.53540304880225,
              19.039626540343985
            ],
            [
              72.53205943804085,
              19.047892223039916
            ],
            [
              72.53145220449935,
              19.04949520151741
            ],
            [
              72.53087718375276,
              19.05105210849526
            ],
            [
              72.53297634862811,
              19.056496079460686
            ],
            [
              72.53518381722489,
              19.059876079365807
            ],
            [
              72.53745580629864,
              19.062180031892183
            ],
            [
              72.54441872120358,
              19.065196002957194
            ],
            [
              72.54950552303539,
              19.065748724099922
            ],
            [
              72.55219658081059,
              19.06498994064012
            ],
            [
              72.55711445460398,
              19.0635748703104
            ],
            [
              72.56074593480872,
              19.061468796013685
            ],
            [
              72.56134754982884,
              19.061019930950874
            ],
            [
              72.56498855192292,
              19.057806710206513
            ],
            [
              72.56595765908105,
              19.05542617822171
            ],
            [
              72.56685300635542,
              19.052122464905533
            ],
            [
              72.56708445091488,
              19.04860018872714
            ],
            [
              72.56546214958227,
              19.044642753576472
            ],
            [
              72.56442554681945,
              19.042471552957615
            ],
            [
              72.55940180100434,
              19.037808828354894
            ],
            [
              72.5572653438041,
              19.036130731487088
            ],
            [
              72.55497380913303,
              19.034754633495897
            ],
            [
              72.55409590017675,
              19.034544498505607
            ],
            [
              72.54879617543781,
              19.03440542824317
            ]
          ]
        ]
      },
      "properties": {
        "spill_id": "TWIN_TEST_001",
        "probability_band": 95,
        "timestep_utc": "2026-08-30T16:00:00Z",
        "hours_before_detection": 36.0
      }
    },
    {
      "type": "Feature",
      "geometry": {
        "type": "Point",
        "coordinates": [
          72.54909541049805,
          19.049982077902005
        ]
      },
      "properties": {
        "spill_id": "TWIN_TEST_001",
        "probability_band": "best_estimate",
        "timestep_utc": "2026-08-30T16:00:00Z",
        "hours_before_detection": 36.0
      }
    }
  ]
}