{
  "type": "FeatureCollection",
  "features": [
    {
      "type": "Feature",
      "geometry": {
        "type": "Polygon",
        "coordinates": [
          [
            [
              72.1601409055818,
              18.76092813034832
            ],
            [
              72.15939600913653,
              18.760316135281627
            ],
            [
              72.15859564294007,
              18.759778713075743
            ],
            [
              72.15774724566528,
              18.759320858579272
            ],
            [
              72.15685870239002,
              18.758946827131627
            ],
            [
              72.1559382713126,
              18.75866009501353
            ],
            [
              72.15499450699932,
              18.758463327138166
            ],
            [
              72.15403618087755,
              18.75835835228324
            ],
            [
              72.15307219971345,
              18.758346146094155
            ],
            [
              72.15211152283155,
              18.7584268220163
            ],
            [
              72.15116307884617,
              18.758599630240653
            ],
            [
              72.15023568267797,
              18.75886296467258
            ],
            [
              72.14642204435711,
              18.76014749301673
            ],
            [
              72.14584551115729,
              18.760361640236322
            ],
            [
              72.14286166829031,
              18.76157562990017
            ],
            [
              72.14198097477203,
              18.761984851469094
            ],
            [
              72.14114412773603,
              18.76247756883633
            ],
            [
              72.14035901934751,
              18.763049135266346
            ],
            [
              72.13851645835167,
              18.764532612798074
            ],
            [
              72.13773695918438,
              18.76523046603114
            ],
            [
              72.13703463851245,
              18.766005942504353
            ],
            [
              72.13573083575446,
              18.76760642334038
            ],
            [
              72.1351388811491,
              18.768412219406187
            ],
            [
              72.13463035296209,
              18.769273100720586
            ],
            [
              72.13421033503896,
              18.770180460901944
            ],
            [
              72.13388302637262,
              18.771125228911252
            ],
            [
              72.13365169912527,
              18.77209795973687
            ],
            [
              72.13351866591601,
              18.77308892881797
            ],
            [
              72.13348525670119,
              18.7740882292627
            ],
            [
              72.13355180547859,
              18.775085870889086
            ],
            [
              72.1337176469484,
              18.776071880098655
            ],
            [
              72.13398112316433,
              18.777036399584258
            ],
            [
              72.13561455285239,
              18.78202085415967
            ],
            [
              72.13594741354976,
              18.782895865941256
            ],
            [
              72.13636064305548,
              18.783735915485853
            ],
            [
              72.13685061965319,
              18.784533640247584
            ],
            [
              72.13741304898284,
              18.785282048632705
            ],
            [
              72.13804300167837,
              18.785974581276825
            ],
            [
              72.13873495657063,
              18.786605168533946
            ],
            [
              72.1394828490773,
              18.78716828367337
            ],
            [
              72.14494445767087,
              18.790893165613078
            ],
            [
              72.14578329862994,
              18.791406717262753
            ],
            [
              72.14666853190754,
              18.791835379712357
            ],
            [
              72.14759159385035,
              18.79217500612657
            ],
            [
              72.14854355485447,
              18.79242231099529
            ],
            [
              72.14951520574961,
              18.792574901917302
            ],
            [
              72.15049714688746,
              18.79263130274412
            ],
            [
              72.15147987907307,
              18.7925909678601
            ],
            [
              72.1524538954589,
              18.79245428746065
            ],
            [
              72.15340977351322,
              18.79222258377754
            ],
            [
              72.15433826617253,
              18.79189809828776
            ],
            [
              72.16086899178872,
              18.789248621957846
            ],
            [
              72.1613056076444,
              18.789059268665557
            ],
            [
              72.164308778485,
              18.787671029579183
            ],
            [
              72.1651636980032,
              18.787224598236367
            ],
            [
              72.1659716347948,
              18.786697885347554
            ],
            [
              72.16672507352608,
              18.786095790334553
            ],
            [
              72.16741700579789,
              18.785423913814885
            ],
            [
              72.16804099533704,
              18.78468850550551
            ],
            [
              72.16859123786566,
              18.78389640608867
            ],
            [
              72.16906261509199,
              18.783054983580676
            ],
            [
              72.1694507423201,
              18.78217206479547
            ],
            [
              72.1697520092358,
              18.781255862540526
            ],
            [
              72.16996361348943,
              18.78031489922227
            ],
            [
              72.17008358676293,
              18.77935792757164
            ],
            [
              72.17011081307889,
              18.778393849227218
            ],
            [
              72.17004503918132,
              18.777431631933226
            ],
            [
              72.1697062112196,
              18.774536213273656
            ],
            [
              72.16965851907796,
              18.77418324032401
            ],
            [
              72.16937182529513,
              18.772313047121628
            ],
            [
              72.16917730590839,
              18.771357753279556
            ],
            [
              72.16889069030192,
              18.770425940202458
            ],
            [
              72.16851470253955,
              18.769526464066548
            ],
            [
              72.16805291609968,
              18.768667873709934
            ],
            [
              72.16750971991198,
              18.767858329382435
            ],
            [
              72.16689027664401,
              18.767105525188573
            ],
            [
              72.166200473634,
              18.76641661596095
            ],
            [
              72.1601409055818,
              18.76092813034832
            ]
          ]
        ]
      },
      "properties": {
        "spill_id": "TWIN_TEST_001",
        "detection_time_utc": "2026-09-01T04:00:00Z"
      }
    }
  ]
}