{
  "type": "FeatureCollection",
  "features": [
    {
      "type": "Feature",
      "geometry": {
        "type": "Point",
        "coordinates": [
          73.30420976027393,
          17.217092465753424
        ]
      },
      "properties": {
        "spill_id": "SPILL_UNSPECIFIED",
        "probability_band": "mean_trajectory",
        "timestep_utc": "2026-08-14T03:14:00Z",
        "hours_before_detection": 0.0
      }
    },
    {
      "type": "Feature",
      "geometry": {
        "type": "Polygon",
        "coordinates": [
          [
            [
              73.3457135524452,
              17.223542273033495
            ],
            [
              73.34311045309212,
              17.22415366566686
            ],
            [
              73.34095438547054,
              17.22492280940088
            ],
            [
              73.33688711598148,
              17.22687673146842
            ],
            [
              73.33292462258495,
              17.230112744822552
            ],
            [
              73.32946904124509,
              17.234755948121467
            ],
            [
              73.32718633352066,
              17.240719982747592
            ],
            [
              73.32713573732448,
              17.242428054932464
            ],
            [
              73.32866051251794,
              17.24670643126299
            ],
            [
              73.33155621408042,
              17.249713656266287
            ],
            [
              73.33468055301174,
              17.250710054665912
            ],
            [
              73.34370888564244,
              17.24898220961484
            ],
            [
              73.35233713194987,
              17.24104367509396
            ],
            [
              73.35475913100446,
              17.238258172776806
            ],
            [
              73.35563703625407,
              17.236197196639893
            ],
            [
              73.35601967764613,
              17.23367227738571
            ],
            [
              73.35481745395282,
              17.22765951655917
            ],
            [
              73.35390058466267,
              17.226677483544048
            ],
            [
              73.35094664186747,
              17.224288864581897
            ],
            [
              73.3457135524452,
              17.223542273033495
            ]
          ]
        ]
      },
      "properties": {
        "spill_id": "SPILL_UNSPECIFIED",
        "probability_band": 50,
        "timestep_utc": "2026-08-14T00:14:00Z",
        "hours_before_detection": 3.0
      }
    },
    {
      "type": "Feature",
      "geometry": {
        "type": "Polygon",
        "coordinates": [
          [
            [
              73.34753516895734,
              17.220139659192032
            ],
            [
              73.3445304749285,
              17.220803950231417
            ],
            [
              73.33714605649055,
              17.22373539216119
            ],
            [
              73.33287348403582,
              17.226068097588584
            ],
            [
              73.32919001601012,
              17.230669038136572
            ],
            [
              73.3264996480443,
              17.234238534007783
            ],
            [
              73.32579254562302,
              17.235316495815265
            ],
            [
              73.32363950055142,
              17.242971015707838
            ],
            [
              73.3235362490929,
              17.243553861636713
            ],
            [
              73.32559814197003,
              17.25035623842533
            ],
            [
              73.32934882904777,
              17.253324311494854
            ],
            [
              73.33671777022899,
              17.254414682013607
            ],
            [
              73.33948220029751,
              17.253718438084643
            ],
            [
              73.34356021923665,
              17.251776475890644
            ],
            [
              73.35548661073152,
              17.242360522590783
            ],
            [
              73.35891131375973,
              17.23595919802859
            ],
            [
              73.35967503399681,
              17.231652902269715
            ],
            [
              73.35749339050885,
              17.226729167530625
            ],
            [
              73.3558159541035,
              17.223623418228225
            ],
            [
              73.35390418756171,
              17.221003702026636
            ],
            [
              73.34753516895734,
              17.220139659192032
            ]
          ]
        ]
      },
      "properties": {
        "spill_id": "SPILL_UNSPECIFIED",
        "probability_band": 75,
        "timestep_utc": "2026-08-14T00:14:00Z",
        "hours_before_detection": 3.0
      }
    },
    {
      "type": "Feature",
      "geometry": {
        "type": "Polygon",
        "coordinates": [
          [
            [
              73.35364858314558,
              17.218549048132417
            ],
            [
              73.3508641172987,
              17.218758108198255
            ],
            [
              73.33324902722927,
              17.22077553030612
            ],
            [
              73.33185524574908,
              17.22243463555771
            ],
            [
              73.32579254562302,
              17.235316495815265
            ],
            [
              73.32150805432266,
              17.245325338453696
            ],
            [
              73.32151108748508,
              17.247971201899457
            ],
            [
              73.32291056581437,
              17.25646809404425
            ],
            [
              73.32555378241403,
              17.257743816708413
            ],
            [
              73.33681549222246,
              17.258319964405267
            ],
            [
              73.35559085239291,
              17.248086146603278
            ],
            [
              73.36090067387562,
              17.241952787902346
            ],
            [
              73.36402904338229,
              17.235783642606524
            ],
            [
              73.36419571681478,
              17.233267403219237
            ],
            [
              73.36430330472135,
              17.23090800185147
            ],
            [
              73.36287125959949,
              17.22582225696858
            ],
            [
              73.36160397223597,
              17.223969195820438
            ],
            [
              73.35855986410894,
              17.21962693190505
            ],
            [
              73.35364858314558,
              17.218549048132417
            ]
          ]
        ]
      },
      "properties": {
        "spill_id": "SPILL_UNSPECIFIED",
        "probability_band": 95,
        "timestep_utc": "2026-08-14T00:14:00Z",
        "hours_before_detection": 3.0
      }
    },
    {
      "type": "Feature",
      "geometry": {
        "type": "Point",
        "coordinates": [
          73.34158981253513,
          17.237234781304437
        ]
      },
      "properties": {
        "spill_id": "SPILL_UNSPECIFIED",
        "probability_band": "mean_trajectory",
        "timestep_utc": "2026-08-14T00:14:00Z",
        "hours_before_detection": 3.0
      }
    },
    {
      "type": "Feature",
      "geometry": {
        "type": "Polygon",
        "coordinates": [
          [
            [
              73.38049213035995,
              17.248859212794194
            ],
            [
              73.37665255138246,
              17.249272910383343
            ],
            [
              73.37426053561298,
              17.250058079299308
            ],
            [
              73.37082494067606,
              17.251973315739452
            ],
            [
              73.36710982018718,
              17.25518642861844
            ],
            [
              73.3652871363412,
              17.257014802640175
            ],
            [
              73.36355869284267,
              17.25985001917781
            ],
            [
              73.36248404798795,
              17.26180353256352
            ],
            [
              73.36127488303225,
              17.268670462810906
            ],
            [
              73.36214007949181,
              17.27186692309408
            ],
            [
              73.36418150489298,
              17.273940512922515
            ],
            [
              73.36757248217701,
              17.27520944748163
            ],
            [
              73.3691341958678,
              17.27572541560091
            ],
            [
              73.37399561915835,
              17.27474561156968
            ],
            [
              73.37706506961001,
              17.27410357454254
            ],
            [
              73.37819677403336,
              17.273713141002688
            ],
            [
              73.38500200966736,
              17.267887647393284
            ],
            [
              73.38852455887059,
              17.263171345375202
            ],
            [
              73.38899247158162,
              17.261279552352047
            ],
            [
              73.38899597542928,
              17.25401767671435
            ],
            [
              73.38890013304578,
              17.25268416303902
            ],
            [
              73.38398856631846,
              17.24940610509072
            ],
            [
              73.38178485567066,
              17.24899469427876
            ],
            [
              73.38049213035995,
              17.248859212794194
            ]
          ]
        ]
      },
      "properties": {
        "spill_id": "SPILL_UNSPECIFIED",
        "probability_band": 50,
        "timestep_utc": "2026-08-13T21:14:00Z",
        "hours_before_detection": 6.0
      }
    },
    {
      "type": "Feature",
      "geometry": {
        "type": "Polygon",
        "coordinates": [
          [
            [
              73.3823492171076,
              17.245060790181313
            ],
            [
              73.3789531616611,
              17.24581701494747
            ],
            [
              73.37144333823018,
              17.248785144358106
            ],
            [
              73.36270103224437,
              17.255829187852196
            ],
            [
              73.35945384308467,
              17.26102614254375
            ],
            [
              73.35825897631769,
              17.266108086606575
            ],
            [
              73.35734335735074,
              17.270042438973885
            ],
            [
              73.358255851567,
              17.273597236393165
            ],
            [
              73.36191277502078,
              17.27772886237043
            ],
            [
              73.36313738289118,
              17.278449190638764
            ],
            [
              73.36947219419368,
              17.279580727003985
            ],
            [
              73.37213803317924,
              17.278874682255445
            ],
            [
              73.37638134254867,
              17.276772499843528
            ],
            [
              73.38988073701604,
              17.26733440724622
            ],
            [
              73.39045118920149,
              17.266423867928033
            ],
            [
              73.39199621913536,
              17.262827080101705
            ],
            [
              73.39305378077131,
              17.259573931601455
            ],
            [
              73.39310184568569,
              17.254566390760775
            ],
            [
              73.39284450796086,
              17.253777434979234
            ],
            [
              73.39024537237371,
              17.2482604352471
            ],
            [
              73.38805376027045,
              17.24640015746086
            ],
            [
              73.38751120941059,
              17.246089226263035
            ],
            [
              73.3823492171076,
              17.245060790181313
            ]
          ]
        ]
      },
      "properties": {
        "spill_id": "SPILL_UNSPECIFIED",
        "probability_band": 75,
        "timestep_utc": "2026-08-13T21:14:00Z",
        "hours_before_detection": 6.0
      }
    },
    {
      "type": "Feature",
      "geometry": {
        "type": "Polygon",
        "coordinates": [
          [
            [
              73.38850334308874,
              17.243444249064964
            ],
            [
              73.38625387817345,
              17.243521800411354
            ],
            [
              73.36818925220682,
              17.24570822651925
            ],
            [
              73.36706075537356,
              17.246014510749767
            ],
            [
              73.35945384308467,
              17.26102614254375
            ],
            [
              73.35541964935656,
              17.270698474996337
            ],
            [
              73.35766657915504,
              17.28144180640897
            ],
            [
              73.35794836763345,
              17.281906689963236
            ],
            [
              73.35980776535308,
              17.282815788848993
            ],
            [
              73.36986189019278,
              17.283472918214407
            ],
            [
              73.38832053628886,
              17.273197624773232
            ],
            [
              73.38971382696786,
              17.272159455827005
            ],
            [
              73.39494558651957,
              17.266957396953227
            ],
            [
              73.39658936926186,
              17.26393698383962
            ],
            [
              73.39711478237432,
              17.26234335093913
            ],
            [
              73.39776846274705,
              17.259667868885185
            ],
            [
              73.39693631538891,
              17.248714535201522
            ],
            [
              73.39117295819251,
              17.244719540458668
            ],
            [
              73.38850334308874,
              17.243444249064964
            ]
          ]
        ]
      },
      "properties": {
        "spill_id": "SPILL_UNSPECIFIED",
        "probability_band": 95,
        "timestep_utc": "2026-08-13T21:14:00Z",
        "hours_before_detection": 6.0
      }
    },
    {
      "type": "Feature",
      "geometry": {
        "type": "Point",
        "coordinates": [
          73.375536863872,
          17.26226648827874
        ]
      },
      "properties": {
        "spill_id": "SPILL_UNSPECIFIED",
        "probability_band": "mean_trajectory",
        "timestep_utc": "2026-08-13T21:14:00Z",
        "hours_before_detection": 6.0
      }
    },
    {
      "type": "Feature",
      "geometry": {
        "type": "Polygon",
        "coordinates": [
          [
            [
              73.4080192843144,
              17.270242613874746
            ],
            [
              73.40018782384294,
              17.272290095772195
            ],
            [
              73.39681734825906,
              17.2734874754852
            ],
            [
              73.39472744074016,
              17.2752795482347
            ],
            [
              73.39317019706317,
              17.276891617968463
            ],
            [
              73.38957667644527,
              17.281511921470756
            ],
            [
              73.38724495800525,
              17.285819334836148
            ],
            [
              73.38732221796268,
              17.290482226759213
            ],
            [
              73.38795138082384,
              17.293143085128726
            ],
            [
              73.38890693027861,
              17.294179542132397
            ],
            [
              73.39085575494738,
              17.296151001546832
            ],
            [
              73.39329713112733,
              17.2970365167202
            ],
            [
              73.39523202087194,
              17.297666712966613
            ],
            [
              73.3972127722452,
              17.29737828062375
            ],
            [
              73.4033640694097,
              17.295336397869185
            ],
            [
              73.4046505047981,
              17.2944195389602
            ],
            [
              73.41069618940239,
              17.288573845822054
            ],
            [
              73.41289041412021,
              17.28599162880559
            ],
            [
              73.41562079285407,
              17.282752294889132
            ],
            [
              73.41506880808575,
              17.275676251382745
            ],
            [
              73.41493568593792,
              17.274247991291993
            ],
            [
              73.40979385696673,
              17.270257040555798
            ],
            [
              73.4080192843144,
              17.270242613874746
            ]
          ]
        ]
      },
      "properties": {
        "spill_id": "SPILL_UNSPECIFIED",
        "probability_band": 50,
        "timestep_utc": "2026-08-13T18:14:00Z",
        "hours_before_detection": 9.0
      }
    },
    {
      "type": "Feature",
      "geometry": {
        "type": "Polygon",
        "coordinates": [
          [
            [
              73.40908833675066,
              17.266875289194246
            ],
            [
              73.40511287123464,
              17.26762702347806
            ],
            [
              73.3984509230059,
              17.269375749373584
            ],
            [
              73.39375650584516,
              17.27209896650533
            ],
            [
              73.38856987250789,
              17.277082290256054
            ],
            [
              73.3852472508798,
              17.282078682619353
            ],
            [
              73.38399517052058,
              17.28702193948147
            ],
            [
              73.38326335054349,
              17.290762028715132
            ],
            [
              73.38392336835152,
              17.294315712084014
            ],
            [
              73.38901120323554,
              17.2999538568936
            ],
            [
              73.39849866843889,
              17.300691617378497
            ],
            [
              73.41211324617925,
              17.292320285526646
            ],
            [
              73.41469880676301,
              17.29035733471488
            ],
            [
              73.41605968089249,
              17.288032486818885
            ],
            [
              73.41873891964165,
              17.282264539577042
            ],
            [
              73.4190620639779,
              17.28143582546534
            ],
            [
              73.41940655710712,
              17.27620322750175
            ],
            [
              73.41602037348666,
              17.268959946213883
            ],
            [
              73.4134290039229,
              17.26730992858507
            ],
            [
              73.40908833675066,
              17.266875289194246
            ]
          ]
        ]
      },
      "properties": {
        "spill_id": "SPILL_UNSPECIFIED",
        "probability_band": 75,
        "timestep_utc": "2026-08-13T18:14:00Z",
        "hours_before_detection": 9.0
      }
    },
    {
      "type": "Feature",
      "geometry": {
        "type": "Polygon",
        "coordinates": [
          [
            [
              73.41321982547619,
              17.265229485648337
            ],
            [
              73.39331567398489,
              17.268023395953527
            ],
            [
              73.39272950611583,
              17.268232765069303
            ],
            [
              73.3852472508798,
              17.282078682619353
            ],
            [
              73.38117344270442,
              17.291757028680113
            ],
            [
              73.38213186882268,
              17.302194243716862
            ],
            [
              73.38486062478935,
              17.303880336823255
            ],
            [
              73.39555770265069,
              17.304459655834187
            ],
            [
              73.39957486470408,
              17.30324999928089
            ],
            [
              73.41555566317432,
              17.29345940593994
            ],
            [
              73.42185419818848,
              17.286743337813515
            ],
            [
              73.42481243367564,
              17.27856867971732
            ],
            [
              73.42350750863447,
              17.27111607104862
            ],
            [
              73.41694553403813,
              17.26524184245393
            ],
            [
              73.41321982547619,
              17.265229485648337
            ]
          ]
        ]
      },
      "properties": {
        "spill_id": "SPILL_UNSPECIFIED",
        "probability_band": 95,
        "timestep_utc": "2026-08-13T18:14:00Z",
        "hours_before_detection": 9.0
      }
    },
    {
      "type": "Feature",
      "geometry": {
        "type": "Point",
        "coordinates": [
          73.4015679596662,
          17.283803522458957
        ]
      },
      "properties": {
        "spill_id": "SPILL_UNSPECIFIED",
        "probability_band": "mean_trajectory",
        "timestep_utc": "2026-08-13T18:14:00Z",
        "hours_before_detection": 9.0
      }
    },
    {
      "type": "Feature",
      "geometry": {
        "type": "Polygon",
        "coordinates": [
          [
            [
              73.43875059998791,
              17.285959240659714
            ],
            [
              73.43430413002044,
              17.286192680161342
            ],
            [
              73.43212093282999,
              17.28657261918535
            ],
            [
              73.42641835320227,
              17.289447162573747
            ],
            [
              73.4222053906713,
              17.29269794992587
            ],
            [
              73.42138454872459,
              17.29376665457947
            ],
            [
              73.41899193796677,
              17.297536794803854
            ],
            [
              73.41867692396204,
              17.298403396860532
            ],
            [
              73.4165277201789,
              17.30656353241024
            ],
            [
              73.41778736413939,
              17.310365661493034
            ],
            [
              73.42066172134801,
              17.312599323367625
            ],
            [
              73.42271521049568,
              17.313168097990644
            ],
            [
              73.42584374881163,
              17.313634569458326
            ],
            [
              73.43404333863252,
              17.3111601212997
            ],
            [
              73.442178893004,
              17.304204643087765
            ],
            [
              73.44504008129636,
              17.29928387874583
            ],
            [
              73.4451043487391,
              17.298680332670223
            ],
            [
              73.4444088895351,
              17.29019043045675
            ],
            [
              73.44318369685368,
              17.288582761385545
            ],
            [
              73.43875059998791,
              17.285959240659714
            ]
          ]
        ]
      },
      "properties": {
        "spill_id": "SPILL_UNSPECIFIED",
        "probability_band": 50,
        "timestep_utc": "2026-08-13T15:14:00Z",
        "hours_before_detection": 12.0
      }
    },
    {
      "type": "Feature",
      "geometry": {
        "type": "Polygon",
        "coordinates": [
          [
            [
              73.43879506817949,
              17.28277636627796
            ],
            [
              73.43434704482955,
              17.28367365588092
            ],
            [
              73.42687504043592,
              17.286579345088285
            ],
            [
              73.42411594751357,
              17.28785659414758
            ],
            [
              73.4185046138887,
              17.292979691146357
            ],
            [
              73.41541965853793,
              17.29793868457094
            ],
            [
              73.41533465683966,
              17.298174142304777
            ],
            [
              73.41342396986647,
              17.30673261148491
            ],
            [
              73.4134179747435,
              17.307060152002236
            ],
            [
              73.41359761898973,
              17.308712138650403
            ],
            [
              73.41459637362527,
              17.312497889352528
            ],
            [
              73.41622392930502,
              17.31457670643341
            ],
            [
              73.41854767092548,
              17.315925318654422
            ],
            [
              73.42472808560994,
              17.316229456573588
            ],
            [
              73.42539863988343,
              17.31619945908878
            ],
            [
              73.42848302845714,
              17.315966828282633
            ],
            [
              73.4318041400748,
              17.31417293446517
            ],
            [
              73.44256789366409,
              17.30804290834457
            ],
            [
              73.44507623684723,
              17.305179261216814
            ],
            [
              73.44631035841246,
              17.303237827346393
            ],
            [
              73.44851265403878,
              17.298756146500526
            ],
            [
              73.44863851597762,
              17.297727607599167
            ],
            [
              73.44871789315559,
              17.296419282541073
            ],
            [
              73.44867540837383,
              17.292891010030026
            ],
            [
              73.4469985500492,
              17.289069613730128
            ],
            [
              73.44457812125354,
              17.284253802820114
            ],
            [
              73.4391732596101,
              17.282846931761377
            ],
            [
              73.43879506817949,
              17.28277636627796
            ]
          ]
        ]
      },
      "properties": {
        "spill_id": "SPILL_UNSPECIFIED",
        "probability_band": 75,
        "timestep_utc": "2026-08-13T15:14:00Z",
        "hours_before_detection": 12.0
      }
    },
    {
      "type": "Feature",
      "geometry": {
        "type": "Polygon",
        "coordinates": [
          [
            [
              73.44771723481777,
              17.280930512114075
            ],
            [
              73.44344485047084,
              17.28101020658759
            ],
            [
              73.42234859094603,
              17.28417659391309
            ],
            [
              73.42146829167112,
              17.284504532019405
            ],
            [
              73.41541965853793,
              17.29793868457094
            ],
            [
              73.4113150861302,
              17.30762767206465
            ],
            [
              73.41127833172445,
              17.310792553051492
            ],
            [
              73.41271271062128,
              17.317988906364544
            ],
            [
              73.41513890332087,
              17.31930356367849
            ],
            [
              73.42568614014155,
              17.320281715038256
            ],
            [
              73.42790892120864,
              17.319615178156017
            ],
            [
              73.44527275875936,
              17.309309129054505
            ],
            [
              73.45033284856719,
              17.30444531642032
            ],
            [
              73.45293142593252,
              17.300167586242154
            ],
            [
              73.45317798177228,
              17.298900819237407
            ],
            [
              73.453410792835,
              17.296795990503103
            ],
            [
              73.45342082303142,
              17.2924463129642
            ],
            [
              73.45231722880436,
              17.28799527573652
            ],
            [
              73.45194613622378,
              17.28742253602523
            ],
            [
              73.44771723481777,
              17.280930512114075
            ]
          ]
        ]
      },
      "properties": {
        "spill_id": "SPILL_UNSPECIFIED",
        "probability_band": 95,
        "timestep_utc": "2026-08-13T15:14:00Z",
        "hours_before_detection": 12.0
      }
    },
    {
      "type": "Feature",
      "geometry": {
        "type": "Point",
        "coordinates": [
          73.43108523734807,
          17.299803861416876
        ]
      },
      "properties": {
        "spill_id": "SPILL_UNSPECIFIED",
        "probability_band": "mean_trajectory",
        "timestep_utc": "2026-08-13T15:14:00Z",
        "hours_before_detection": 12.0
      }
    },
    {
      "type": "Feature",
      "geometry": {
        "type": "Polygon",
        "coordinates": [
          [
            [
              73.47556444422315,
              17.304594145451386
            ],
            [
              73.47109578532377,
              17.304627479023047
            ],
            [
              73.46792789866116,
              17.304658874890517
            ],
            [
              73.46566720111619,
              17.305402709590574
            ],
            [
              73.46182362792327,
              17.307544614140298
            ],
            [
              73.45791431048984,
              17.310885166331193
            ],
            [
              73.45674954713762,
              17.312377304965533
            ],
            [
              73.4543548455555,
              17.31555186673409
            ],
            [
              73.4524721136773,
              17.321822200750265
            ],
            [
              73.45184320824227,
              17.32446803709303
            ],
            [
              73.45303601101186,
              17.328058844993834
            ],
            [
              73.455994043036,
              17.330367521963744
            ],
            [
              73.45701148751878,
              17.33080667268431
            ],
            [
              73.45948839345647,
              17.331542040872893
            ],
            [
              73.46828355900386,
              17.329680524266543
            ],
            [
              73.47650241110163,
              17.323007620039895
            ],
            [
              73.47742051215725,
              17.321738385650978
            ],
            [
              73.48019620987978,
              17.316527669199488
            ],
            [
              73.47980254931667,
              17.308151075021353
            ],
            [
              73.47858306208798,
              17.30700414138351
            ],
            [
              73.47556444422315,
              17.304594145451386
            ]
          ]
        ]
      },
      "properties": {
        "spill_id": "SPILL_UNSPECIFIED",
        "probability_band": 50,
        "timestep_utc": "2026-08-13T12:14:00Z",
        "hours_before_detection": 15.0
      }
    },
    {
      "type": "Feature",
      "geometry": {
        "type": "Polygon",
        "coordinates": [
          [
            [
              73.47291952222382,
              17.30087422960765
            ],
            [
              73.46974723193811,
              17.301484885088602
            ],
            [
              73.46227070934351,
              17.30447740034155
            ],
            [
              73.45729259737821,
              17.307166214106804
            ],
            [
              73.4539021471686,
              17.31133615455703
            ],
            [
              73.45069171647341,
              17.316167901319726
            ],
            [
              73.44800384504849,
              17.323619264278076
            ],
            [
              73.44990165125117,
              17.33101205323359
            ],
            [
              73.45385282014176,
              17.334072300974377
            ],
            [
              73.45713798584532,
              17.335165511216815
            ],
            [
              73.46079598932204,
              17.33485195535515
            ],
            [
              73.46352982849082,
              17.334101244147707
            ],
            [
              73.46755451176809,
              17.332067523873995
            ],
            [
              73.48038965576839,
              17.322927810593818
            ],
            [
              73.48382446493511,
              17.316410323150215
            ],
            [
              73.48478001587767,
              17.31178973688388
            ],
            [
              73.48240913126243,
              17.307142538568584
            ],
            [
              73.48069240396418,
              17.30400734058292
            ],
            [
              73.47534314040227,
              17.30117501436284
            ],
            [
              73.47423195880819,
              17.300891482365362
            ],
            [
              73.47291952222382,
              17.30087422960765
            ]
          ]
        ]
      },
      "properties": {
        "spill_id": "SPILL_UNSPECIFIED",
        "probability_band": 75,
        "timestep_utc": "2026-08-13T12:14:00Z",
        "hours_before_detection": 15.0
      }
    },
    {
      "type": "Feature",
      "geometry": {
        "type": "Polygon",
        "coordinates": [
          [
            [
              73.47907229694871,
              17.299220016531596
            ],
            [
              73.4586742174483,
              17.301706532558804
            ],
            [
              73.45771069740475,
              17.301889511912485
            ],
            [
              73.45069171647341,
              17.316167901319726
            ],
            [
              73.4466353711554,
              17.32618603731263
            ],
            [
              73.44655337737939,
              17.326398373897035
            ],
            [
              73.44658720511518,
              17.32880634864363
            ],
            [
              73.44663454667871,
              17.329112276618368
            ],
            [
              73.44793069252857,
              17.336873883033352
            ],
            [
              73.44835199314646,
              17.33766383864757
            ],
            [
              73.450181611774,
              17.338644135648046
            ],
            [
              73.46095455187168,
              17.338823109684373
            ],
            [
              73.47974967919636,
              17.328291699029585
            ],
            [
              73.48061471922573,
              17.327482676468485
            ],
            [
              73.48567011031831,
              17.322378594058037
            ],
            [
              73.48852254950467,
              17.317424651754713
            ],
            [
              73.48879975353688,
              17.31492997020685
            ],
            [
              73.48878273865748,
              17.311038161496768
            ],
            [
              73.48774105541347,
              17.306138999263066
            ],
            [
              73.48714583168474,
              17.304662949760186
            ],
            [
              73.48306845417619,
              17.299745377540038
            ],
            [
              73.47907229694871,
              17.299220016531596
            ]
          ]
        ]
      },
      "properties": {
        "spill_id": "SPILL_UNSPECIFIED",
        "probability_band": 95,
        "timestep_utc": "2026-08-13T12:14:00Z",
        "hours_before_detection": 15.0
      }
    },
    {
      "type": "Feature",
      "geometry": {
        "type": "Point",
        "coordinates": [
          73.46638579944927,
          17.31786246361014
        ]
      },
      "properties": {
        "spill_id": "SPILL_UNSPECIFIED",
        "probability_band": "mean_trajectory",
        "timestep_utc": "2026-08-13T12:14:00Z",
        "hours_before_detection": 15.0
      }
    },
    {
      "type": "Feature",
      "geometry": {
        "type": "Polygon",
        "coordinates": [
          [
            [
              73.5006847653666,
              17.327137425572076
            ],
            [
              73.49380346201067,
              17.329204543252896
            ],
            [
              73.49053604538392,
              17.33024099575635
            ],
            [
              73.48770292475905,
              17.33243625425624
            ],
            [
              73.48325454135377,
              17.338233720599035
            ],
            [
              73.48104891518756,
              17.342155805885415
            ],
            [
              73.48095547547096,
              17.347116109093754
            ],
            [
              73.48105261501246,
              17.34865280273201
            ],
            [
              73.48131393651899,
              17.350176359373272
            ],
            [
              73.4841942918697,
              17.353144353135704
            ],
            [
              73.48557576879611,
              17.353787055012553
            ],
            [
              73.4888370415048,
              17.354117951897297
            ],
            [
              73.49508866334573,
              17.352873531530822
            ],
            [
              73.4994989294781,
              17.350720786166228
            ],
            [
              73.5037992217412,
              17.34581672181998
            ],
            [
              73.50674791494927,
              17.34193710568735
            ],
            [
              73.50825404067407,
              17.33925377544004
            ],
            [
              73.50884481702106,
              17.33583894083211
            ],
            [
              73.50884643345069,
              17.33212092561868
            ],
            [
              73.50868979028007,
              17.330765526747587
            ],
            [
              73.50321200258601,
              17.32738014100813
            ],
            [
              73.5006847653666,
              17.327137425572076
            ]
          ]
        ]
      },
      "properties": {
        "spill_id": "SPILL_UNSPECIFIED",
        "probability_band": 50,
        "timestep_utc": "2026-08-13T09:14:00Z",
        "hours_before_detection": 18.0
      }
    },
    {
      "type": "Feature",
      "geometry": {
        "type": "Polygon",
        "coordinates": [
          [
            [
              73.50268154633147,
              17.323341337832623
            ],
            [
              73.49903606556443,
              17.324066193774627
            ],
            [
              73.48987285287059,
              17.327346332383282
            ],
            [
              73.48210809550021,
              17.334125988162754
            ],
            [
              73.47860244095872,
              17.339315842815477
            ],
            [
              73.47720820526966,
              17.344381410356664
            ],
            [
              73.47734829942739,
              17.349727182711057
            ],
            [
              73.48072558595192,
              17.356120948881255
            ],
            [
              73.48240569438647,
              17.35680132679053
            ],
            [
              73.48812332547782,
              17.3577016828473
            ],
            [
              73.49264569389587,
              17.356579306169905
            ],
            [
              73.49567817773408,
              17.35497014295703
            ],
            [
              73.50519408673767,
              17.349528229843347
            ],
            [
              73.50846403956942,
              17.346413904312296
            ],
            [
              73.50969594022683,
              17.344463059607662
            ],
            [
              73.5126152017366,
              17.338236621181355
            ],
            [
              73.51274126454258,
              17.337608913412595
            ],
            [
              73.51338157101027,
              17.332041439608357
            ],
            [
              73.50953993430129,
              17.32572753784732
            ],
            [
              73.50710674854832,
              17.324104129405693
            ],
            [
              73.50268154633147,
              17.323341337832623
            ]
          ]
        ]
      },
      "properties": {
        "spill_id": "SPILL_UNSPECIFIED",
        "probability_band": 75,
        "timestep_utc": "2026-08-13T09:14:00Z",
        "hours_before_detection": 18.0
      }
    },
    {
      "type": "Feature",
      "geometry": {
        "type": "Polygon",
        "coordinates": [
          [
            [
              73.50888271437432,
              17.321659238229266
            ],
            [
              73.50696340744415,
              17.321865964366907
            ],
            [
              73.48858919747555,
              17.324178216988276
            ],
            [
              73.48728274009305,
              17.3244450439638
            ],
            [
              73.4853848499841,
              17.32738631580982
            ],
            [
              73.47860244095872,
              17.339315842815477
            ],
            [
              73.47441152756369,
              17.349034903841122
            ],
            [
              73.4756770916653,
              17.355592162135537
            ],
            [
              73.47747833184991,
              17.360029440718247
            ],
            [
              73.47929487010235,
              17.361287734715972
            ],
            [
              73.48863001117631,
              17.361635449377086
            ],
            [
              73.49323084039014,
              17.359284231770964
            ],
            [
              73.50897379345916,
              17.350170100851784
            ],
            [
              73.51452295520632,
              17.344972451403574
            ],
            [
              73.51612620701971,
              17.34208972959954
            ],
            [
              73.51835651322263,
              17.33526680407802
            ],
            [
              73.51754191984652,
              17.326926652747485
            ],
            [
              73.50888271437432,
              17.321659238229266
            ]
          ]
        ]
      },
      "properties": {
        "spill_id": "SPILL_UNSPECIFIED",
        "probability_band": 95,
        "timestep_utc": "2026-08-13T09:14:00Z",
        "hours_before_detection": 18.0
      }
    },
    {
      "type": "Feature",
      "geometry": {
        "type": "Point",
        "coordinates": [
          73.49512381071084,
          17.34049685458777
        ]
      },
      "properties": {
        "spill_id": "SPILL_UNSPECIFIED",
        "probability_band": "mean_trajectory",
        "timestep_utc": "2026-08-13T09:14:00Z",
        "hours_before_detection": 18.0
      }
    },
    {
      "type": "Feature",
      "geometry": {
        "type": "Polygon",
        "coordinates": [
          [
            [
              73.52037742857762,
              17.346911128351962
            ],
            [
              73.51203481817835,
              17.349394134762203
            ],
            [
              73.5102473221659,
              17.350754590519646
            ],
            [
              73.50640814765556,
              17.353840304776924
            ],
            [
              73.50269142284317,
              17.35849736172004
            ],
            [
              73.50105499127358,
              17.36122128032848
            ],
            [
              73.50031067027967,
              17.36521065527695
            ],
            [
              73.50017629518511,
              17.368312788380752
            ],
            [
              73.5005218671753,
              17.370108620846743
            ],
            [
              73.50339588097282,
              17.373084651216367
            ],
            [
              73.50435638754723,
              17.373506785250463
            ],
            [
              73.50670449763123,
              17.374041273841794
            ],
            [
              73.50681240004054,
              17.374054290029715
            ],
            [
              73.50777365546963,
              17.373928030042475
            ],
            [
              73.51267512231827,
              17.37311247880766
            ],
            [
              73.51762662100693,
              17.3712371399635
            ],
            [
              73.52509564573832,
              17.36525135445445
            ],
            [
              73.52669864183181,
              17.3627935020607
            ],
            [
              73.52866230275113,
              17.359427483471244
            ],
            [
              73.52891481534971,
              17.356765810157082
            ],
            [
              73.52834405351528,
              17.35237094933334
            ],
            [
              73.52814416235255,
              17.35093415376075
            ],
            [
              73.52240590122432,
              17.34693170414774
            ],
            [
              73.52037742857762,
              17.346911128351962
            ]
          ]
        ]
      },
      "properties": {
        "spill_id": "SPILL_UNSPECIFIED",
        "probability_band": 50,
        "timestep_utc": "2026-08-13T06:14:00Z",
        "hours_before_detection": 21.0
      }
    },
    {
      "type": "Feature",
      "geometry": {
        "type": "Polygon",
        "coordinates": [
          [
            [
              73.52225447267537,
              17.343611461515998
            ],
            [
              73.52050118429874,
              17.343799475889075
            ],
            [
              73.51257248395362,
              17.346351368801937
            ],
            [
              73.50797675589148,
              17.349147158705087
            ],
            [
              73.50008144559563,
              17.35615699773723
            ],
            [
              73.49633084959743,
              17.363998212412728
            ],
            [
              73.49614529451377,
              17.369665169865115
            ],
            [
              73.49671995759343,
              17.37246698933545
            ],
            [
              73.50162607127307,
              17.377077261051706
            ],
            [
              73.50481900045912,
              17.377968171810835
            ],
            [
              73.51154893982387,
              17.37751281327614
            ],
            [
              73.52727407937486,
              17.366940587884134
            ],
            [
              73.52906796660444,
              17.364958714382826
            ],
            [
              73.53039476982227,
              17.362669988777952
            ],
            [
              73.53163314827279,
              17.36011733409146
            ],
            [
              73.53217164063531,
              17.35777106878307
            ],
            [
              73.53289195888176,
              17.353196680075964
            ],
            [
              73.52968212226544,
              17.346678170433893
            ],
            [
              73.52853556210617,
              17.345549353147454
            ],
            [
              73.52642382951461,
              17.343977379463706
            ],
            [
              73.52225447267537,
              17.343611461515998
            ]
          ]
        ]
      },
      "properties": {
        "spill_id": "SPILL_UNSPECIFIED",
        "probability_band": 75,
        "timestep_utc": "2026-08-13T06:14:00Z",
        "hours_before_detection": 21.0
      }
    },
    {
      "type": "Feature",
      "geometry": {
        "type": "Polygon",
        "coordinates": [
          [
            [
              73.52936812219265,
              17.341804101981925
            ],
            [
              73.52603572858388,
              17.34187685046149
            ],
            [
              73.50698421468728,
              17.345002783277547
            ],
            [
              73.5066356429638,
              17.345247362638865
            ],
            [
              73.50457468691468,
              17.346978019417953
            ],
            [
              73.49778643313846,
              17.35905316755661
            ],
            [
              73.49355519564524,
              17.36877941971501
            ],
            [
              73.4952713877739,
              17.37932181985231
            ],
            [
              73.49635030315434,
              17.38046421296901
            ],
            [
              73.49873017250012,
              17.38171453569756
            ],
            [
              73.50771507613993,
              17.381312478316385
            ],
            [
              73.51315501904533,
              17.38021434367411
            ],
            [
              73.5282172004301,
              17.370112662383583
            ],
            [
              73.53406058926407,
              17.364072679689464
            ],
            [
              73.5375643804335,
              17.357035880095147
            ],
            [
              73.53762819669838,
              17.35510388289124
            ],
            [
              73.53761297372877,
              17.347800387150585
            ],
            [
              73.52936812219265,
              17.341804101981925
            ]
          ]
        ]
      },
      "properties": {
        "spill_id": "SPILL_UNSPECIFIED",
        "probability_band": 95,
        "timestep_utc": "2026-08-13T06:14:00Z",
        "hours_before_detection": 21.0
      }
    },
    {
      "type": "Feature",
      "geometry": {
        "type": "Point",
        "coordinates": [
          73.5145810261859,
          17.360643416259165
        ]
      },
      "properties": {
        "spill_id": "SPILL_UNSPECIFIED",
        "probability_band": "mean_trajectory",
        "timestep_utc": "2026-08-13T06:14:00Z",
        "hours_before_detection": 21.0
      }
    },
    {
      "type": "Feature",
      "geometry": {
        "type": "Polygon",
        "coordinates": [
          [
            [
              73.54286745512285,
              17.36212789507826
            ],
            [
              73.54055865359021,
              17.362510700340607
            ],
            [
              73.53471641725288,
              17.36543142572522
            ],
            [
              73.53179146936604,
              17.367750151036674
            ],
            [
              73.52946550880928,
              17.36977155000299
            ],
            [
              73.52665433070194,
              17.37443171574335
            ],
            [
              73.52423164430994,
              17.381450635393538
            ],
            [
              73.52503315461625,
              17.384617756765447
            ],
            [
              73.5259347936403,
              17.3864896506853
            ],
            [
              73.52847624050251,
              17.38862279386674
            ],
            [
              73.5307478585873,
              17.38922148052309
            ],
            [
              73.53402097523046,
              17.38967948522938
            ],
            [
              73.53999890299123,
              17.38772217415102
            ],
            [
              73.54196328166891,
              17.386335351908716
            ],
            [
              73.54907798673476,
              17.38005962479166
            ],
            [
              73.55296405147568,
              17.37498741424293
            ],
            [
              73.55327978856656,
              17.374451835408944
            ],
            [
              73.55272888604928,
              17.365971733361484
            ],
            [
              73.55138127652489,
              17.364342038469243
            ],
            [
              73.54286745512285,
              17.36212789507826
            ]
          ]
        ]
      },
      "properties": {
        "spill_id": "SPILL_UNSPECIFIED",
        "probability_band": 50,
        "timestep_utc": "2026-08-13T03:14:00Z",
        "hours_before_detection": 24.0
      }
    },
    {
      "type": "Feature",
      "geometry": {
        "type": "Polygon",
        "coordinates": [
          [
            [
              73.54717871806015,
              17.35861101964709
            ],
            [
              73.54283631048818,
              17.359586750199092
            ],
            [
              73.5356248265246,
              17.36179810097449
            ],
            [
              73.5328746460506,
              17.363949075717453
            ],
            [
              73.52666692546651,
              17.3690377554706
            ],
            [
              73.52345732850645,
              17.374020079251295
            ],
            [
              73.52128079778117,
              17.38282609993772
            ],
            [
              73.5215506455061,
              17.38483883845868
            ],
            [
              73.5224129285328,
              17.388592452869577
            ],
            [
              73.52455695224317,
              17.39076299167307
            ],
            [
              73.52641874841812,
              17.392001699147137
            ],
            [
              73.52966597048496,
              17.39300847650836
            ],
            [
              73.5364480099232,
              17.392524546436753
            ],
            [
              73.55039109737251,
              17.383791782251453
            ],
            [
              73.55163933072029,
              17.38240805021123
            ],
            [
              73.55410858416379,
              17.379451172206384
            ],
            [
              73.55622509249378,
              17.374838014389724
            ],
            [
              73.5567180023673,
              17.372798960183204
            ],
            [
              73.55673125627489,
              17.372097226863872
            ],
            [
              73.55673271012243,
              17.368368785238165
            ],
            [
              73.55529096736463,
              17.364810582939285
            ],
            [
              73.55313143854188,
              17.36006131203252
            ],
            [
              73.54734961776725,
              17.358615133929824
            ],
            [
              73.54717871806015,
              17.35861101964709
            ]
          ]
        ]
      },
      "properties": {
        "spill_id": "SPILL_UNSPECIFIED",
        "probability_band": 75,
        "timestep_utc": "2026-08-13T03:14:00Z",
        "hours_before_detection": 24.0
      }
    },
    {
      "type": "Feature",
      "geometry": {
        "type": "Polygon",
        "coordinates": [
          [
            [
              73.55594357713898,
              17.356606917535785
            ],
            [
              73.55175363215581,
              17.35676351755899
            ],
            [
              73.53089114123038,
              17.360241833924203
            ],
            [
              73.53010517712363,
              17.360598271864585
            ],
            [
              73.52345732850645,
              17.374020079251295
            ],
            [
              73.51919877077754,
              17.383757514138832
            ],
            [
              73.51928797019168,
              17.38696621444885
            ],
            [
              73.52035827232078,
              17.39407956743544
            ],
            [
              73.52275989901793,
              17.395364260154743
            ],
            [
              73.5333656235411,
              17.396243057282256
            ],
            [
              73.53609021378358,
              17.39565384981779
            ],
            [
              73.5532106525285,
              17.385064137861875
            ],
            [
              73.5584331613433,
              17.380159601123715
            ],
            [
              73.56086189358102,
              17.37578745177865
            ],
            [
              73.56117958741086,
              17.37453451828828
            ],
            [
              73.56155212078988,
              17.37245614788551
            ],
            [
              73.56150578487913,
              17.368071449512282
            ],
            [
              73.56064501176053,
              17.363179084738874
            ],
            [
              73.55594357713898,
              17.356606917535785
            ]
          ]
        ]
      },
      "properties": {
        "spill_id": "SPILL_UNSPECIFIED",
        "probability_band": 95,
        "timestep_utc": "2026-08-13T03:14:00Z",
        "hours_before_detection": 24.0
      }
    },
    {
      "type": "Feature",
      "geometry": {
        "type": "Point",
        "coordinates": [
          73.53926319208017,
          17.37573915179105
        ]
      },
      "properties": {
        "spill_id": "SPILL_UNSPECIFIED",
        "probability_band": "mean_trajectory",
        "timestep_utc": "2026-08-13T03:14:00Z",
        "hours_before_detection": 24.0
      }
    },
    {
      "type": "Feature",
      "geometry": {
        "type": "Polygon",
        "coordinates": [
          [
            [
              73.58052860177736,
              17.37997828549651
            ],
            [
              73.57799382033302,
              17.380105917745826
            ],
            [
              73.57585963373221,
              17.380890939172996
            ],
            [
              73.57160999460702,
              17.38304015642566
            ],
            [
              73.56750106295321,
              17.386412845209026
            ],
            [
              73.56437264659367,
              17.389709891179816
            ],
            [
              73.56127300895808,
              17.39736471192358
            ],
            [
              73.56115533164615,
              17.399105503663826
            ],
            [
              73.56282666747015,
              17.403008182834387
            ],
            [
              73.56581335893993,
              17.40630712952358
            ],
            [
              73.5685562211674,
              17.40703550342023
            ],
            [
              73.57783222980305,
              17.404916253037605
            ],
            [
              73.58648261081302,
              17.397008844627607
            ],
            [
              73.58937438985252,
              17.39382233390482
            ],
            [
              73.59014432126882,
              17.391839741696156
            ],
            [
              73.59039754609084,
              17.38954874900607
            ],
            [
              73.59063763215343,
              17.386068286834618
            ],
            [
              73.58949759556094,
              17.383428896851065
            ],
            [
              73.58875765745681,
              17.38234236529486
            ],
            [
              73.5847114322629,
              17.380222865956167
            ],
            [
              73.58052860177736,
              17.37997828549651
            ]
          ]
        ]
      },
      "properties": {
        "spill_id": "SPILL_UNSPECIFIED",
        "probability_band": 50,
        "timestep_utc": "2026-08-13T00:14:00Z",
        "hours_before_detection": 27.0
      }
    },
    {
      "type": "Feature",
      "geometry": {
        "type": "Polygon",
        "coordinates": [
          [
            [
              73.5823421699727,
              17.376197933057853
            ],
            [
              73.57936917144393,
              17.376862844208404
            ],
            [
              73.57190928248761,
              17.379948987407918
            ],
            [
              73.56784935092313,
              17.382146618410836
            ],
            [
              73.56386523438003,
              17.386947932877867
            ],
            [
              73.56089003292486,
              17.390747015749923
            ],
            [
              73.56020686466655,
              17.391781532857422
            ],
            [
              73.55757723115092,
              17.400213982350987
            ],
            [
              73.55970592957073,
              17.40668838006827
            ],
            [
              73.56324776517698,
              17.409665810707672
            ],
            [
              73.57078484521138,
              17.410427372674086
            ],
            [
              73.57359474973234,
              17.409652236751313
            ],
            [
              73.57778207604555,
              17.407587385052672
            ],
            [
              73.58964446272893,
              17.39818054622431
            ],
            [
              73.59361550130978,
              17.39141673257551
            ],
            [
              73.5945440918941,
              17.387074016831292
            ],
            [
              73.59446822234074,
              17.384779705053784
            ],
            [
              73.58940369750086,
              17.37712926569203
            ],
            [
              73.58417726333293,
              17.376246547784334
            ],
            [
              73.5823421699727,
              17.376197933057853
            ]
          ]
        ]
      },
      "properties": {
        "spill_id": "SPILL_UNSPECIFIED",
        "probability_band": 75,
        "timestep_utc": "2026-08-13T00:14:00Z",
        "hours_before_detection": 27.0
      }
    },
    {
      "type": "Feature",
      "geometry": {
        "type": "Polygon",
        "coordinates": [
          [
            [
              73.58850316687833,
              17.3744702826348
            ],
            [
              73.58564636996537,
              17.374845054534575
            ],
            [
              73.5680140668052,
              17.377191247130767
            ],
            [
              73.56719738348504,
              17.37739730319481
            ],
            [
              73.56020686466655,
              17.391781532857422
            ],
            [
              73.55549781931445,
              17.40202638782212
            ],
            [
              73.55537936057233,
              17.40472721617834
            ],
            [
              73.55695941364675,
              17.413259264476682
            ],
            [
              73.55923189922002,
              17.414255285317413
            ],
            [
              73.57069850555023,
              17.414377630767184
            ],
            [
              73.58987372399442,
              17.40364863210381
            ],
            [
              73.59513208582413,
              17.397588268055507
            ],
            [
              73.59874125459385,
              17.39112121996981
            ],
            [
              73.59910138664524,
              17.386279627378148
            ],
            [
              73.59767250617354,
              17.381343154362888
            ],
            [
              73.59378893606886,
              17.375079126438155
            ],
            [
              73.58850316687833,
              17.3744702826348
            ]
          ]
        ]
      },
      "properties": {
        "spill_id": "SPILL_UNSPECIFIED",
        "probability_band": 95,
        "timestep_utc": "2026-08-13T00:14:00Z",
        "hours_before_detection": 27.0
      }
    },
    {
      "type": "Feature",
      "geometry": {
        "type": "Point",
        "coordinates": [
          73.57599782847565,
          17.393308203473723
        ]
      },
      "properties": {
        "spill_id": "SPILL_UNSPECIFIED",
        "probability_band": "mean_trajectory",
        "timestep_utc": "2026-08-13T00:14:00Z",
        "hours_before_detection": 27.0
      }
    },
    {
      "type": "Feature",
      "geometry": {
        "type": "Polygon",
        "coordinates": [
          [
            [
              73.61624151038453,
              17.40343085926318
            ],
            [
              73.61387600343767,
              17.40404991064494
            ],
            [
              73.61153003745378,
              17.40491398572852
            ],
            [
              73.60782898365801,
              17.406852468897174
            ],
            [
              73.60392418016961,
              17.41013283807454
            ],
            [
              73.60025176288777,
              17.4148872332941
            ],
            [
              73.59951279131856,
              17.41698061170421
            ],
            [
              73.59762109875496,
              17.423747810664526
            ],
            [
              73.59771382103233,
              17.42439058139306
            ],
            [
              73.59864257135122,
              17.426988649069223
            ],
            [
              73.59883569358666,
              17.42713661899807
            ],
            [
              73.602846560464,
              17.42962436712272
            ],
            [
              73.60367917012401,
              17.430133402653524
            ],
            [
              73.60518587365038,
              17.430605756121608
            ],
            [
              73.61011967951745,
              17.429609640497095
            ],
            [
              73.61353812011339,
              17.428888752537855
            ],
            [
              73.62187007696187,
              17.42254887312511
            ],
            [
              73.62338457113125,
              17.420374733770174
            ],
            [
              73.62587917714794,
              17.415783863488652
            ],
            [
              73.62584654018154,
              17.408450541009866
            ],
            [
              73.62583867381962,
              17.407129685924573
            ],
            [
              73.62136394504613,
              17.40406064084722
            ],
            [
              73.61830428175996,
              17.40351830707057
            ],
            [
              73.61734855475491,
              17.403457866826674
            ],
            [
              73.61624151038453,
              17.40343085926318
            ]
          ]
        ]
      },
      "properties": {
        "spill_id": "SPILL_UNSPECIFIED",
        "probability_band": 50,
        "timestep_utc": "2026-08-12T21:14:00Z",
        "hours_before_detection": 30.0
      }
    },
    {
      "type": "Feature",
      "geometry": {
        "type": "Polygon",
        "coordinates": [
          [
            [
              73.61927695743525,
              17.39960694433046
            ],
            [
              73.61599753113369,
              17.40046739205058
            ],
            [
              73.60843040614878,
              17.403621061458942
            ],
            [
              73.60290789583168,
              17.40704627510264
            ],
            [
              73.59971572465649,
              17.410934966524355
            ],
            [
              73.5965912573905,
              17.415531422393595
            ],
            [
              73.59639826330564,
              17.41623948028348
            ],
            [
              73.59409017584628,
              17.425335619284553
            ],
            [
              73.59495388538907,
              17.428892911993945
            ],
            [
              73.59773207711208,
              17.432751879484304
            ],
            [
              73.59932468678628,
              17.433521262425405
            ],
            [
              73.60612620997435,
              17.433879367265586
            ],
            [
              73.60866724278794,
              17.43384454391799
            ],
            [
              73.61267117455432,
              17.43181363921819
            ],
            [
              73.62623633117417,
              17.421733069314357
            ],
            [
              73.62983545226275,
              17.415085739025223
            ],
            [
              73.63000219527308,
              17.4132445686254
            ],
            [
              73.62978251150267,
              17.40887239572284
            ],
            [
              73.6277183299636,
              17.40278733036027
            ],
            [
              73.6256328291596,
              17.400997474212282
            ],
            [
              73.6248222115819,
              17.400606327013854
            ],
            [
              73.61927695743525,
              17.39960694433046
            ]
          ]
        ]
      },
      "properties": {
        "spill_id": "SPILL_UNSPECIFIED",
        "probability_band": 75,
        "timestep_utc": "2026-08-12T21:14:00Z",
        "hours_before_detection": 30.0
      }
    },
    {
      "type": "Feature",
      "geometry": {
        "type": "Polygon",
        "coordinates": [
          [
            [
              73.62547118199745,
              17.39784403964754
            ],
            [
              73.62301505189212,
              17.39794518824278
            ],
            [
              73.60504379910554,
              17.4005776745188
            ],
            [
              73.6040098187059,
              17.40092714979492
            ],
            [
              73.5965912573905,
              17.415531422393595
            ],
            [
              73.59206214794716,
              17.42601039685973
            ],
            [
              73.592234654774,
              17.42823804004468
            ],
            [
              73.59341447345122,
              17.436572788466815
            ],
            [
              73.59534745533367,
              17.43819519835191
            ],
            [
              73.60612265840389,
              17.43845645338034
            ],
            [
              73.625019048547,
              17.427781470448274
            ],
            [
              73.62616977499754,
              17.42662314421169
            ],
            [
              73.63143313893262,
              17.42126554455894
            ],
            [
              73.63408100724155,
              17.416693320086722
            ],
            [
              73.63460942956034,
              17.413936675956506
            ],
            [
              73.63443033548566,
              17.410346739581755
            ],
            [
              73.63355392384578,
              17.40289170853298
            ],
            [
              73.62882831430893,
              17.399252727724132
            ],
            [
              73.62547118199745,
              17.39784403964754
            ]
          ]
        ]
      },
      "properties": {
        "spill_id": "SPILL_UNSPECIFIED",
        "probability_band": 95,
        "timestep_utc": "2026-08-12T21:14:00Z",
        "hours_before_detection": 30.0
      }
    },
    {
      "type": "Feature",
      "geometry": {
        "type": "Point",
        "coordinates": [
          73.61218865685697,
          17.417044363867326
        ]
      },
      "properties": {
        "spill_id": "SPILL_UNSPECIFIED",
        "probability_band": "mean_trajectory",
        "timestep_utc": "2026-08-12T21:14:00Z",
        "hours_before_detection": 30.0
      }
    },
    {
      "type": "Feature",
      "geometry": {
        "type": "Polygon",
        "coordinates": [
          [
            [
              73.64730522385449,
              17.425983705038387
            ],
            [
              73.64545342419743,
              17.4260798589955
            ],
            [
              73.64373482473574,
              17.42651071621996
            ],
            [
              73.63772119788905,
              17.428148918819975
            ],
            [
              73.63436152281041,
              17.429359996409264
            ],
            [
              73.63235100146284,
              17.430935666866127
            ],
            [
              73.63132136088349,
              17.432021486755332
            ],
            [
              73.63063944651728,
              17.432802423564727
            ],
            [
              73.62689001401148,
              17.437522683119436
            ],
            [
              73.62450507807587,
              17.441733066056987
            ],
            [
              73.62437994666381,
              17.44651067641198
            ],
            [
              73.62482371644747,
              17.449298673600154
            ],
            [
              73.62763936486303,
              17.452235214942817
            ],
            [
              73.63209257478879,
              17.453471301394774
            ],
            [
              73.63411988948124,
              17.45305056983399
            ],
            [
              73.63878950995387,
              17.451460589817845
            ],
            [
              73.6403654107885,
              17.450781784177288
            ],
            [
              73.6415771676247,
              17.450065182274802
            ],
            [
              73.64759429673147,
              17.444325832354153
            ],
            [
              73.6501826542838,
              17.441240372822897
            ],
            [
              73.65201714000816,
              17.43792946582254
            ],
            [
              73.65240026304873,
              17.43514633037182
            ],
            [
              73.65258730980399,
              17.431070572029704
            ],
            [
              73.65248145138393,
              17.42967028529082
            ],
            [
              73.64730522385449,
              17.425983705038387
            ]
          ]
        ]
      },
      "properties": {
        "spill_id": "SPILL_UNSPECIFIED",
        "probability_band": 50,
        "timestep_utc": "2026-08-12T18:14:00Z",
        "hours_before_detection": 33.0
      }
    },
    {
      "type": "Feature",
      "geometry": {
        "type": "Polygon",
        "coordinates": [
          [
            [
              73.64683213789799,
              17.4224762869059
            ],
            [
              73.64290230046224,
              17.42321827208186
            ],
            [
              73.6362613336196,
              17.424939788272777
            ],
            [
              73.63359299493851,
              17.426967366140193
            ],
            [
              73.62594056085729,
              17.43322284587973
            ],
            [
              73.62241019697554,
              17.43835073330064
            ],
            [
              73.62096893723941,
              17.44336028822915
            ],
            [
              73.62008858656176,
              17.447150968709114
            ],
            [
              73.62061846855839,
              17.450705552746513
            ],
            [
              73.62530677540774,
              17.455782773196397
            ],
            [
              73.62571741175778,
              17.456026939438956
            ],
            [
              73.63166309111145,
              17.456466396686317
            ],
            [
              73.63533260677795,
              17.45624074881127
            ],
            [
              73.6489025185199,
              17.448033858439892
            ],
            [
              73.6518335353917,
              17.445615800925903
            ],
            [
              73.65319290048521,
              17.443406044017703
            ],
            [
              73.65613694895038,
              17.4374063685645
            ],
            [
              73.65639775787939,
              17.436458571994393
            ],
            [
              73.657011929368,
              17.431273918801423
            ],
            [
              73.65354296571033,
              17.424573726463723
            ],
            [
              73.65112446377277,
              17.422856411081135
            ],
            [
              73.64683213789799,
              17.4224762869059
            ]
          ]
        ]
      },
      "properties": {
        "spill_id": "SPILL_UNSPECIFIED",
        "probability_band": 75,
        "timestep_utc": "2026-08-12T18:14:00Z",
        "hours_before_detection": 33.0
      }
    },
    {
      "type": "Feature",
      "geometry": {
        "type": "Polygon",
        "coordinates": [
          [
            [
              73.65275255282019,
              17.42080055935745
            ],
            [
              73.65092347323372,
              17.42083937236335
            ],
            [
              73.63239822896354,
              17.423645182193155
            ],
            [
              73.63111186498634,
              17.42384409574056
            ],
            [
              73.63054875163017,
              17.423997567345484
            ],
            [
              73.62241019697554,
              17.43835073330064
            ],
            [
              73.61803027304971,
              17.448129202463395
            ],
            [
              73.61993226944708,
              17.45883745505392
            ],
            [
              73.62058691727789,
              17.45964969124729
            ],
            [
              73.62090544597068,
              17.459919708923472
            ],
            [
              73.63201468204542,
              17.460507914105847
            ],
            [
              73.6363238531615,
              17.458803145967575
            ],
            [
              73.65245175506074,
              17.44894414756989
            ],
            [
              73.65913207686764,
              17.441750796609384
            ],
            [
              73.66215842298587,
              17.43385439098975
            ],
            [
              73.66127304131527,
              17.42609295787319
            ],
            [
              73.65453461244793,
              17.42087272917318
            ],
            [
              73.65275255282019,
              17.42080055935745
            ]
          ]
        ]
      },
      "properties": {
        "spill_id": "SPILL_UNSPECIFIED",
        "probability_band": 95,
        "timestep_utc": "2026-08-12T18:14:00Z",
        "hours_before_detection": 33.0
      }
    },
    {
      "type": "Feature",
      "geometry": {
        "type": "Point",
        "coordinates": [
          73.638778932826,
          17.439552562018726
        ]
      },
      "properties": {
        "spill_id": "SPILL_UNSPECIFIED",
        "probability_band": "mean_trajectory",
        "timestep_utc": "2026-08-12T18:14:00Z",
        "hours_before_detection": 33.0
      }
    },
    {
      "type": "Feature",
      "geometry": {
        "type": "Polygon",
        "coordinates": [
          [
            [
              73.66889097778044,
              17.442003360538305
            ],
            [
              73.66653228756616,
              17.442419563537264
            ],
            [
              73.66058662719549,
              17.44540607157721
            ],
            [
              73.65776612595995,
              17.447743456381144
            ],
            [
              73.65531638367159,
              17.449889351878927
            ],
            [
              73.65221167626244,
              17.454475114621463
            ],
            [
              73.64999821360885,
              17.461525051422484
            ],
            [
              73.65029089693991,
              17.46277963049259
            ],
            [
              73.65074952047199,
              17.46468408129932
            ],
            [
              73.65156541986084,
              17.46656754027453
            ],
            [
              73.65387919210903,
              17.46865827840228
            ],
            [
              73.65567604655702,
              17.469455070186942
            ],
            [
              73.65962736678874,
              17.469657397826925
            ],
            [
              73.66566525867086,
              17.467617630171194
            ],
            [
              73.66754419369418,
              17.466229012661195
            ],
            [
              73.67453564128577,
              17.459838677565394
            ],
            [
              73.67902340565232,
              17.454211151065774
            ],
            [
              73.6786117763821,
              17.44573703102087
            ],
            [
              73.67716963310879,
              17.444108564135878
            ],
            [
              73.66889097778044,
              17.442003360538305
            ]
          ]
        ]
      },
      "properties": {
        "spill_id": "SPILL_UNSPECIFIED",
        "probability_band": 50,
        "timestep_utc": "2026-08-12T15:14:00Z",
        "hours_before_detection": 36.0
      }
    },
    {
      "type": "Feature",
      "geometry": {
        "type": "Polygon",
        "coordinates": [
          [
            [
              73.67305463577736,
              17.43838954567113
            ],
            [
              73.66885936090006,
              17.439468919511462
            ],
            [
              73.66169339174509,
              17.44174541342535
            ],
            [
              73.65681418994065,
              17.444682112642724
            ],
            [
              73.65242004179838,
              17.449100527252078
            ],
            [
              73.64908038466338,
              17.45411146135039
            ],
            [
              73.64671859123246,
              17.46293518201194
            ],
            [
              73.64709136228558,
              17.464967795879325
            ],
            [
              73.64781691709959,
              17.468698930770934
            ],
            [
              73.65017950989393,
              17.470832579511455
            ],
            [
              73.65186684788365,
              17.472075356758335
            ],
            [
              73.65508631101625,
              17.47304373105918
            ],
            [
              73.66189731375513,
              17.471898537103197
            ],
            [
              73.66518373630917,
              17.47001282832713
            ],
            [
              73.67579889461364,
              17.463557906074982
            ],
            [
              73.67736225217706,
              17.462179289685608
            ],
            [
              73.67953451057035,
              17.45916054780539
            ],
            [
              73.6798476491249,
              17.45869813018122
            ],
            [
              73.68175540341517,
              17.45453063473567
            ],
            [
              73.68249574242861,
              17.452518356582466
            ],
            [
              73.68264649553116,
              17.448086100186533
            ],
            [
              73.68116455070756,
              17.44454455664517
            ],
            [
              73.6791753801351,
              17.439819761843868
            ],
            [
              73.67305463577736,
              17.43838954567113
            ]
          ]
        ]
      },
      "properties": {
        "spill_id": "SPILL_UNSPECIFIED",
        "probability_band": 75,
        "timestep_utc": "2026-08-12T15:14:00Z",
        "hours_before_detection": 36.0
      }
    },
    {
      "type": "Feature",
      "geometry": {
        "type": "Polygon",
        "coordinates": [
          [
            [
              73.68172437970229,
              17.43629218932914
            ],
            [
              73.67765166545762,
              17.436523430002243
            ],
            [
              73.65692715405764,
              17.440260701411063
            ],
            [
              73.65616634243537,
              17.440619103423046
            ],
            [
              73.64908038466338,
              17.45411146135039
            ],
            [
              73.64466781315474,
              17.463899246422894
            ],
            [
              73.64484978864229,
              17.467124353001637
            ],
            [
              73.64556168021164,
              17.474186750268053
            ],
            [
              73.6479340282224,
              17.475441060547308
            ],
            [
              73.6586334608886,
              17.4762191933355
            ],
            [
              73.66162918702258,
              17.475599499490908
            ],
            [
              73.67874546757211,
              17.464823203958968
            ],
            [
              73.68409720036038,
              17.45985969558286
            ],
            [
              73.68539841465552,
              17.45735328685579
            ],
            [
              73.68635722974709,
              17.455420651996256
            ],
            [
              73.68677074867318,
              17.454180598971956
            ],
            [
              73.6872883806582,
              17.45211684393197
            ],
            [
              73.6871776995442,
              17.447709493492187
            ],
            [
              73.68669477700756,
              17.44283377429367
            ],
            [
              73.68172437970229,
              17.43629218932914
            ]
          ]
        ]
      },
      "properties": {
        "spill_id": "SPILL_UNSPECIFIED",
        "probability_band": 95,
        "timestep_utc": "2026-08-12T15:14:00Z",
        "hours_before_detection": 36.0
      }
    },
    {
      "type": "Feature",
      "geometry": {
        "type": "Point",
        "coordinates": [
          73.66496041617235,
          17.4556499875413
        ]
      },
      "properties": {
        "spill_id": "SPILL_UNSPECIFIED",
        "probability_band": "mean_trajectory",
        "timestep_utc": "2026-08-12T15:14:00Z",
        "hours_before_detection": 36.0
      }
    },
    {
      "type": "Feature",
      "geometry": {
        "type": "Point",
        "coordinates": [
          73.66496041617235,
          17.4556499875413
        ]
      },
      "properties": {
        "spill_id": "SPILL_UNSPECIFIED",
        "probability_band": "best_estimate",
        "timestep_utc": "2026-08-12T15:14:00Z",
        "hours_before_detection": 36.0
      }
    }
  ],
  "properties": {
    "spill_id": "SPILL_UNSPECIFIED",
    "detection_time_utc": "2026-08-14T03:14:00Z",
    "trajectory": [
      {
        "hours": 0.0,
        "timestep_utc": "2026-08-14T03:14:00Z",
        "coordinates": [
          73.30421,
          17.21709
        ]
      },
      {
        "hours": 3.0,
        "timestep_utc": "2026-08-14T00:14:00Z",
        "coordinates": [
          73.34159,
          17.23723
        ]
      },
      {
        "hours": 6.0,
        "timestep_utc": "2026-08-13T21:14:00Z",
        "coordinates": [
          73.37554,
          17.26227
        ]
      },
      {
        "hours": 9.0,
        "timestep_utc": "2026-08-13T18:14:00Z",
        "coordinates": [
          73.40157,
          17.2838
        ]
      },
      {
        "hours": 12.0,
        "timestep_utc": "2026-08-13T15:14:00Z",
        "coordinates": [
          73.43109,
          17.2998
        ]
      },
      {
        "hours": 15.0,
        "timestep_utc": "2026-08-13T12:14:00Z",
        "coordinates": [
          73.46639,
          17.31786
        ]
      },
      {
        "hours": 18.0,
        "timestep_utc": "2026-08-13T09:14:00Z",
        "coordinates": [
          73.49512,
          17.3405
        ]
      },
      {
        "hours": 21.0,
        "timestep_utc": "2026-08-13T06:14:00Z",
        "coordinates": [
          73.51458,
          17.36064
        ]
      },
      {
        "hours": 24.0,
        "timestep_utc": "2026-08-13T03:14:00Z",
        "coordinates": [
          73.53926,
          17.37574
        ]
      },
      {
        "hours": 27.0,
        "timestep_utc": "2026-08-13T00:14:00Z",
        "coordinates": [
          73.576,
          17.39331
        ]
      },
      {
        "hours": 30.0,
        "timestep_utc": "2026-08-12T21:14:00Z",
        "coordinates": [
          73.61219,
          17.41704
        ]
      },
      {
        "hours": 33.0,
        "timestep_utc": "2026-08-12T18:14:00Z",
        "coordinates": [
          73.63878,
          17.43955
        ]
      },
      {
        "hours": 36.0,
        "timestep_utc": "2026-08-12T15:14:00Z",
        "coordinates": [
          73.66496,
          17.45565
        ]
      }
    ]
  }
}