{
  "type": "FeatureCollection",
  "features": [
    {
      "type": "Feature",
      "geometry": {
        "type": "Polygon",
        "coordinates": [
          [
            [
              73.414,
              17.324
            ],
            [
              73.414,
              17.323
            ],
            [
              73.412,
              17.323
            ],
            [
              73.412,
              17.322000000000003
            ],
            [
              73.411,
              17.322000000000003
            ],
            [
              73.411,
              17.323
            ],
            [
              73.40700000000001,
              17.323
            ],
            [
              73.40700000000001,
              17.322000000000003
            ],
            [
              73.405,
              17.322000000000003
            ],
            [
              73.405,
              17.32
            ],
            [
              73.40400000000001,
              17.32
            ],
            [
              73.40400000000001,
              17.319000000000003
            ],
            [
              73.403,
              17.319000000000003
            ],
            [
              73.403,
              17.318
            ],
            [
              73.40100000000001,
              17.318
            ],
            [
              73.40100000000001,
              17.317
            ],
            [
              73.4,
              17.317
            ],
            [
              73.4,
              17.318
            ],
            [
              73.39200000000001,
              17.318
            ],
            [
              73.39200000000001,
              17.317
            ],
            [
              73.39,
              17.317
            ],
            [
              73.39,
              17.313000000000002
            ],
            [
              73.388,
              17.313000000000002
            ],
            [
              73.388,
              17.312
            ],
            [
              73.387,
              17.312
            ],
            [
              73.387,
              17.313000000000002
            ],
            [
              73.385,
              17.313000000000002
            ],
            [
              73.385,
              17.314
            ],
            [
              73.382,
              17.314
            ],
            [
              73.382,
              17.315
            ],
            [
              73.38000000000001,
              17.315
            ],
            [
              73.38000000000001,
              17.317
            ],
            [
              73.378,
              17.317
            ],
            [
              73.378,
              17.318
            ],
            [
              73.37700000000001,
              17.318
            ],
            [
              73.37700000000001,
              17.317
            ],
            [
              73.375,
              17.317
            ],
            [
              73.375,
              17.318
            ],
            [
              73.37,
              17.318
            ],
            [
              73.37,
              17.319000000000003
            ],
            [
              73.36800000000001,
              17.319000000000003
            ],
            [
              73.36800000000001,
              17.318
            ],
            [
              73.36600000000001,
              17.318
            ],
            [
              73.36600000000001,
              17.317
            ],
            [
              73.36200000000001,
              17.317
            ],
            [
              73.36200000000001,
              17.316000000000003
            ],
            [
              73.36000000000001,
              17.316000000000003
            ],
            [
              73.36000000000001,
              17.313000000000002
            ],
            [
              73.361,
              17.313000000000002
            ],
            [
              73.361,
              17.312
            ],
            [
              73.36300000000001,
              17.312
            ],
            [
              73.36300000000001,
              17.307000000000002
            ],
            [
              73.36200000000001,
              17.307000000000002
            ],
            [
              73.36200000000001,
              17.290000000000003
            ],
            [
              73.36000000000001,
              17.290000000000003
            ],
            [
              73.36000000000001,
              17.289
            ],
            [
              73.358,
              17.289
            ],
            [
              73.358,
              17.285
            ],
            [
              73.35900000000001,
              17.285
            ],
            [
              73.35900000000001,
              17.284000000000002
            ],
            [
              73.361,
              17.284000000000002
            ],
            [
              73.361,
              17.283
            ],
            [
              73.36200000000001,
              17.283
            ],
            [
              73.36200000000001,
              17.282
            ],
            [
              73.364,
              17.282
            ],
            [
              73.364,
              17.28
            ],
            [
              73.36600000000001,
              17.28
            ],
            [
              73.36600000000001,
              17.279000000000003
            ],
            [
              73.367,
              17.279000000000003
            ],
            [
              73.367,
              17.28
            ],
            [
              73.369,
              17.28
            ],
            [
              73.369,
              17.285
            ],
            [
              73.37100000000001,
              17.285
            ],
            [
              73.37100000000001,
              17.286
            ],
            [
              73.373,
              17.286
            ],
            [
              73.373,
              17.287000000000003
            ],
            [
              73.376,
              17.287000000000003
            ],
            [
              73.376,
              17.286
            ],
            [
              73.378,
              17.286
            ],
            [
              73.378,
              17.287000000000003
            ],
            [
              73.382,
              17.287000000000003
            ],
            [
              73.382,
              17.286
            ],
            [
              73.384,
              17.286
            ],
            [
              73.384,
              17.285
            ],
            [
              73.39,
              17.285
            ],
            [
              73.39,
              17.286
            ],
            [
              73.39200000000001,
              17.286
            ],
            [
              73.39200000000001,
              17.287000000000003
            ],
            [
              73.39500000000001,
              17.287000000000003
            ],
            [
              73.39500000000001,
              17.288
            ],
            [
              73.39800000000001,
              17.288
            ],
            [
              73.39800000000001,
              17.287000000000003
            ],
            [
              73.4,
              17.287000000000003
            ],
            [
              73.4,
              17.286
            ],
            [
              73.402,
              17.286
            ],
            [
              73.402,
              17.285
            ],
            [
              73.405,
              17.285
            ],
            [
              73.405,
              17.286
            ],
            [
              73.40700000000001,
              17.286
            ],
            [
              73.40700000000001,
              17.287000000000003
            ],
            [
              73.411,
              17.287000000000003
            ],
            [
              73.411,
              17.286
            ],
            [
              73.412,
              17.286
            ],
            [
              73.412,
              17.287000000000003
            ],
            [
              73.414,
              17.287000000000003
            ],
            [
              73.414,
              17.288
            ],
            [
              73.41600000000001,
              17.288
            ],
            [
              73.41600000000001,
              17.289
            ],
            [
              73.417,
              17.289
            ],
            [
              73.417,
              17.290000000000003
            ],
            [
              73.41900000000001,
              17.290000000000003
            ],
            [
              73.41900000000001,
              17.291
            ],
            [
              73.421,
              17.291
            ],
            [
              73.421,
              17.292
            ],
            [
              73.42200000000001,
              17.292
            ],
            [
              73.42200000000001,
              17.291
            ],
            [
              73.424,
              17.291
            ],
            [
              73.424,
              17.290000000000003
            ],
            [
              73.426,
              17.290000000000003
            ],
            [
              73.426,
              17.289
            ],
            [
              73.427,
              17.289
            ],
            [
              73.427,
              17.290000000000003
            ],
            [
              73.429,
              17.290000000000003
            ],
            [
              73.429,
              17.291
            ],
            [
              73.43100000000001,
              17.291
            ],
            [
              73.43100000000001,
              17.292
            ],
            [
              73.43400000000001,
              17.292
            ],
            [
              73.43400000000001,
              17.291
            ],
            [
              73.436,
              17.291
            ],
            [
              73.436,
              17.324
            ],
            [
              73.43100000000001,
              17.324
            ],
            [
              73.43100000000001,
              17.323
            ],
            [
              73.42500000000001,
              17.323
            ],
            [
              73.42500000000001,
              17.322000000000003
            ],
            [
              73.423,
              17.322000000000003
            ],
            [
              73.423,
              17.321
            ],
            [
              73.421,
              17.321
            ],
            [
              73.421,
              17.322000000000003
            ],
            [
              73.41900000000001,
              17.322000000000003
            ],
            [
              73.41900000000001,
              17.323
            ],
            [
              73.41600000000001,
              17.323
            ],
            [
              73.41600000000001,
              17.324
            ],
            [
              73.414,
              17.324
            ]
          ],
          [
            [
              73.396,
              17.312
            ],
            [
              73.397,
              17.312
            ],
            [
              73.397,
              17.311
            ],
            [
              73.399,
              17.311
            ],
            [
              73.399,
              17.306
            ],
            [
              73.39800000000001,
              17.306
            ],
            [
              73.39800000000001,
              17.305000000000003
            ],
            [
              73.396,
              17.305000000000003
            ],
            [
              73.396,
              17.304000000000002
            ],
            [
              73.39500000000001,
              17.304000000000002
            ],
            [
              73.39500000000001,
              17.305000000000003
            ],
            [
              73.393,
              17.305000000000003
            ],
            [
              73.393,
              17.307000000000002
            ],
            [
              73.391,
              17.307000000000002
            ],
            [
              73.391,
              17.310000000000002
            ],
            [
              73.393,
              17.310000000000002
            ],
            [
              73.393,
              17.311
            ],
            [
              73.396,
              17.311
            ],
            [
              73.396,
              17.312
            ]
          ]
        ]
      },
      "properties": {
        "label": "Oil Spill Slick",
        "confidence": 55.66,
        "pixel_count": 2378,
        "detection_method": "Enhanced SAR class-aware dark-patch",
        "image_source": "class_1_00001.jpg",
        "detection_time_utc": "2026-08-14T03:14:00Z"
      }
    }
  ]
}